<gpx xmlns:ns3="http://www.garmin.com/xmlschemas/TrackPointExtension/v1" xmlns="http://www.topografix.com/GPX/1/1" xmlns:xsi="http://www.w3.org/2001/XMLSchema-instance" xmlns:ns2="http://www.garmin.com/xmlschemas/GpxExtensions/v3" creator="Garmin Connect" version="1.1" xsi:schemaLocation="http://www.topografix.com/GPX/1/1 http://www.topografix.com/GPX/11.xsd">
  <extensions>
<distance>866.8</distance>
<average_hr>144.0</average_hr>
<average_speed>4.317999839782715</average_speed>
<start_time>2026-03-17T12:10:51+00:00</start_time>
<end_time>2026-03-17T12:14:11.729000+00:00</end_time>
<moving_time>198.0</moving_time>
<elapsed_time>200.729</elapsed_time>
</extensions>
<metadata>
    <link href="connect.garmin.com">
      <text>Garmin Connect</text>
    </link>
    <time>2026-03-17T12:10:51.000Z</time>
  </metadata>
  <trk>
    <name>西安市 跑步</name>
    <type>running</type>
    <trkseg>
      <trkpt lat="34.234657399356365203857421875" lon="108.9372034929692745208740234375">
        <ele>406.20001220703125</ele>
        <time>2026-03-17T12:10:51.000Z</time>
        <extensions>
          <ns3:TrackPointExtension>
            <ns3:hr>62</ns3:hr>
            <ns3:cad>0</ns3:cad>
          </ns3:TrackPointExtension>
        </extensions>
      </trkpt>
      <trkpt lat="34.2346495203673839569091796875" lon="108.9371847175061702728271484375">
        <ele>406.20001220703125</ele>
        <time>2026-03-17T12:10:52.000Z</time>
        <extensions>
          <ns3:TrackPointExtension>
            <ns3:hr>62</ns3:hr>
            <ns3:cad>0</ns3:cad>
          </ns3:TrackPointExtension>
        </extensions>
      </trkpt>
      <trkpt lat="34.2346186749637126922607421875" lon="108.9371602423489093780517578125">
        <ele>406</ele>
        <time>2026-03-17T12:10:53.000Z</time>
        <extensions>
          <ns3:TrackPointExtension>
            <ns3:hr>62</ns3:hr>
            <ns3:cad>0</ns3:cad>
          </ns3:TrackPointExtension>
        </extensions>
      </trkpt>
      <trkpt lat="34.23457550816237926483154296875" lon="108.937133252620697021484375">
        <ele>406</ele>
        <time>2026-03-17T12:10:54.000Z</time>
        <extensions>
          <ns3:TrackPointExtension>
            <ns3:hr>63</ns3:hr>
            <ns3:cad>0</ns3:cad>
          </ns3:TrackPointExtension>
        </extensions>
      </trkpt>
      <trkpt lat="34.2345455847680568695068359375" lon="108.93711087293922901153564453125">
        <ele>406</ele>
        <time>2026-03-17T12:10:55.000Z</time>
        <extensions>
          <ns3:TrackPointExtension>
            <ns3:hr>63</ns3:hr>
            <ns3:cad>0</ns3:cad>
          </ns3:TrackPointExtension>
        </extensions>
      </trkpt>
      <trkpt lat="34.23450417816638946533203125" lon="108.937090002000331878662109375">
        <ele>405.79998779296875</ele>
        <time>2026-03-17T12:10:56.000Z</time>
        <extensions>
          <ns3:TrackPointExtension>
            <ns3:hr>65</ns3:hr>
            <ns3:cad>0</ns3:cad>
          </ns3:TrackPointExtension>
        </extensions>
      </trkpt>
      <trkpt lat="34.23446050845086574554443359375" lon="108.9370724000036716461181640625">
        <ele>406</ele>
        <time>2026-03-17T12:10:57.000Z</time>
        <extensions>
          <ns3:TrackPointExtension>
            <ns3:hr>67</ns3:hr>
            <ns3:cad>0</ns3:cad>
          </ns3:TrackPointExtension>
        </extensions>
      </trkpt>
      <trkpt lat="34.2344275675714015960693359375" lon="108.93705479800701141357421875">
        <ele>406</ele>
        <time>2026-03-17T12:10:58.000Z</time>
        <extensions>
          <ns3:TrackPointExtension>
            <ns3:hr>68</ns3:hr>
            <ns3:cad>0</ns3:cad>
          </ns3:TrackPointExtension>
        </extensions>
      </trkpt>
      <trkpt lat="34.23438892699778079986572265625" lon="108.937056474387645721435546875">
        <ele>406.20001220703125</ele>
        <time>2026-03-17T12:10:59.000Z</time>
        <extensions>
          <ns3:TrackPointExtension>
            <ns3:hr>70</ns3:hr>
            <ns3:cad>0</ns3:cad>
          </ns3:TrackPointExtension>
        </extensions>
      </trkpt>
      <trkpt lat="34.23434031195938587188720703125" lon="108.93705689348280429840087890625">
        <ele>406.20001220703125</ele>
        <time>2026-03-17T12:11:00.000Z</time>
        <extensions>
          <ns3:TrackPointExtension>
            <ns3:hr>71</ns3:hr>
            <ns3:cad>0</ns3:cad>
          </ns3:TrackPointExtension>
        </extensions>
      </trkpt>
      <trkpt lat="34.23430577851831912994384765625" lon="108.93705354072153568267822265625">
        <ele>406.20001220703125</ele>
        <time>2026-03-17T12:11:01.000Z</time>
        <extensions>
          <ns3:TrackPointExtension>
            <ns3:hr>73</ns3:hr>
            <ns3:cad>91</ns3:cad>
          </ns3:TrackPointExtension>
        </extensions>
      </trkpt>
      <trkpt lat="34.23426772467792034149169921875" lon="108.93705203197896480560302734375">
        <ele>406.20001220703125</ele>
        <time>2026-03-17T12:11:02.000Z</time>
        <extensions>
          <ns3:TrackPointExtension>
            <ns3:hr>75</ns3:hr>
            <ns3:cad>99</ns3:cad>
          </ns3:TrackPointExtension>
        </extensions>
      </trkpt>
      <trkpt lat="34.2342264018952846527099609375" lon="108.937052451074123382568359375">
        <ele>406.20001220703125</ele>
        <time>2026-03-17T12:11:03.000Z</time>
        <extensions>
          <ns3:TrackPointExtension>
            <ns3:hr>76</ns3:hr>
            <ns3:cad>100</ns3:cad>
          </ns3:TrackPointExtension>
        </extensions>
      </trkpt>
      <trkpt lat="34.23419035971164703369140625" lon="108.937047086656093597412109375">
        <ele>406.20001220703125</ele>
        <time>2026-03-17T12:11:04.000Z</time>
        <extensions>
          <ns3:TrackPointExtension>
            <ns3:hr>77</ns3:hr>
            <ns3:cad>101</ns3:cad>
          </ns3:TrackPointExtension>
        </extensions>
      </trkpt>
      <trkpt lat="34.23415674827992916107177734375" lon="108.93704549409449100494384765625">
        <ele>406.20001220703125</ele>
        <time>2026-03-17T12:11:05.000Z</time>
        <extensions>
          <ns3:TrackPointExtension>
            <ns3:hr>79</ns3:hr>
            <ns3:cad>101</ns3:cad>
          </ns3:TrackPointExtension>
        </extensions>
      </trkpt>
      <trkpt lat="34.23411601223051548004150390625" lon="108.93704046495258808135986328125">
        <ele>406.20001220703125</ele>
        <time>2026-03-17T12:11:06.000Z</time>
        <extensions>
          <ns3:TrackPointExtension>
            <ns3:hr>80</ns3:hr>
            <ns3:cad>101</ns3:cad>
          </ns3:TrackPointExtension>
        </extensions>
      </trkpt>
      <trkpt lat="34.23407544381916522979736328125" lon="108.93704138696193695068359375">
        <ele>406.20001220703125</ele>
        <time>2026-03-17T12:11:07.000Z</time>
        <extensions>
          <ns3:TrackPointExtension>
            <ns3:hr>82</ns3:hr>
            <ns3:cad>101</ns3:cad>
          </ns3:TrackPointExtension>
        </extensions>
      </trkpt>
      <trkpt lat="34.234045855700969696044921875" lon="108.93703727982938289642333984375">
        <ele>406.20001220703125</ele>
        <time>2026-03-17T12:11:08.000Z</time>
        <extensions>
          <ns3:TrackPointExtension>
            <ns3:hr>83</ns3:hr>
            <ns3:cad>101</ns3:cad>
          </ns3:TrackPointExtension>
        </extensions>
      </trkpt>
      <trkpt lat="34.2340059578418731689453125" lon="108.937046416103839874267578125">
        <ele>406.20001220703125</ele>
        <time>2026-03-17T12:11:09.000Z</time>
        <extensions>
          <ns3:TrackPointExtension>
            <ns3:hr>84</ns3:hr>
            <ns3:cad>101</ns3:cad>
          </ns3:TrackPointExtension>
        </extensions>
      </trkpt>
      <trkpt lat="34.233963377773761749267578125" lon="108.937051109969615936279296875">
        <ele>406.20001220703125</ele>
        <time>2026-03-17T12:11:10.000Z</time>
        <extensions>
          <ns3:TrackPointExtension>
            <ns3:hr>85</ns3:hr>
            <ns3:cad>101</ns3:cad>
          </ns3:TrackPointExtension>
        </extensions>
      </trkpt>
      <trkpt lat="34.2339330352842807769775390625" lon="108.9370455779135227203369140625">
        <ele>406.20001220703125</ele>
        <time>2026-03-17T12:11:11.000Z</time>
        <extensions>
          <ns3:TrackPointExtension>
            <ns3:hr>86</ns3:hr>
            <ns3:cad>101</ns3:cad>
          </ns3:TrackPointExtension>
        </extensions>
      </trkpt>
      <trkpt lat="34.2338914610445499420166015625" lon="108.9370472542941570281982421875">
        <ele>406.20001220703125</ele>
        <time>2026-03-17T12:11:12.000Z</time>
        <extensions>
          <ns3:TrackPointExtension>
            <ns3:hr>87</ns3:hr>
            <ns3:cad>101</ns3:cad>
          </ns3:TrackPointExtension>
        </extensions>
      </trkpt>
      <trkpt lat="34.23384645022451877593994140625" lon="108.93704934976994991302490234375">
        <ele>406.20001220703125</ele>
        <time>2026-03-17T12:11:13.000Z</time>
        <extensions>
          <ns3:TrackPointExtension>
            <ns3:hr>89</ns3:hr>
            <ns3:cad>101</ns3:cad>
          </ns3:TrackPointExtension>
        </extensions>
      </trkpt>
      <trkpt lat="34.23381225205957889556884765625" lon="108.9370432309806346893310546875">
        <ele>406.20001220703125</ele>
        <time>2026-03-17T12:11:14.000Z</time>
        <extensions>
          <ns3:TrackPointExtension>
            <ns3:hr>91</ns3:hr>
            <ns3:cad>101</ns3:cad>
          </ns3:TrackPointExtension>
        </extensions>
      </trkpt>
      <trkpt lat="34.23377637751400470733642578125" lon="108.93705504946410655975341796875">
        <ele>406.20001220703125</ele>
        <time>2026-03-17T12:11:15.000Z</time>
        <extensions>
          <ns3:TrackPointExtension>
            <ns3:hr>93</ns3:hr>
            <ns3:cad>101</ns3:cad>
          </ns3:TrackPointExtension>
        </extensions>
      </trkpt>
      <trkpt lat="34.2337271757423877716064453125" lon="108.93706242553889751434326171875">
        <ele>406.399993896484375</ele>
        <time>2026-03-17T12:11:16.000Z</time>
        <extensions>
          <ns3:TrackPointExtension>
            <ns3:hr>94</ns3:hr>
            <ns3:cad>101</ns3:cad>
          </ns3:TrackPointExtension>
        </extensions>
      </trkpt>
      <trkpt lat="34.23368350602686405181884765625" lon="108.937065191566944122314453125">
        <ele>406.399993896484375</ele>
        <time>2026-03-17T12:11:17.000Z</time>
        <extensions>
          <ns3:TrackPointExtension>
            <ns3:hr>96</ns3:hr>
            <ns3:cad>101</ns3:cad>
          </ns3:TrackPointExtension>
        </extensions>
      </trkpt>
      <trkpt lat="34.2336530797183513641357421875" lon="108.93705689348280429840087890625">
        <ele>406.399993896484375</ele>
        <time>2026-03-17T12:11:18.000Z</time>
        <extensions>
          <ns3:TrackPointExtension>
            <ns3:hr>97</ns3:hr>
            <ns3:cad>101</ns3:cad>
          </ns3:TrackPointExtension>
        </extensions>
      </trkpt>
      <trkpt lat="34.233608655631542205810546875" lon="108.93706209026277065277099609375">
        <ele>406.399993896484375</ele>
        <time>2026-03-17T12:11:19.000Z</time>
        <extensions>
          <ns3:TrackPointExtension>
            <ns3:hr>99</ns3:hr>
            <ns3:cad>101</ns3:cad>
          </ns3:TrackPointExtension>
        </extensions>
      </trkpt>
      <trkpt lat="34.2335675843060016632080078125" lon="108.9370697177946567535400390625">
        <ele>406.399993896484375</ele>
        <time>2026-03-17T12:11:20.000Z</time>
        <extensions>
          <ns3:TrackPointExtension>
            <ns3:hr>100</ns3:hr>
            <ns3:cad>101</ns3:cad>
          </ns3:TrackPointExtension>
        </extensions>
      </trkpt>
      <trkpt lat="34.23353816382586956024169921875" lon="108.937068544328212738037109375">
        <ele>406.399993896484375</ele>
        <time>2026-03-17T12:11:21.000Z</time>
        <extensions>
          <ns3:TrackPointExtension>
            <ns3:hr>102</ns3:hr>
            <ns3:cad>101</ns3:cad>
          </ns3:TrackPointExtension>
        </extensions>
      </trkpt>
      <trkpt lat="34.23350363038480281829833984375" lon="108.937094025313854217529296875">
        <ele>406.399993896484375</ele>
        <time>2026-03-17T12:11:22.000Z</time>
        <extensions>
          <ns3:TrackPointExtension>
            <ns3:hr>104</ns3:hr>
            <ns3:cad>101</ns3:cad>
          </ns3:TrackPointExtension>
        </extensions>
      </trkpt>
      <trkpt lat="34.233468510210514068603515625" lon="108.9371233619749546051025390625">
        <ele>406.399993896484375</ele>
        <time>2026-03-17T12:11:23.000Z</time>
        <extensions>
          <ns3:TrackPointExtension>
            <ns3:hr>106</ns3:hr>
            <ns3:cad>101</ns3:cad>
          </ns3:TrackPointExtension>
        </extensions>
      </trkpt>
      <trkpt lat="34.23344110138714313507080078125" lon="108.937137611210346221923828125">
        <ele>406.399993896484375</ele>
        <time>2026-03-17T12:11:24.000Z</time>
        <extensions>
          <ns3:TrackPointExtension>
            <ns3:hr>108</ns3:hr>
            <ns3:cad>101</ns3:cad>
          </ns3:TrackPointExtension>
        </extensions>
      </trkpt>
      <trkpt lat="34.2334103398025035858154296875" lon="108.937169797718524932861328125">
        <ele>406.399993896484375</ele>
        <time>2026-03-17T12:11:25.000Z</time>
        <extensions>
          <ns3:TrackPointExtension>
            <ns3:hr>110</ns3:hr>
            <ns3:cad>101</ns3:cad>
          </ns3:TrackPointExtension>
        </extensions>
      </trkpt>
      <trkpt lat="34.23338041640818119049072265625" lon="108.937213718891143798828125">
        <ele>406.600006103515625</ele>
        <time>2026-03-17T12:11:26.000Z</time>
        <extensions>
          <ns3:TrackPointExtension>
            <ns3:hr>112</ns3:hr>
            <ns3:cad>101</ns3:cad>
          </ns3:TrackPointExtension>
        </extensions>
      </trkpt>
      <trkpt lat="34.233353845775127410888671875" lon="108.9372433908283710479736328125">
        <ele>406.600006103515625</ele>
        <time>2026-03-17T12:11:27.000Z</time>
        <extensions>
          <ns3:TrackPointExtension>
            <ns3:hr>114</ns3:hr>
            <ns3:cad>101</ns3:cad>
          </ns3:TrackPointExtension>
        </extensions>
      </trkpt>
      <trkpt lat="34.233329035341739654541015625" lon="108.93727742135524749755859375">
        <ele>406.600006103515625</ele>
        <time>2026-03-17T12:11:28.000Z</time>
        <extensions>
          <ns3:TrackPointExtension>
            <ns3:hr>116</ns3:hr>
            <ns3:cad>101</ns3:cad>
          </ns3:TrackPointExtension>
        </extensions>
      </trkpt>
      <trkpt lat="34.23330347053706645965576171875" lon="108.937324024736881256103515625">
        <ele>406.600006103515625</ele>
        <time>2026-03-17T12:11:29.000Z</time>
        <extensions>
          <ns3:TrackPointExtension>
            <ns3:hr>118</ns3:hr>
            <ns3:cad>101</ns3:cad>
          </ns3:TrackPointExtension>
        </extensions>
      </trkpt>
      <trkpt lat="34.23328435979783535003662109375" lon="108.93736937083303928375244140625">
        <ele>406.600006103515625</ele>
        <time>2026-03-17T12:11:30.000Z</time>
        <extensions>
          <ns3:TrackPointExtension>
            <ns3:hr>120</ns3:hr>
            <ns3:cad>101</ns3:cad>
          </ns3:TrackPointExtension>
        </extensions>
      </trkpt>
      <trkpt lat="34.233268015086650848388671875" lon="108.93740189261734485626220703125">
        <ele>406.600006103515625</ele>
        <time>2026-03-17T12:11:31.000Z</time>
        <extensions>
          <ns3:TrackPointExtension>
            <ns3:hr>121</ns3:hr>
            <ns3:cad>101</ns3:cad>
          </ns3:TrackPointExtension>
        </extensions>
      </trkpt>
      <trkpt lat="34.23325963318347930908203125" lon="108.9374505914747714996337890625">
        <ele>406.600006103515625</ele>
        <time>2026-03-17T12:11:32.000Z</time>
        <extensions>
          <ns3:TrackPointExtension>
            <ns3:hr>123</ns3:hr>
            <ns3:cad>101</ns3:cad>
          </ns3:TrackPointExtension>
        </extensions>
      </trkpt>
      <trkpt lat="34.23326038755476474761962890625" lon="108.93750851042568683624267578125">
        <ele>406.600006103515625</ele>
        <time>2026-03-17T12:11:33.000Z</time>
        <extensions>
          <ns3:TrackPointExtension>
            <ns3:hr>124</ns3:hr>
            <ns3:cad>95</ns3:cad>
          </ns3:TrackPointExtension>
        </extensions>
      </trkpt>
      <trkpt lat="34.233261309564113616943359375" lon="108.93755075521767139434814453125">
        <ele>406.600006103515625</ele>
        <time>2026-03-17T12:11:34.000Z</time>
        <extensions>
          <ns3:TrackPointExtension>
            <ns3:hr>125</ns3:hr>
            <ns3:cad>95</ns3:cad>
          </ns3:TrackPointExtension>
        </extensions>
      </trkpt>
      <trkpt lat="34.233267344534397125244140625" lon="108.93759534694254398345947265625">
        <ele>406.600006103515625</ele>
        <time>2026-03-17T12:11:35.000Z</time>
        <extensions>
          <ns3:TrackPointExtension>
            <ns3:hr>125</ns3:hr>
            <ns3:cad>95</ns3:cad>
          </ns3:TrackPointExtension>
        </extensions>
      </trkpt>
      <trkpt lat="34.2332879640161991119384765625" lon="108.937645889818668365478515625">
        <ele>406.399993896484375</ele>
        <time>2026-03-17T12:11:36.000Z</time>
        <extensions>
          <ns3:TrackPointExtension>
            <ns3:hr>126</ns3:hr>
            <ns3:cad>95</ns3:cad>
          </ns3:TrackPointExtension>
        </extensions>
      </trkpt>
      <trkpt lat="34.2333057336509227752685546875" lon="108.9376929961144924163818359375">
        <ele>406.399993896484375</ele>
        <time>2026-03-17T12:11:37.000Z</time>
        <extensions>
          <ns3:TrackPointExtension>
            <ns3:hr>127</ns3:hr>
            <ns3:cad>95</ns3:cad>
          </ns3:TrackPointExtension>
        </extensions>
      </trkpt>
      <trkpt lat="34.2333204858005046844482421875" lon="108.937727697193622589111328125">
        <ele>406.399993896484375</ele>
        <time>2026-03-17T12:11:38.000Z</time>
        <extensions>
          <ns3:TrackPointExtension>
            <ns3:hr>128</ns3:hr>
            <ns3:cad>103</ns3:cad>
          </ns3:TrackPointExtension>
        </extensions>
      </trkpt>
      <trkpt lat="34.23334814608097076416015625" lon="108.9377680979669094085693359375">
        <ele>406.399993896484375</ele>
        <time>2026-03-17T12:11:39.000Z</time>
        <extensions>
          <ns3:TrackPointExtension>
            <ns3:hr>129</ns3:hr>
            <ns3:cad>103</ns3:cad>
          </ns3:TrackPointExtension>
        </extensions>
      </trkpt>
      <trkpt lat="34.2333761416375637054443359375" lon="108.93780891783535480499267578125">
        <ele>406.399993896484375</ele>
        <time>2026-03-17T12:11:40.000Z</time>
        <extensions>
          <ns3:TrackPointExtension>
            <ns3:hr>130</ns3:hr>
            <ns3:cad>103</ns3:cad>
          </ns3:TrackPointExtension>
        </extensions>
      </trkpt>
      <trkpt lat="34.2333952523767948150634765625" lon="108.9378398470580577850341796875">
        <ele>406.399993896484375</ele>
        <time>2026-03-17T12:11:41.000Z</time>
        <extensions>
          <ns3:TrackPointExtension>
            <ns3:hr>131</ns3:hr>
            <ns3:cad>103</ns3:cad>
          </ns3:TrackPointExtension>
        </extensions>
      </trkpt>
      <trkpt lat="34.23342215828597545623779296875" lon="108.9378587901592254638671875">
        <ele>406.399993896484375</ele>
        <time>2026-03-17T12:11:42.000Z</time>
        <extensions>
          <ns3:TrackPointExtension>
            <ns3:hr>132</ns3:hr>
            <ns3:cad>103</ns3:cad>
          </ns3:TrackPointExtension>
        </extensions>
      </trkpt>
      <trkpt lat="34.23346322961151599884033203125" lon="108.93788234330713748931884765625">
        <ele>406.399993896484375</ele>
        <time>2026-03-17T12:11:43.000Z</time>
        <extensions>
          <ns3:TrackPointExtension>
            <ns3:hr>132</ns3:hr>
            <ns3:cad>103</ns3:cad>
          </ns3:TrackPointExtension>
        </extensions>
      </trkpt>
      <trkpt lat="34.23349373973906040191650390625" lon="108.9379038847982883453369140625">
        <ele>406.399993896484375</ele>
        <time>2026-03-17T12:11:44.000Z</time>
        <extensions>
          <ns3:TrackPointExtension>
            <ns3:hr>133</ns3:hr>
            <ns3:cad>103</ns3:cad>
          </ns3:TrackPointExtension>
        </extensions>
      </trkpt>
      <trkpt lat="34.23352290876209735870361328125" lon="108.93791603855788707733154296875">
        <ele>406.399993896484375</ele>
        <time>2026-03-17T12:11:45.000Z</time>
        <extensions>
          <ns3:TrackPointExtension>
            <ns3:hr>134</ns3:hr>
            <ns3:cad>101</ns3:cad>
          </ns3:TrackPointExtension>
        </extensions>
      </trkpt>
      <trkpt lat="34.233567081391811370849609375" lon="108.93792383372783660888671875">
        <ele>406.399993896484375</ele>
        <time>2026-03-17T12:11:46.000Z</time>
        <extensions>
          <ns3:TrackPointExtension>
            <ns3:hr>135</ns3:hr>
            <ns3:cad>101</ns3:cad>
          </ns3:TrackPointExtension>
        </extensions>
      </trkpt>
      <trkpt lat="34.23360974527895450592041015625" lon="108.9379338920116424560546875">
        <ele>406.399993896484375</ele>
        <time>2026-03-17T12:11:47.000Z</time>
        <extensions>
          <ns3:TrackPointExtension>
            <ns3:hr>135</ns3:hr>
            <ns3:cad>101</ns3:cad>
          </ns3:TrackPointExtension>
        </extensions>
      </trkpt>
      <trkpt lat="34.23364846967160701751708984375" lon="108.93794168718159198760986328125">
        <ele>406.399993896484375</ele>
        <time>2026-03-17T12:11:48.000Z</time>
        <extensions>
          <ns3:TrackPointExtension>
            <ns3:hr>136</ns3:hr>
            <ns3:cad>101</ns3:cad>
          </ns3:TrackPointExtension>
        </extensions>
      </trkpt>
      <trkpt lat="34.233688451349735260009765625" lon="108.93794118426740169525146484375">
        <ele>406.399993896484375</ele>
        <time>2026-03-17T12:11:49.000Z</time>
        <extensions>
          <ns3:TrackPointExtension>
            <ns3:hr>136</ns3:hr>
            <ns3:cad>101</ns3:cad>
          </ns3:TrackPointExtension>
        </extensions>
      </trkpt>
      <trkpt lat="34.23373463563621044158935546875" lon="108.93794973380863666534423828125">
        <ele>406.399993896484375</ele>
        <time>2026-03-17T12:11:50.000Z</time>
        <extensions>
          <ns3:TrackPointExtension>
            <ns3:hr>137</ns3:hr>
            <ns3:cad>102</ns3:cad>
          </ns3:TrackPointExtension>
        </extensions>
      </trkpt>
      <trkpt lat="34.23376925289630889892578125" lon="108.93795794807374477386474609375">
        <ele>406.399993896484375</ele>
        <time>2026-03-17T12:11:51.000Z</time>
        <extensions>
          <ns3:TrackPointExtension>
            <ns3:hr>138</ns3:hr>
            <ns3:cad>102</ns3:cad>
          </ns3:TrackPointExtension>
        </extensions>
      </trkpt>
      <trkpt lat="34.2338032834231853485107421875" lon="108.937955684959888458251953125">
        <ele>406.399993896484375</ele>
        <time>2026-03-17T12:11:52.000Z</time>
        <extensions>
          <ns3:TrackPointExtension>
            <ns3:hr>138</ns3:hr>
            <ns3:cad>102</ns3:cad>
          </ns3:TrackPointExtension>
        </extensions>
      </trkpt>
      <trkpt lat="34.23384276218712329864501953125" lon="108.9379605464637279510498046875">
        <ele>406.399993896484375</ele>
        <time>2026-03-17T12:11:53.000Z</time>
        <extensions>
          <ns3:TrackPointExtension>
            <ns3:hr>139</ns3:hr>
            <ns3:cad>102</ns3:cad>
          </ns3:TrackPointExtension>
        </extensions>
      </trkpt>
      <trkpt lat="34.23388232477009296417236328125" lon="108.93795593641698360443115234375">
        <ele>406.399993896484375</ele>
        <time>2026-03-17T12:11:54.000Z</time>
        <extensions>
          <ns3:TrackPointExtension>
            <ns3:hr>139</ns3:hr>
            <ns3:cad>102</ns3:cad>
          </ns3:TrackPointExtension>
        </extensions>
      </trkpt>
      <trkpt lat="34.23391635529696941375732421875" lon="108.937961719930171966552734375">
        <ele>406.399993896484375</ele>
        <time>2026-03-17T12:11:55.000Z</time>
        <extensions>
          <ns3:TrackPointExtension>
            <ns3:hr>140</ns3:hr>
            <ns3:cad>102</ns3:cad>
          </ns3:TrackPointExtension>
        </extensions>
      </trkpt>
      <trkpt lat="34.23395290039479732513427734375" lon="108.93794839270412921905517578125">
        <ele>406.399993896484375</ele>
        <time>2026-03-17T12:11:56.000Z</time>
        <extensions>
          <ns3:TrackPointExtension>
            <ns3:hr>140</ns3:hr>
            <ns3:cad>102</ns3:cad>
          </ns3:TrackPointExtension>
        </extensions>
      </trkpt>
      <trkpt lat="34.23399187624454498291015625" lon="108.9379491470754146575927734375">
        <ele>406.399993896484375</ele>
        <time>2026-03-17T12:11:57.000Z</time>
        <extensions>
          <ns3:TrackPointExtension>
            <ns3:hr>142</ns3:hr>
            <ns3:cad>94</ns3:cad>
          </ns3:TrackPointExtension>
        </extensions>
      </trkpt>
      <trkpt lat="34.23402272164821624755859375" lon="108.9379471354186534881591796875">
        <ele>406.399993896484375</ele>
        <time>2026-03-17T12:11:58.000Z</time>
        <extensions>
          <ns3:TrackPointExtension>
            <ns3:hr>146</ns3:hr>
            <ns3:cad>94</ns3:cad>
          </ns3:TrackPointExtension>
        </extensions>
      </trkpt>
      <trkpt lat="34.23405331559479236602783203125" lon="108.9379468001425266265869140625">
        <ele>406.399993896484375</ele>
        <time>2026-03-17T12:11:59.000Z</time>
        <extensions>
          <ns3:TrackPointExtension>
            <ns3:hr>148</ns3:hr>
            <ns3:cad>102</ns3:cad>
          </ns3:TrackPointExtension>
        </extensions>
      </trkpt>
      <trkpt lat="34.2340959794819355010986328125" lon="108.937943615019321441650390625">
        <ele>406.399993896484375</ele>
        <time>2026-03-17T12:12:00.000Z</time>
        <extensions>
          <ns3:TrackPointExtension>
            <ns3:hr>150</ns3:hr>
            <ns3:cad>102</ns3:cad>
          </ns3:TrackPointExtension>
        </extensions>
      </trkpt>
      <trkpt lat="34.23413244076073169708251953125" lon="108.9379427768290042877197265625">
        <ele>406.399993896484375</ele>
        <time>2026-03-17T12:12:01.000Z</time>
        <extensions>
          <ns3:TrackPointExtension>
            <ns3:hr>151</ns3:hr>
            <ns3:cad>102</ns3:cad>
          </ns3:TrackPointExtension>
        </extensions>
      </trkpt>
      <trkpt lat="34.2341663874685764312744140625" lon="108.93794797360897064208984375">
        <ele>406.399993896484375</ele>
        <time>2026-03-17T12:12:02.000Z</time>
        <extensions>
          <ns3:TrackPointExtension>
            <ns3:hr>154</ns3:hr>
            <ns3:cad>94</ns3:cad>
          </ns3:TrackPointExtension>
        </extensions>
      </trkpt>
      <trkpt lat="34.2342029325664043426513671875" lon="108.93794520758092403411865234375">
        <ele>406.399993896484375</ele>
        <time>2026-03-17T12:12:03.000Z</time>
        <extensions>
          <ns3:TrackPointExtension>
            <ns3:hr>155</ns3:hr>
            <ns3:cad>94</ns3:cad>
          </ns3:TrackPointExtension>
        </extensions>
      </trkpt>
      <trkpt lat="34.23424777574837207794189453125" lon="108.93794487230479717254638671875">
        <ele>406.399993896484375</ele>
        <time>2026-03-17T12:12:04.000Z</time>
        <extensions>
          <ns3:TrackPointExtension>
            <ns3:hr>155</ns3:hr>
            <ns3:cad>102</ns3:cad>
          </ns3:TrackPointExtension>
        </extensions>
      </trkpt>
      <trkpt lat="34.234282560646533966064453125" lon="108.9379511587321758270263671875">
        <ele>406.399993896484375</ele>
        <time>2026-03-17T12:12:05.000Z</time>
        <extensions>
          <ns3:TrackPointExtension>
            <ns3:hr>155</ns3:hr>
            <ns3:cad>102</ns3:cad>
          </ns3:TrackPointExtension>
        </extensions>
      </trkpt>
      <trkpt lat="34.23431566916406154632568359375" lon="108.93795275129377841949462890625">
        <ele>406.399993896484375</ele>
        <time>2026-03-17T12:12:06.000Z</time>
        <extensions>
          <ns3:TrackPointExtension>
            <ns3:hr>156</ns3:hr>
            <ns3:cad>102</ns3:cad>
          </ns3:TrackPointExtension>
        </extensions>
      </trkpt>
      <trkpt lat="34.23436009325087070465087890625" lon="108.93794537521898746490478515625">
        <ele>406.399993896484375</ele>
        <time>2026-03-17T12:12:07.000Z</time>
        <extensions>
          <ns3:TrackPointExtension>
            <ns3:hr>156</ns3:hr>
            <ns3:cad>102</ns3:cad>
          </ns3:TrackPointExtension>
        </extensions>
      </trkpt>
      <trkpt lat="34.2344056069850921630859375" lon="108.9379411004483699798583984375">
        <ele>406.399993896484375</ele>
        <time>2026-03-17T12:12:08.000Z</time>
        <extensions>
          <ns3:TrackPointExtension>
            <ns3:hr>156</ns3:hr>
            <ns3:cad>102</ns3:cad>
          </ns3:TrackPointExtension>
        </extensions>
      </trkpt>
      <trkpt lat="34.23444022424519062042236328125" lon="108.93794319592416286468505859375">
        <ele>406.399993896484375</ele>
        <time>2026-03-17T12:12:09.000Z</time>
        <extensions>
          <ns3:TrackPointExtension>
            <ns3:hr>156</ns3:hr>
            <ns3:cad>103</ns3:cad>
          </ns3:TrackPointExtension>
        </extensions>
      </trkpt>
      <trkpt lat="34.23447190783917903900146484375" lon="108.9379384182393550872802734375">
        <ele>406.399993896484375</ele>
        <time>2026-03-17T12:12:10.000Z</time>
        <extensions>
          <ns3:TrackPointExtension>
            <ns3:hr>156</ns3:hr>
            <ns3:cad>103</ns3:cad>
          </ns3:TrackPointExtension>
        </extensions>
      </trkpt>
      <trkpt lat="34.23451415263116359710693359375" lon="108.93791981041431427001953125">
        <ele>406.399993896484375</ele>
        <time>2026-03-17T12:12:11.000Z</time>
        <extensions>
          <ns3:TrackPointExtension>
            <ns3:hr>156</ns3:hr>
            <ns3:cad>103</ns3:cad>
          </ns3:TrackPointExtension>
        </extensions>
      </trkpt>
      <trkpt lat="34.23455136828124523162841796875" lon="108.93790413625538349151611328125">
        <ele>406.399993896484375</ele>
        <time>2026-03-17T12:12:12.000Z</time>
        <extensions>
          <ns3:TrackPointExtension>
            <ns3:hr>156</ns3:hr>
            <ns3:cad>103</ns3:cad>
          </ns3:TrackPointExtension>
        </extensions>
      </trkpt>
      <trkpt lat="34.23458372242748737335205078125" lon="108.9378887973725795745849609375">
        <ele>406.600006103515625</ele>
        <time>2026-03-17T12:12:13.000Z</time>
        <extensions>
          <ns3:TrackPointExtension>
            <ns3:hr>157</ns3:hr>
            <ns3:cad>103</ns3:cad>
          </ns3:TrackPointExtension>
        </extensions>
      </trkpt>
      <trkpt lat="34.23461574129760265350341796875" lon="108.9378592930734157562255859375">
        <ele>406.600006103515625</ele>
        <time>2026-03-17T12:12:14.000Z</time>
        <extensions>
          <ns3:TrackPointExtension>
            <ns3:hr>157</ns3:hr>
            <ns3:cad>103</ns3:cad>
          </ns3:TrackPointExtension>
        </extensions>
      </trkpt>
      <trkpt lat="34.2346488498151302337646484375" lon="108.93781713210046291351318359375">
        <ele>406.600006103515625</ele>
        <time>2026-03-17T12:12:15.000Z</time>
        <extensions>
          <ns3:TrackPointExtension>
            <ns3:hr>157</ns3:hr>
            <ns3:cad>103</ns3:cad>
          </ns3:TrackPointExtension>
        </extensions>
      </trkpt>
      <trkpt lat="34.2346790246665477752685546875" lon="108.93778427504003047943115234375">
        <ele>406.600006103515625</ele>
        <time>2026-03-17T12:12:16.000Z</time>
        <extensions>
          <ns3:TrackPointExtension>
            <ns3:hr>157</ns3:hr>
            <ns3:cad>103</ns3:cad>
          </ns3:TrackPointExtension>
        </extensions>
      </trkpt>
      <trkpt lat="34.23470274545252323150634765625" lon="108.9377577044069766998291015625">
        <ele>406.399993896484375</ele>
        <time>2026-03-17T12:12:17.000Z</time>
        <extensions>
          <ns3:TrackPointExtension>
            <ns3:hr>157</ns3:hr>
            <ns3:cad>102</ns3:cad>
          </ns3:TrackPointExtension>
        </extensions>
      </trkpt>
      <trkpt lat="34.23472152091562747955322265625" lon="108.93770749680697917938232421875">
        <ele>406.399993896484375</ele>
        <time>2026-03-17T12:12:18.000Z</time>
        <extensions>
          <ns3:TrackPointExtension>
            <ns3:hr>157</ns3:hr>
            <ns3:cad>102</ns3:cad>
          </ns3:TrackPointExtension>
        </extensions>
      </trkpt>
      <trkpt lat="34.234737865626811981201171875" lon="108.9376534335315227508544921875">
        <ele>406.399993896484375</ele>
        <time>2026-03-17T12:12:19.000Z</time>
        <extensions>
          <ns3:TrackPointExtension>
            <ns3:hr>157</ns3:hr>
            <ns3:cad>102</ns3:cad>
          </ns3:TrackPointExtension>
        </extensions>
      </trkpt>
      <trkpt lat="34.23475689254701137542724609375" lon="108.93761579878628253936767578125">
        <ele>406.399993896484375</ele>
        <time>2026-03-17T12:12:20.000Z</time>
        <extensions>
          <ns3:TrackPointExtension>
            <ns3:hr>157</ns3:hr>
            <ns3:cad>102</ns3:cad>
          </ns3:TrackPointExtension>
        </extensions>
      </trkpt>
      <trkpt lat="34.234769381582736968994140625" lon="108.937573470175266265869140625">
        <ele>406.399993896484375</ele>
        <time>2026-03-17T12:12:21.000Z</time>
        <extensions>
          <ns3:TrackPointExtension>
            <ns3:hr>157</ns3:hr>
            <ns3:cad>103</ns3:cad>
          </ns3:TrackPointExtension>
        </extensions>
      </trkpt>
      <trkpt lat="34.23477499745786190032958984375" lon="108.93752141855657100677490234375">
        <ele>406.399993896484375</ele>
        <time>2026-03-17T12:12:22.000Z</time>
        <extensions>
          <ns3:TrackPointExtension>
            <ns3:hr>157</ns3:hr>
            <ns3:cad>103</ns3:cad>
          </ns3:TrackPointExtension>
        </extensions>
      </trkpt>
      <trkpt lat="34.23477231524884700775146484375" lon="108.93746643327176570892333984375">
        <ele>406.600006103515625</ele>
        <time>2026-03-17T12:12:23.000Z</time>
        <extensions>
          <ns3:TrackPointExtension>
            <ns3:hr>157</ns3:hr>
            <ns3:cad>103</ns3:cad>
          </ns3:TrackPointExtension>
        </extensions>
      </trkpt>
      <trkpt lat="34.2347752489149570465087890625" lon="108.93742469139397144317626953125">
        <ele>406.399993896484375</ele>
        <time>2026-03-17T12:12:24.000Z</time>
        <extensions>
          <ns3:TrackPointExtension>
            <ns3:hr>158</ns3:hr>
            <ns3:cad>105</ns3:cad>
          </ns3:TrackPointExtension>
        </extensions>
      </trkpt>
      <trkpt lat="34.23476376570761203765869140625" lon="108.937379010021686553955078125">
        <ele>406.399993896484375</ele>
        <time>2026-03-17T12:12:25.000Z</time>
        <extensions>
          <ns3:TrackPointExtension>
            <ns3:hr>158</ns3:hr>
            <ns3:cad>105</ns3:cad>
          </ns3:TrackPointExtension>
        </extensions>
      </trkpt>
      <trkpt lat="34.23474582843482494354248046875" lon="108.9373196661472320556640625">
        <ele>406.399993896484375</ele>
        <time>2026-03-17T12:12:26.000Z</time>
        <extensions>
          <ns3:TrackPointExtension>
            <ns3:hr>158</ns3:hr>
            <ns3:cad>105</ns3:cad>
          </ns3:TrackPointExtension>
        </extensions>
      </trkpt>
      <trkpt lat="34.23473007045686244964599609375" lon="108.9372718892991542816162109375">
        <ele>406.399993896484375</ele>
        <time>2026-03-17T12:12:27.000Z</time>
        <extensions>
          <ns3:TrackPointExtension>
            <ns3:hr>158</ns3:hr>
            <ns3:cad>105</ns3:cad>
          </ns3:TrackPointExtension>
        </extensions>
      </trkpt>
      <trkpt lat="34.23471079207956790924072265625" lon="108.937229812145233154296875">
        <ele>406.399993896484375</ele>
        <time>2026-03-17T12:12:28.000Z</time>
        <extensions>
          <ns3:TrackPointExtension>
            <ns3:hr>158</ns3:hr>
            <ns3:cad>103</ns3:cad>
          </ns3:TrackPointExtension>
        </extensions>
      </trkpt>
      <trkpt lat="34.23468430526554584503173828125" lon="108.9371884055435657501220703125">
        <ele>406.600006103515625</ele>
        <time>2026-03-17T12:12:29.000Z</time>
        <extensions>
          <ns3:TrackPointExtension>
            <ns3:hr>158</ns3:hr>
            <ns3:cad>103</ns3:cad>
          </ns3:TrackPointExtension>
        </extensions>
      </trkpt>
      <trkpt lat="34.234652705490589141845703125" lon="108.93714993260800838470458984375">
        <ele>406.600006103515625</ele>
        <time>2026-03-17T12:12:30.000Z</time>
        <extensions>
          <ns3:TrackPointExtension>
            <ns3:hr>158</ns3:hr>
            <ns3:cad>104</ns3:cad>
          </ns3:TrackPointExtension>
        </extensions>
      </trkpt>
      <trkpt lat="34.234629571437835693359375" lon="108.937119506299495697021484375">
        <ele>406.600006103515625</ele>
        <time>2026-03-17T12:12:31.000Z</time>
        <extensions>
          <ns3:TrackPointExtension>
            <ns3:hr>158</ns3:hr>
            <ns3:cad>105</ns3:cad>
          </ns3:TrackPointExtension>
        </extensions>
      </trkpt>
      <trkpt lat="34.23460333608090877532958984375" lon="108.937084637582302093505859375">
        <ele>406.399993896484375</ele>
        <time>2026-03-17T12:12:32.000Z</time>
        <extensions>
          <ns3:TrackPointExtension>
            <ns3:hr>159</ns3:hr>
            <ns3:cad>105</ns3:cad>
          </ns3:TrackPointExtension>
        </extensions>
      </trkpt>
      <trkpt lat="34.23456444405019283294677734375" lon="108.9370620064437389373779296875">
        <ele>406.399993896484375</ele>
        <time>2026-03-17T12:12:33.000Z</time>
        <extensions>
          <ns3:TrackPointExtension>
            <ns3:hr>159</ns3:hr>
            <ns3:cad>105</ns3:cad>
          </ns3:TrackPointExtension>
        </extensions>
      </trkpt>
      <trkpt lat="34.23452605493366718292236328125" lon="108.93704951740801334381103515625">
        <ele>406.399993896484375</ele>
        <time>2026-03-17T12:12:34.000Z</time>
        <extensions>
          <ns3:TrackPointExtension>
            <ns3:hr>159</ns3:hr>
            <ns3:cad>103</ns3:cad>
          </ns3:TrackPointExtension>
        </extensions>
      </trkpt>
      <trkpt lat="34.234491772949695587158203125" lon="108.9370328374207019805908203125">
        <ele>406.399993896484375</ele>
        <time>2026-03-17T12:12:35.000Z</time>
        <extensions>
          <ns3:TrackPointExtension>
            <ns3:hr>159</ns3:hr>
            <ns3:cad>103</ns3:cad>
          </ns3:TrackPointExtension>
        </extensions>
      </trkpt>
      <trkpt lat="34.23445413820445537567138671875" lon="108.93702621571719646453857421875">
        <ele>406.399993896484375</ele>
        <time>2026-03-17T12:12:36.000Z</time>
        <extensions>
          <ns3:TrackPointExtension>
            <ns3:hr>159</ns3:hr>
            <ns3:cad>103</ns3:cad>
          </ns3:TrackPointExtension>
        </extensions>
      </trkpt>
      <trkpt lat="34.23441373743116855621337890625" lon="108.93702152185142040252685546875">
        <ele>406.399993896484375</ele>
        <time>2026-03-17T12:12:37.000Z</time>
        <extensions>
          <ns3:TrackPointExtension>
            <ns3:hr>159</ns3:hr>
            <ns3:cad>104</ns3:cad>
          </ns3:TrackPointExtension>
        </extensions>
      </trkpt>
      <trkpt lat="34.23437182791531085968017578125" lon="108.937022946774959564208984375">
        <ele>406.399993896484375</ele>
        <time>2026-03-17T12:12:38.000Z</time>
        <extensions>
          <ns3:TrackPointExtension>
            <ns3:hr>159</ns3:hr>
            <ns3:cad>104</ns3:cad>
          </ns3:TrackPointExtension>
        </extensions>
      </trkpt>
      <trkpt lat="34.2343387193977832794189453125" lon="108.9370130561292171478271484375">
        <ele>406.399993896484375</ele>
        <time>2026-03-17T12:12:39.000Z</time>
        <extensions>
          <ns3:TrackPointExtension>
            <ns3:hr>159</ns3:hr>
            <ns3:cad>104</ns3:cad>
          </ns3:TrackPointExtension>
        </extensions>
      </trkpt>
      <trkpt lat="34.234301336109638214111328125" lon="108.93701724708080291748046875">
        <ele>406.600006103515625</ele>
        <time>2026-03-17T12:12:40.000Z</time>
        <extensions>
          <ns3:TrackPointExtension>
            <ns3:hr>159</ns3:hr>
            <ns3:cad>104</ns3:cad>
          </ns3:TrackPointExtension>
        </extensions>
      </trkpt>
      <trkpt lat="34.23425850458443164825439453125" lon="108.9370174147188663482666015625">
        <ele>406.600006103515625</ele>
        <time>2026-03-17T12:12:41.000Z</time>
        <extensions>
          <ns3:TrackPointExtension>
            <ns3:hr>159</ns3:hr>
            <ns3:cad>104</ns3:cad>
          </ns3:TrackPointExtension>
        </extensions>
      </trkpt>
      <trkpt lat="34.23422095365822315216064453125" lon="108.93701766617596149444580078125">
        <ele>406.600006103515625</ele>
        <time>2026-03-17T12:12:42.000Z</time>
        <extensions>
          <ns3:TrackPointExtension>
            <ns3:hr>159</ns3:hr>
            <ns3:cad>104</ns3:cad>
          </ns3:TrackPointExtension>
        </extensions>
      </trkpt>
      <trkpt lat="34.23418524675071239471435546875" lon="108.9370197616517543792724609375">
        <ele>406.600006103515625</ele>
        <time>2026-03-17T12:12:43.000Z</time>
        <extensions>
          <ns3:TrackPointExtension>
            <ns3:hr>159</ns3:hr>
            <ns3:cad>104</ns3:cad>
          </ns3:TrackPointExtension>
        </extensions>
      </trkpt>
      <trkpt lat="34.23414384014904499053955078125" lon="108.93702588044106960296630859375">
        <ele>406.600006103515625</ele>
        <time>2026-03-17T12:12:44.000Z</time>
        <extensions>
          <ns3:TrackPointExtension>
            <ns3:hr>159</ns3:hr>
            <ns3:cad>105</ns3:cad>
          </ns3:TrackPointExtension>
        </extensions>
      </trkpt>
      <trkpt lat="34.2341036908328533172607421875" lon="108.9370288141071796417236328125">
        <ele>406.600006103515625</ele>
        <time>2026-03-17T12:12:45.000Z</time>
        <extensions>
          <ns3:TrackPointExtension>
            <ns3:hr>159</ns3:hr>
            <ns3:cad>105</ns3:cad>
          </ns3:TrackPointExtension>
        </extensions>
      </trkpt>
      <trkpt lat="34.2340674810111522674560546875" lon="108.937031328678131103515625">
        <ele>406.600006103515625</ele>
        <time>2026-03-17T12:12:46.000Z</time>
        <extensions>
          <ns3:TrackPointExtension>
            <ns3:hr>159</ns3:hr>
            <ns3:cad>105</ns3:cad>
          </ns3:TrackPointExtension>
        </extensions>
      </trkpt>
      <trkpt lat="34.23403286375105381011962890625" lon="108.937026299536228179931640625">
        <ele>406.600006103515625</ele>
        <time>2026-03-17T12:12:47.000Z</time>
        <extensions>
          <ns3:TrackPointExtension>
            <ns3:hr>160</ns3:hr>
            <ns3:cad>105</ns3:cad>
          </ns3:TrackPointExtension>
        </extensions>
      </trkpt>
      <trkpt lat="34.23399346880614757537841796875" lon="108.9370355196297168731689453125">
        <ele>406.600006103515625</ele>
        <time>2026-03-17T12:12:48.000Z</time>
        <extensions>
          <ns3:TrackPointExtension>
            <ns3:hr>160</ns3:hr>
            <ns3:cad>105</ns3:cad>
          </ns3:TrackPointExtension>
        </extensions>
      </trkpt>
      <trkpt lat="34.23395591787993907928466796875" lon="108.9370371960103511810302734375">
        <ele>406.600006103515625</ele>
        <time>2026-03-17T12:12:49.000Z</time>
        <extensions>
          <ns3:TrackPointExtension>
            <ns3:hr>160</ns3:hr>
            <ns3:cad>103</ns3:cad>
          </ns3:TrackPointExtension>
        </extensions>
      </trkpt>
      <trkpt lat="34.2339209653437137603759765625" lon="108.93703401088714599609375">
        <ele>406.600006103515625</ele>
        <time>2026-03-17T12:12:50.000Z</time>
        <extensions>
          <ns3:TrackPointExtension>
            <ns3:hr>161</ns3:hr>
            <ns3:cad>103</ns3:cad>
          </ns3:TrackPointExtension>
        </extensions>
      </trkpt>
      <trkpt lat="34.23388785682618618011474609375" lon="108.9370331726968288421630859375">
        <ele>406.600006103515625</ele>
        <time>2026-03-17T12:12:51.000Z</time>
        <extensions>
          <ns3:TrackPointExtension>
            <ns3:hr>163</ns3:hr>
            <ns3:cad>103</ns3:cad>
          </ns3:TrackPointExtension>
        </extensions>
      </trkpt>
      <trkpt lat="34.23384997062385082244873046875" lon="108.93703644163906574249267578125">
        <ele>406.600006103515625</ele>
        <time>2026-03-17T12:12:52.000Z</time>
        <extensions>
          <ns3:TrackPointExtension>
            <ns3:hr>163</ns3:hr>
            <ns3:cad>96</ns3:cad>
          </ns3:TrackPointExtension>
        </extensions>
      </trkpt>
      <trkpt lat="34.2338089831173419952392578125" lon="108.93704214133322238922119140625">
        <ele>406.600006103515625</ele>
        <time>2026-03-17T12:12:53.000Z</time>
        <extensions>
          <ns3:TrackPointExtension>
            <ns3:hr>164</ns3:hr>
            <ns3:cad>96</ns3:cad>
          </ns3:TrackPointExtension>
        </extensions>
      </trkpt>
      <trkpt lat="34.233776964247226715087890625" lon="108.9370361901819705963134765625">
        <ele>406.600006103515625</ele>
        <time>2026-03-17T12:12:54.000Z</time>
        <extensions>
          <ns3:TrackPointExtension>
            <ns3:hr>165</ns3:hr>
            <ns3:cad>96</ns3:cad>
          </ns3:TrackPointExtension>
        </extensions>
      </trkpt>
      <trkpt lat="34.23374402336776256561279296875" lon="108.93703308887779712677001953125">
        <ele>406.600006103515625</ele>
        <time>2026-03-17T12:12:55.000Z</time>
        <extensions>
          <ns3:TrackPointExtension>
            <ns3:hr>166</ns3:hr>
            <ns3:cad>96</ns3:cad>
          </ns3:TrackPointExtension>
        </extensions>
      </trkpt>
      <trkpt lat="34.2337027005851268768310546875" lon="108.93703778274357318878173828125">
        <ele>406.600006103515625</ele>
        <time>2026-03-17T12:12:56.000Z</time>
        <extensions>
          <ns3:TrackPointExtension>
            <ns3:hr>166</ns3:hr>
            <ns3:cad>105</ns3:cad>
          </ns3:TrackPointExtension>
        </extensions>
      </trkpt>
      <trkpt lat="34.2336634732782840728759765625" lon="108.93704247660934925079345703125">
        <ele>406.600006103515625</ele>
        <time>2026-03-17T12:12:57.000Z</time>
        <extensions>
          <ns3:TrackPointExtension>
            <ns3:hr>166</ns3:hr>
            <ns3:cad>105</ns3:cad>
          </ns3:TrackPointExtension>
        </extensions>
      </trkpt>
      <trkpt lat="34.23363380134105682373046875" lon="108.93703828565776348114013671875">
        <ele>406.600006103515625</ele>
        <time>2026-03-17T12:12:58.000Z</time>
        <extensions>
          <ns3:TrackPointExtension>
            <ns3:hr>166</ns3:hr>
            <ns3:cad>105</ns3:cad>
          </ns3:TrackPointExtension>
        </extensions>
      </trkpt>
      <trkpt lat="34.2335982620716094970703125" lon="108.9370398782193660736083984375">
        <ele>406.600006103515625</ele>
        <time>2026-03-17T12:12:59.000Z</time>
        <extensions>
          <ns3:TrackPointExtension>
            <ns3:hr>166</ns3:hr>
            <ns3:cad>105</ns3:cad>
          </ns3:TrackPointExtension>
        </extensions>
      </trkpt>
      <trkpt lat="34.23355626873672008514404296875" lon="108.93704918213188648223876953125">
        <ele>406.600006103515625</ele>
        <time>2026-03-17T12:13:00.000Z</time>
        <extensions>
          <ns3:TrackPointExtension>
            <ns3:hr>166</ns3:hr>
            <ns3:cad>105</ns3:cad>
          </ns3:TrackPointExtension>
        </extensions>
      </trkpt>
      <trkpt lat="34.2335172928869724273681640625" lon="108.93706477247178554534912109375">
        <ele>406.600006103515625</ele>
        <time>2026-03-17T12:13:01.000Z</time>
        <extensions>
          <ns3:TrackPointExtension>
            <ns3:hr>166</ns3:hr>
            <ns3:cad>105</ns3:cad>
          </ns3:TrackPointExtension>
        </extensions>
      </trkpt>
      <trkpt lat="34.23348359763622283935546875" lon="108.93707332201302051544189453125">
        <ele>406.600006103515625</ele>
        <time>2026-03-17T12:13:02.000Z</time>
        <extensions>
          <ns3:TrackPointExtension>
            <ns3:hr>166</ns3:hr>
            <ns3:cad>105</ns3:cad>
          </ns3:TrackPointExtension>
        </extensions>
      </trkpt>
      <trkpt lat="34.23345032148063182830810546875" lon="108.93709964118897914886474609375">
        <ele>406.600006103515625</ele>
        <time>2026-03-17T12:13:03.000Z</time>
        <extensions>
          <ns3:TrackPointExtension>
            <ns3:hr>167</ns3:hr>
            <ns3:cad>105</ns3:cad>
          </ns3:TrackPointExtension>
        </extensions>
      </trkpt>
      <trkpt lat="34.23341427929699420928955078125" lon="108.9371293969452381134033203125">
        <ele>406.600006103515625</ele>
        <time>2026-03-17T12:13:04.000Z</time>
        <extensions>
          <ns3:TrackPointExtension>
            <ns3:hr>166</ns3:hr>
            <ns3:cad>105</ns3:cad>
          </ns3:TrackPointExtension>
        </extensions>
      </trkpt>
      <trkpt lat="34.23338192515075206756591796875" lon="108.93716334365308284759521484375">
        <ele>406.600006103515625</ele>
        <time>2026-03-17T12:13:05.000Z</time>
        <extensions>
          <ns3:TrackPointExtension>
            <ns3:hr>166</ns3:hr>
            <ns3:cad>105</ns3:cad>
          </ns3:TrackPointExtension>
        </extensions>
      </trkpt>
      <trkpt lat="34.23335460014641284942626953125" lon="108.9371884055435657501220703125">
        <ele>406.600006103515625</ele>
        <time>2026-03-17T12:13:06.000Z</time>
        <extensions>
          <ns3:TrackPointExtension>
            <ns3:hr>167</ns3:hr>
            <ns3:cad>105</ns3:cad>
          </ns3:TrackPointExtension>
        </extensions>
      </trkpt>
      <trkpt lat="34.2333300411701202392578125" lon="108.93722645938396453857421875">
        <ele>406.600006103515625</ele>
        <time>2026-03-17T12:13:07.000Z</time>
        <extensions>
          <ns3:TrackPointExtension>
            <ns3:hr>166</ns3:hr>
            <ns3:cad>105</ns3:cad>
          </ns3:TrackPointExtension>
        </extensions>
      </trkpt>
      <trkpt lat="34.23330330289900302886962890625" lon="108.93727767281234264373779296875">
        <ele>406.600006103515625</ele>
        <time>2026-03-17T12:13:08.000Z</time>
        <extensions>
          <ns3:TrackPointExtension>
            <ns3:hr>166</ns3:hr>
            <ns3:cad>105</ns3:cad>
          </ns3:TrackPointExtension>
        </extensions>
      </trkpt>
      <trkpt lat="34.23328452743589878082275390625" lon="108.93731539137661457061767578125">
        <ele>406.600006103515625</ele>
        <time>2026-03-17T12:13:09.000Z</time>
        <extensions>
          <ns3:TrackPointExtension>
            <ns3:hr>167</ns3:hr>
            <ns3:cad>105</ns3:cad>
          </ns3:TrackPointExtension>
        </extensions>
      </trkpt>
      <trkpt lat="34.23327212221920490264892578125" lon="108.93735461868345737457275390625">
        <ele>406.600006103515625</ele>
        <time>2026-03-17T12:13:10.000Z</time>
        <extensions>
          <ns3:TrackPointExtension>
            <ns3:hr>167</ns3:hr>
            <ns3:cad>105</ns3:cad>
          </ns3:TrackPointExtension>
        </extensions>
      </trkpt>
      <trkpt lat="34.23326759599149227142333984375" lon="108.93740306608378887176513671875">
        <ele>406.600006103515625</ele>
        <time>2026-03-17T12:13:11.000Z</time>
        <extensions>
          <ns3:TrackPointExtension>
            <ns3:hr>167</ns3:hr>
            <ns3:cad>105</ns3:cad>
          </ns3:TrackPointExtension>
        </extensions>
      </trkpt>
      <trkpt lat="34.2332641594111919403076171875" lon="108.93746224232017993927001953125">
        <ele>406.600006103515625</ele>
        <time>2026-03-17T12:13:12.000Z</time>
        <extensions>
          <ns3:TrackPointExtension>
            <ns3:hr>167</ns3:hr>
            <ns3:cad>105</ns3:cad>
          </ns3:TrackPointExtension>
        </extensions>
      </trkpt>
      <trkpt lat="34.23326390795409679412841796875" lon="108.9375074207782745361328125">
        <ele>406.600006103515625</ele>
        <time>2026-03-17T12:13:13.000Z</time>
        <extensions>
          <ns3:TrackPointExtension>
            <ns3:hr>166</ns3:hr>
            <ns3:cad>105</ns3:cad>
          </ns3:TrackPointExtension>
        </extensions>
      </trkpt>
      <trkpt lat="34.233266003429889678955078125" lon="108.93755142576992511749267578125">
        <ele>406.600006103515625</ele>
        <time>2026-03-17T12:13:14.000Z</time>
        <extensions>
          <ns3:TrackPointExtension>
            <ns3:hr>167</ns3:hr>
            <ns3:cad>105</ns3:cad>
          </ns3:TrackPointExtension>
        </extensions>
      </trkpt>
      <trkpt lat="34.23327304422855377197265625" lon="108.93760188482701778411865234375">
        <ele>406.600006103515625</ele>
        <time>2026-03-17T12:13:15.000Z</time>
        <extensions>
          <ns3:TrackPointExtension>
            <ns3:hr>167</ns3:hr>
            <ns3:cad>105</ns3:cad>
          </ns3:TrackPointExtension>
        </extensions>
      </trkpt>
      <trkpt lat="34.2332966811954975128173828125" lon="108.93766089342534542083740234375">
        <ele>406.600006103515625</ele>
        <time>2026-03-17T12:13:16.000Z</time>
        <extensions>
          <ns3:TrackPointExtension>
            <ns3:hr>167</ns3:hr>
            <ns3:cad>105</ns3:cad>
          </ns3:TrackPointExtension>
        </extensions>
      </trkpt>
      <trkpt lat="34.233312942087650299072265625" lon="108.93770523369312286376953125">
        <ele>406.600006103515625</ele>
        <time>2026-03-17T12:13:17.000Z</time>
        <extensions>
          <ns3:TrackPointExtension>
            <ns3:hr>167</ns3:hr>
            <ns3:cad>104</ns3:cad>
          </ns3:TrackPointExtension>
        </extensions>
      </trkpt>
      <trkpt lat="34.2333315499126911163330078125" lon="108.93774555064737796783447265625">
        <ele>406.600006103515625</ele>
        <time>2026-03-17T12:13:18.000Z</time>
        <extensions>
          <ns3:TrackPointExtension>
            <ns3:hr>166</ns3:hr>
            <ns3:cad>104</ns3:cad>
          </ns3:TrackPointExtension>
        </extensions>
      </trkpt>
      <trkpt lat="34.23336080275475978851318359375" lon="108.93778461031615734100341796875">
        <ele>406.399993896484375</ele>
        <time>2026-03-17T12:13:19.000Z</time>
        <extensions>
          <ns3:TrackPointExtension>
            <ns3:hr>167</ns3:hr>
            <ns3:cad>104</ns3:cad>
          </ns3:TrackPointExtension>
        </extensions>
      </trkpt>
      <trkpt lat="34.2333908937871456146240234375" lon="108.9378230832517147064208984375">
        <ele>406.600006103515625</ele>
        <time>2026-03-17T12:13:20.000Z</time>
        <extensions>
          <ns3:TrackPointExtension>
            <ns3:hr>167</ns3:hr>
            <ns3:cad>104</ns3:cad>
          </ns3:TrackPointExtension>
        </extensions>
      </trkpt>
      <trkpt lat="34.2334160394966602325439453125" lon="108.9378579519689083099365234375">
        <ele>406.600006103515625</ele>
        <time>2026-03-17T12:13:21.000Z</time>
        <extensions>
          <ns3:TrackPointExtension>
            <ns3:hr>167</ns3:hr>
            <ns3:cad>104</ns3:cad>
          </ns3:TrackPointExtension>
        </extensions>
      </trkpt>
      <trkpt lat="34.23344613052904605865478515625" lon="108.937885947525501251220703125">
        <ele>406.399993896484375</ele>
        <time>2026-03-17T12:13:22.000Z</time>
        <extensions>
          <ns3:TrackPointExtension>
            <ns3:hr>167</ns3:hr>
            <ns3:cad>104</ns3:cad>
          </ns3:TrackPointExtension>
        </extensions>
      </trkpt>
      <trkpt lat="34.23348493874073028564453125" lon="108.9379079081118106842041015625">
        <ele>406.399993896484375</ele>
        <time>2026-03-17T12:13:23.000Z</time>
        <extensions>
          <ns3:TrackPointExtension>
            <ns3:hr>167</ns3:hr>
            <ns3:cad>104</ns3:cad>
          </ns3:TrackPointExtension>
        </extensions>
      </trkpt>
      <trkpt lat="34.23352190293371677398681640625" lon="108.937930203974246978759765625">
        <ele>406.399993896484375</ele>
        <time>2026-03-17T12:13:24.000Z</time>
        <extensions>
          <ns3:TrackPointExtension>
            <ns3:hr>167</ns3:hr>
            <ns3:cad>104</ns3:cad>
          </ns3:TrackPointExtension>
        </extensions>
      </trkpt>
      <trkpt lat="34.23355258069932460784912109375" lon="108.937946967780590057373046875">
        <ele>406.600006103515625</ele>
        <time>2026-03-17T12:13:25.000Z</time>
        <extensions>
          <ns3:TrackPointExtension>
            <ns3:hr>167</ns3:hr>
            <ns3:cad>103</ns3:cad>
          </ns3:TrackPointExtension>
        </extensions>
      </trkpt>
      <trkpt lat="34.23359298147261142730712890625" lon="108.937942944467067718505859375">
        <ele>406.600006103515625</ele>
        <time>2026-03-17T12:13:26.000Z</time>
        <extensions>
          <ns3:TrackPointExtension>
            <ns3:hr>167</ns3:hr>
            <ns3:cad>103</ns3:cad>
          </ns3:TrackPointExtension>
        </extensions>
      </trkpt>
      <trkpt lat="34.2336369864642620086669921875" lon="108.93794529139995574951171875">
        <ele>406.600006103515625</ele>
        <time>2026-03-17T12:13:27.000Z</time>
        <extensions>
          <ns3:TrackPointExtension>
            <ns3:hr>167</ns3:hr>
            <ns3:cad>105</ns3:cad>
          </ns3:TrackPointExtension>
        </extensions>
      </trkpt>
      <trkpt lat="34.23367244191467761993408203125" lon="108.93795199692249298095703125">
        <ele>406.600006103515625</ele>
        <time>2026-03-17T12:13:28.000Z</time>
        <extensions>
          <ns3:TrackPointExtension>
            <ns3:hr>167</ns3:hr>
            <ns3:cad>105</ns3:cad>
          </ns3:TrackPointExtension>
        </extensions>
      </trkpt>
      <trkpt lat="34.2337060533463954925537109375" lon="108.937960378825664520263671875">
        <ele>406.600006103515625</ele>
        <time>2026-03-17T12:13:29.000Z</time>
        <extensions>
          <ns3:TrackPointExtension>
            <ns3:hr>168</ns3:hr>
            <ns3:cad>105</ns3:cad>
          </ns3:TrackPointExtension>
        </extensions>
      </trkpt>
      <trkpt lat="34.233746118843555450439453125" lon="108.9379518292844295501708984375">
        <ele>406.600006103515625</ele>
        <time>2026-03-17T12:13:30.000Z</time>
        <extensions>
          <ns3:TrackPointExtension>
            <ns3:hr>168</ns3:hr>
            <ns3:cad>104</ns3:cad>
          </ns3:TrackPointExtension>
        </extensions>
      </trkpt>
      <trkpt lat="34.23378928564488887786865234375" lon="108.93795040436089038848876953125">
        <ele>406.600006103515625</ele>
        <time>2026-03-17T12:13:31.000Z</time>
        <extensions>
          <ns3:TrackPointExtension>
            <ns3:hr>167</ns3:hr>
            <ns3:cad>104</ns3:cad>
          </ns3:TrackPointExtension>
        </extensions>
      </trkpt>
      <trkpt lat="34.23382692039012908935546875" lon="108.93795761279761791229248046875">
        <ele>406.600006103515625</ele>
        <time>2026-03-17T12:13:32.000Z</time>
        <extensions>
          <ns3:TrackPointExtension>
            <ns3:hr>168</ns3:hr>
            <ns3:cad>104</ns3:cad>
          </ns3:TrackPointExtension>
        </extensions>
      </trkpt>
      <trkpt lat="34.23386371694505214691162109375" lon="108.93795426003634929656982421875">
        <ele>406.600006103515625</ele>
        <time>2026-03-17T12:13:33.000Z</time>
        <extensions>
          <ns3:TrackPointExtension>
            <ns3:hr>168</ns3:hr>
            <ns3:cad>104</ns3:cad>
          </ns3:TrackPointExtension>
        </extensions>
      </trkpt>
      <trkpt lat="34.2339045368134975433349609375" lon="108.937944285571575164794921875">
        <ele>406.600006103515625</ele>
        <time>2026-03-17T12:13:34.000Z</time>
        <extensions>
          <ns3:TrackPointExtension>
            <ns3:hr>168</ns3:hr>
            <ns3:cad>104</ns3:cad>
          </ns3:TrackPointExtension>
        </extensions>
      </trkpt>
      <trkpt lat="34.23394619487226009368896484375" lon="108.93794126808643341064453125">
        <ele>406.600006103515625</ele>
        <time>2026-03-17T12:13:35.000Z</time>
        <extensions>
          <ns3:TrackPointExtension>
            <ns3:hr>169</ns3:hr>
            <ns3:cad>104</ns3:cad>
          </ns3:TrackPointExtension>
        </extensions>
      </trkpt>
      <trkpt lat="34.23398022539913654327392578125" lon="108.9379478059709072113037109375">
        <ele>406.399993896484375</ele>
        <time>2026-03-17T12:13:36.000Z</time>
        <extensions>
          <ns3:TrackPointExtension>
            <ns3:hr>169</ns3:hr>
            <ns3:cad>104</ns3:cad>
          </ns3:TrackPointExtension>
        </extensions>
      </trkpt>
      <trkpt lat="34.23401467502117156982421875" lon="108.93794260919094085693359375">
        <ele>406.600006103515625</ele>
        <time>2026-03-17T12:13:37.000Z</time>
        <extensions>
          <ns3:TrackPointExtension>
            <ns3:hr>169</ns3:hr>
            <ns3:cad>105</ns3:cad>
          </ns3:TrackPointExtension>
        </extensions>
      </trkpt>
      <trkpt lat="34.23405800946056842803955078125" lon="108.93793280236423015594482421875">
        <ele>406.399993896484375</ele>
        <time>2026-03-17T12:13:38.000Z</time>
        <extensions>
          <ns3:TrackPointExtension>
            <ns3:hr>169</ns3:hr>
            <ns3:cad>105</ns3:cad>
          </ns3:TrackPointExtension>
        </extensions>
      </trkpt>
      <trkpt lat="34.23409237526357173919677734375" lon="108.93792995251715183258056640625">
        <ele>406.600006103515625</ele>
        <time>2026-03-17T12:13:39.000Z</time>
        <extensions>
          <ns3:TrackPointExtension>
            <ns3:hr>169</ns3:hr>
            <ns3:cad>105</ns3:cad>
          </ns3:TrackPointExtension>
        </extensions>
      </trkpt>
      <trkpt lat="34.234124310314655303955078125" lon="108.937940262258052825927734375">
        <ele>406.399993896484375</ele>
        <time>2026-03-17T12:13:40.000Z</time>
        <extensions>
          <ns3:TrackPointExtension>
            <ns3:hr>169</ns3:hr>
            <ns3:cad>104</ns3:cad>
          </ns3:TrackPointExtension>
        </extensions>
      </trkpt>
      <trkpt lat="34.23415775410830974578857421875" lon="108.93793766386806964874267578125">
        <ele>406.399993896484375</ele>
        <time>2026-03-17T12:13:41.000Z</time>
        <extensions>
          <ns3:TrackPointExtension>
            <ns3:hr>169</ns3:hr>
            <ns3:cad>104</ns3:cad>
          </ns3:TrackPointExtension>
        </extensions>
      </trkpt>
      <trkpt lat="34.23419832251965999603271484375" lon="108.93793833442032337188720703125">
        <ele>406.399993896484375</ele>
        <time>2026-03-17T12:13:42.000Z</time>
        <extensions>
          <ns3:TrackPointExtension>
            <ns3:hr>169</ns3:hr>
            <ns3:cad>104</ns3:cad>
          </ns3:TrackPointExtension>
        </extensions>
      </trkpt>
      <trkpt lat="34.23423671163618564605712890625" lon="108.93793967552483081817626953125">
        <ele>406.399993896484375</ele>
        <time>2026-03-17T12:13:43.000Z</time>
        <extensions>
          <ns3:TrackPointExtension>
            <ns3:hr>169</ns3:hr>
            <ns3:cad>103</ns3:cad>
          </ns3:TrackPointExtension>
        </extensions>
      </trkpt>
      <trkpt lat="34.23426839523017406463623046875" lon="108.93794520758092403411865234375">
        <ele>406.399993896484375</ele>
        <time>2026-03-17T12:13:44.000Z</time>
        <extensions>
          <ns3:TrackPointExtension>
            <ns3:hr>169</ns3:hr>
            <ns3:cad>103</ns3:cad>
          </ns3:TrackPointExtension>
        </extensions>
      </trkpt>
      <trkpt lat="34.23430728726089000701904296875" lon="108.93793900497257709503173828125">
        <ele>406.399993896484375</ele>
        <time>2026-03-17T12:13:45.000Z</time>
        <extensions>
          <ns3:TrackPointExtension>
            <ns3:hr>170</ns3:hr>
            <ns3:cad>103</ns3:cad>
          </ns3:TrackPointExtension>
        </extensions>
      </trkpt>
      <trkpt lat="34.2343474365770816802978515625" lon="108.93793732859194278717041015625">
        <ele>406.399993896484375</ele>
        <time>2026-03-17T12:13:46.000Z</time>
        <extensions>
          <ns3:TrackPointExtension>
            <ns3:hr>169</ns3:hr>
            <ns3:cad>104</ns3:cad>
          </ns3:TrackPointExtension>
        </extensions>
      </trkpt>
      <trkpt lat="34.2343819700181484222412109375" lon="108.93794395029544830322265625">
        <ele>406.399993896484375</ele>
        <time>2026-03-17T12:13:47.000Z</time>
        <extensions>
          <ns3:TrackPointExtension>
            <ns3:hr>170</ns3:hr>
            <ns3:cad>104</ns3:cad>
          </ns3:TrackPointExtension>
        </extensions>
      </trkpt>
      <trkpt lat="34.23441524617373943328857421875" lon="108.93794269300997257232666015625">
        <ele>406.399993896484375</ele>
        <time>2026-03-17T12:13:48.000Z</time>
        <extensions>
          <ns3:TrackPointExtension>
            <ns3:hr>170</ns3:hr>
            <ns3:cad>104</ns3:cad>
          </ns3:TrackPointExtension>
        </extensions>
      </trkpt>
      <trkpt lat="34.23445397056639194488525390625" lon="108.937933556735515594482421875">
        <ele>406.399993896484375</ele>
        <time>2026-03-17T12:13:49.000Z</time>
        <extensions>
          <ns3:TrackPointExtension>
            <ns3:hr>170</ns3:hr>
            <ns3:cad>104</ns3:cad>
          </ns3:TrackPointExtension>
        </extensions>
      </trkpt>
      <trkpt lat="34.234495460987091064453125" lon="108.93791905604302883148193359375">
        <ele>406.399993896484375</ele>
        <time>2026-03-17T12:13:50.000Z</time>
        <extensions>
          <ns3:TrackPointExtension>
            <ns3:hr>169</ns3:hr>
            <ns3:cad>104</ns3:cad>
          </ns3:TrackPointExtension>
        </extensions>
      </trkpt>
      <trkpt lat="34.23453276045620441436767578125" lon="108.93790564499795436859130859375">
        <ele>406.399993896484375</ele>
        <time>2026-03-17T12:13:51.000Z</time>
        <extensions>
          <ns3:TrackPointExtension>
            <ns3:hr>169</ns3:hr>
            <ns3:cad>104</ns3:cad>
          </ns3:TrackPointExtension>
        </extensions>
      </trkpt>
      <trkpt lat="34.23456729389727115631103515625" lon="108.93789206631481647491455078125">
        <ele>406.399993896484375</ele>
        <time>2026-03-17T12:13:52.000Z</time>
        <extensions>
          <ns3:TrackPointExtension>
            <ns3:hr>169</ns3:hr>
            <ns3:cad>104</ns3:cad>
          </ns3:TrackPointExtension>
        </extensions>
      </trkpt>
      <trkpt lat="34.23460048623383045196533203125" lon="108.93786071799695491790771484375">
        <ele>406.399993896484375</ele>
        <time>2026-03-17T12:13:53.000Z</time>
        <extensions>
          <ns3:TrackPointExtension>
            <ns3:hr>169</ns3:hr>
            <ns3:cad>104</ns3:cad>
          </ns3:TrackPointExtension>
        </extensions>
      </trkpt>
      <trkpt lat="34.2346397973597049713134765625" lon="108.93781294114887714385986328125">
        <ele>406.399993896484375</ele>
        <time>2026-03-17T12:13:54.000Z</time>
        <extensions>
          <ns3:TrackPointExtension>
            <ns3:hr>170</ns3:hr>
            <ns3:cad>104</ns3:cad>
          </ns3:TrackPointExtension>
        </extensions>
      </trkpt>
      <trkpt lat="34.2346713133156299591064453125" lon="108.93777572549879550933837890625">
        <ele>406.399993896484375</ele>
        <time>2026-03-17T12:13:55.000Z</time>
        <extensions>
          <ns3:TrackPointExtension>
            <ns3:hr>169</ns3:hr>
            <ns3:cad>104</ns3:cad>
          </ns3:TrackPointExtension>
        </extensions>
      </trkpt>
      <trkpt lat="34.234701655805110931396484375" lon="108.93774454481899738311767578125">
        <ele>406.399993896484375</ele>
        <time>2026-03-17T12:13:56.000Z</time>
        <extensions>
          <ns3:TrackPointExtension>
            <ns3:hr>169</ns3:hr>
            <ns3:cad>104</ns3:cad>
          </ns3:TrackPointExtension>
        </extensions>
      </trkpt>
      <trkpt lat="34.23472487367689609527587890625" lon="108.937700875103473663330078125">
        <ele>406.399993896484375</ele>
        <time>2026-03-17T12:13:57.000Z</time>
        <extensions>
          <ns3:TrackPointExtension>
            <ns3:hr>170</ns3:hr>
            <ns3:cad>104</ns3:cad>
          </ns3:TrackPointExtension>
        </extensions>
      </trkpt>
      <trkpt lat="34.23474716953933238983154296875" lon="108.9376453869044780731201171875">
        <ele>406.399993896484375</ele>
        <time>2026-03-17T12:13:58.000Z</time>
        <extensions>
          <ns3:TrackPointExtension>
            <ns3:hr>170</ns3:hr>
            <ns3:cad>104</ns3:cad>
          </ns3:TrackPointExtension>
        </extensions>
      </trkpt>
      <trkpt lat="34.234765358269214630126953125" lon="108.93759786151349544525146484375">
        <ele>406.399993896484375</ele>
        <time>2026-03-17T12:13:59.000Z</time>
        <extensions>
          <ns3:TrackPointExtension>
            <ns3:hr>170</ns3:hr>
            <ns3:cad>104</ns3:cad>
          </ns3:TrackPointExtension>
        </extensions>
      </trkpt>
      <trkpt lat="34.2347806133329868316650390625" lon="108.93755109049379825592041015625">
        <ele>406.399993896484375</ele>
        <time>2026-03-17T12:14:00.000Z</time>
        <extensions>
          <ns3:TrackPointExtension>
            <ns3:hr>170</ns3:hr>
            <ns3:cad>106</ns3:cad>
          </ns3:TrackPointExtension>
        </extensions>
      </trkpt>
      <trkpt lat="34.2347819544374942779541015625" lon="108.93750566057860851287841796875">
        <ele>406.399993896484375</ele>
        <time>2026-03-17T12:14:01.000Z</time>
        <extensions>
          <ns3:TrackPointExtension>
            <ns3:hr>170</ns3:hr>
            <ns3:cad>106</ns3:cad>
          </ns3:TrackPointExtension>
        </extensions>
      </trkpt>
      <trkpt lat="34.23478044569492340087890625" lon="108.9374519325792789459228515625">
        <ele>406.399993896484375</ele>
        <time>2026-03-17T12:14:02.000Z</time>
        <extensions>
          <ns3:TrackPointExtension>
            <ns3:hr>170</ns3:hr>
            <ns3:cad>106</ns3:cad>
          </ns3:TrackPointExtension>
        </extensions>
      </trkpt>
      <trkpt lat="34.23477709293365478515625" lon="108.937399797141551971435546875">
        <ele>406.399993896484375</ele>
        <time>2026-03-17T12:14:03.000Z</time>
        <extensions>
          <ns3:TrackPointExtension>
            <ns3:hr>170</ns3:hr>
            <ns3:cad>106</ns3:cad>
          </ns3:TrackPointExtension>
        </extensions>
      </trkpt>
      <trkpt lat="34.234771728515625" lon="108.93735914491117000579833984375">
        <ele>406.399993896484375</ele>
        <time>2026-03-17T12:14:04.000Z</time>
        <extensions>
          <ns3:TrackPointExtension>
            <ns3:hr>170</ns3:hr>
            <ns3:cad>106</ns3:cad>
          </ns3:TrackPointExtension>
        </extensions>
      </trkpt>
      <trkpt lat="34.23475052230060100555419921875" lon="108.9373188279569149017333984375">
        <ele>406.399993896484375</ele>
        <time>2026-03-17T12:14:05.000Z</time>
        <extensions>
          <ns3:TrackPointExtension>
            <ns3:hr>171</ns3:hr>
            <ns3:cad>106</ns3:cad>
          </ns3:TrackPointExtension>
        </extensions>
      </trkpt>
      <trkpt lat="34.2347091995179653167724609375" lon="108.93723375163972377777099609375">
        <ele>406.399993896484375</ele>
        <time>2026-03-17T12:14:06.000Z</time>
        <extensions>
          <ns3:TrackPointExtension>
            <ns3:hr>170</ns3:hr>
            <ns3:cad>105</ns3:cad>
          </ns3:TrackPointExtension>
        </extensions>
      </trkpt>
      <trkpt lat="34.2346867360174655914306640625" lon="108.9371951110661029815673828125">
        <ele>406.399993896484375</ele>
        <time>2026-03-17T12:14:07.000Z</time>
        <extensions>
          <ns3:TrackPointExtension>
            <ns3:hr>171</ns3:hr>
            <ns3:cad>105</ns3:cad>
          </ns3:TrackPointExtension>
        </extensions>
      </trkpt>
      <trkpt lat="34.23466720618307590484619140625" lon="108.937160074710845947265625">
        <ele>406.20001220703125</ele>
        <time>2026-03-17T12:14:08.000Z</time>
        <extensions>
          <ns3:TrackPointExtension>
            <ns3:hr>171</ns3:hr>
            <ns3:cad>105</ns3:cad>
          </ns3:TrackPointExtension>
        </extensions>
      </trkpt>
      <trkpt lat="34.23464365303516387939453125" lon="108.93714356236159801483154296875">
        <ele>406.20001220703125</ele>
        <time>2026-03-17T12:14:09.000Z</time>
        <extensions>
          <ns3:TrackPointExtension>
            <ns3:hr>171</ns3:hr>
            <ns3:cad>104</ns3:cad>
          </ns3:TrackPointExtension>
        </extensions>
      </trkpt>
      <trkpt lat="34.2346300743520259857177734375" lon="108.93711254931986331939697265625">
        <ele>406.20001220703125</ele>
        <time>2026-03-17T12:14:10.000Z</time>
        <extensions>
          <ns3:TrackPointExtension>
            <ns3:hr>171</ns3:hr>
            <ns3:cad>104</ns3:cad>
          </ns3:TrackPointExtension>
        </extensions>
      </trkpt>
      <trkpt lat="34.23462311737239360809326171875" lon="108.93709293566644191741943359375">
        <ele>406.20001220703125</ele>
        <time>2026-03-17T12:14:11.000Z</time>
        <extensions>
          <ns3:TrackPointExtension>
            <ns3:hr>171</ns3:hr>
            <ns3:cad>104</ns3:cad>
          </ns3:TrackPointExtension>
        </extensions>
      </trkpt>
    </trkseg>
  </trk>
</gpx>
