<gpx xmlns:ns3="http://www.garmin.com/xmlschemas/TrackPointExtension/v1" xmlns="http://www.topografix.com/GPX/1/1" xmlns:xsi="http://www.w3.org/2001/XMLSchema-instance" xmlns:ns2="http://www.garmin.com/xmlschemas/GpxExtensions/v3" creator="Garmin Connect" version="1.1" xsi:schemaLocation="http://www.topografix.com/GPX/1/1 http://www.topografix.com/GPX/11.xsd">
  <extensions>
<distance>876.97</distance>
<average_hr>165.0</average_hr>
<average_speed>4.322999954223633</average_speed>
<start_time>2026-03-17T12:34:58+00:00</start_time>
<end_time>2026-03-17T12:38:20.871000+00:00</end_time>
<moving_time>200.0</moving_time>
<elapsed_time>202.871</elapsed_time>
</extensions>
<metadata>
    <link href="connect.garmin.com">
      <text>Garmin Connect</text>
    </link>
    <time>2026-03-17T12:34:58.000Z</time>
  </metadata>
  <trk>
    <name>西安市 跑步</name>
    <type>running</type>
    <trkseg>
      <trkpt lat="34.23466469161212444305419921875" lon="108.93722218461334705352783203125">
        <ele>405.79998779296875</ele>
        <time>2026-03-17T12:34:58.000Z</time>
        <extensions>
          <ns3:TrackPointExtension>
            <ns3:hr>104</ns3:hr>
            <ns3:cad>0</ns3:cad>
          </ns3:TrackPointExtension>
        </extensions>
      </trkpt>
      <trkpt lat="34.23466251231729984283447265625" lon="108.9372283034026622772216796875">
        <ele>405.79998779296875</ele>
        <time>2026-03-17T12:34:59.000Z</time>
        <extensions>
          <ns3:TrackPointExtension>
            <ns3:hr>104</ns3:hr>
            <ns3:cad>0</ns3:cad>
          </ns3:TrackPointExtension>
        </extensions>
      </trkpt>
      <trkpt lat="34.23463870771229267120361328125" lon="108.93719494342803955078125">
        <ele>406</ele>
        <time>2026-03-17T12:35:00.000Z</time>
        <extensions>
          <ns3:TrackPointExtension>
            <ns3:hr>103</ns3:hr>
            <ns3:cad>0</ns3:cad>
          </ns3:TrackPointExtension>
        </extensions>
      </trkpt>
      <trkpt lat="34.234613478183746337890625" lon="108.93716317601501941680908203125">
        <ele>406</ele>
        <time>2026-03-17T12:35:01.000Z</time>
        <extensions>
          <ns3:TrackPointExtension>
            <ns3:hr>102</ns3:hr>
            <ns3:cad>0</ns3:cad>
          </ns3:TrackPointExtension>
        </extensions>
      </trkpt>
      <trkpt lat="34.23458732664585113525390625" lon="108.93713618628680706024169921875">
        <ele>406</ele>
        <time>2026-03-17T12:35:02.000Z</time>
        <extensions>
          <ns3:TrackPointExtension>
            <ns3:hr>101</ns3:hr>
            <ns3:cad>0</ns3:cad>
          </ns3:TrackPointExtension>
        </extensions>
      </trkpt>
      <trkpt lat="34.23454700969159603118896484375" lon="108.9371139742434024810791015625">
        <ele>406</ele>
        <time>2026-03-17T12:35:03.000Z</time>
        <extensions>
          <ns3:TrackPointExtension>
            <ns3:hr>102</ns3:hr>
            <ns3:cad>94</ns3:cad>
          </ns3:TrackPointExtension>
        </extensions>
      </trkpt>
      <trkpt lat="34.234505854547023773193359375" lon="108.93709142692387104034423828125">
        <ele>406</ele>
        <time>2026-03-17T12:35:04.000Z</time>
        <extensions>
          <ns3:TrackPointExtension>
            <ns3:hr>104</ns3:hr>
            <ns3:cad>100</ns3:cad>
          </ns3:TrackPointExtension>
        </extensions>
      </trkpt>
      <trkpt lat="34.23446394503116607666015625" lon="108.93707131035625934600830078125">
        <ele>406</ele>
        <time>2026-03-17T12:35:05.000Z</time>
        <extensions>
          <ns3:TrackPointExtension>
            <ns3:hr>106</ns3:hr>
            <ns3:cad>104</ns3:cad>
          </ns3:TrackPointExtension>
        </extensions>
      </trkpt>
      <trkpt lat="34.2344248853623867034912109375" lon="108.93705454654991626739501953125">
        <ele>406.20001220703125</ele>
        <time>2026-03-17T12:35:06.000Z</time>
        <extensions>
          <ns3:TrackPointExtension>
            <ns3:hr>107</ns3:hr>
            <ns3:cad>106</ns3:cad>
          </ns3:TrackPointExtension>
        </extensions>
      </trkpt>
      <trkpt lat="34.23438037745654582977294921875" lon="108.93706510774791240692138671875">
        <ele>406.20001220703125</ele>
        <time>2026-03-17T12:35:07.000Z</time>
        <extensions>
          <ns3:TrackPointExtension>
            <ns3:hr>109</ns3:hr>
            <ns3:cad>106</ns3:cad>
          </ns3:TrackPointExtension>
        </extensions>
      </trkpt>
      <trkpt lat="34.2343336902558803558349609375" lon="108.93706820905208587646484375">
        <ele>406.399993896484375</ele>
        <time>2026-03-17T12:35:08.000Z</time>
        <extensions>
          <ns3:TrackPointExtension>
            <ns3:hr>110</ns3:hr>
            <ns3:cad>106</ns3:cad>
          </ns3:TrackPointExtension>
        </extensions>
      </trkpt>
      <trkpt lat="34.23428423702716827392578125" lon="108.9370715618133544921875">
        <ele>406.20001220703125</ele>
        <time>2026-03-17T12:35:09.000Z</time>
        <extensions>
          <ns3:TrackPointExtension>
            <ns3:hr>111</ns3:hr>
            <ns3:cad>106</ns3:cad>
          </ns3:TrackPointExtension>
        </extensions>
      </trkpt>
      <trkpt lat="34.23424056731164455413818359375" lon="108.9370710588991641998291015625">
        <ele>406.20001220703125</ele>
        <time>2026-03-17T12:35:10.000Z</time>
        <extensions>
          <ns3:TrackPointExtension>
            <ns3:hr>112</ns3:hr>
            <ns3:cad>106</ns3:cad>
          </ns3:TrackPointExtension>
        </extensions>
      </trkpt>
      <trkpt lat="34.23420377075672149658203125" lon="108.9370673708617687225341796875">
        <ele>406.20001220703125</ele>
        <time>2026-03-17T12:35:11.000Z</time>
        <extensions>
          <ns3:TrackPointExtension>
            <ns3:hr>113</ns3:hr>
            <ns3:cad>106</ns3:cad>
          </ns3:TrackPointExtension>
        </extensions>
      </trkpt>
      <trkpt lat="34.234161190688610076904296875" lon="108.9370720647275447845458984375">
        <ele>406.20001220703125</ele>
        <time>2026-03-17T12:35:12.000Z</time>
        <extensions>
          <ns3:TrackPointExtension>
            <ns3:hr>113</ns3:hr>
            <ns3:cad>106</ns3:cad>
          </ns3:TrackPointExtension>
        </extensions>
      </trkpt>
      <trkpt lat="34.2341105639934539794921875" lon="108.93707935698330402374267578125">
        <ele>406.20001220703125</ele>
        <time>2026-03-17T12:35:13.000Z</time>
        <extensions>
          <ns3:TrackPointExtension>
            <ns3:hr>114</ns3:hr>
            <ns3:cad>106</ns3:cad>
          </ns3:TrackPointExtension>
        </extensions>
      </trkpt>
      <trkpt lat="34.2340647988021373748779296875" lon="108.93708472140133380889892578125">
        <ele>406.20001220703125</ele>
        <time>2026-03-17T12:35:14.000Z</time>
        <extensions>
          <ns3:TrackPointExtension>
            <ns3:hr>115</ns3:hr>
            <ns3:cad>106</ns3:cad>
          </ns3:TrackPointExtension>
        </extensions>
      </trkpt>
      <trkpt lat="34.2340175248682498931884765625" lon="108.9370844699442386627197265625">
        <ele>406.20001220703125</ele>
        <time>2026-03-17T12:35:15.000Z</time>
        <extensions>
          <ns3:TrackPointExtension>
            <ns3:hr>116</ns3:hr>
            <ns3:cad>106</ns3:cad>
          </ns3:TrackPointExtension>
        </extensions>
      </trkpt>
      <trkpt lat="34.23397989012300968170166015625" lon="108.93707315437495708465576171875">
        <ele>406.20001220703125</ele>
        <time>2026-03-17T12:35:16.000Z</time>
        <extensions>
          <ns3:TrackPointExtension>
            <ns3:hr>117</ns3:hr>
            <ns3:cad>100</ns3:cad>
          </ns3:TrackPointExtension>
        </extensions>
      </trkpt>
      <trkpt lat="34.2339451052248477935791015625" lon="108.9370757527649402618408203125">
        <ele>406.20001220703125</ele>
        <time>2026-03-17T12:35:17.000Z</time>
        <extensions>
          <ns3:TrackPointExtension>
            <ns3:hr>118</ns3:hr>
            <ns3:cad>100</ns3:cad>
          </ns3:TrackPointExtension>
        </extensions>
      </trkpt>
      <trkpt lat="34.23389992676675319671630859375" lon="108.9370754174888134002685546875">
        <ele>406.399993896484375</ele>
        <time>2026-03-17T12:35:18.000Z</time>
        <extensions>
          <ns3:TrackPointExtension>
            <ns3:hr>119</ns3:hr>
            <ns3:cad>100</ns3:cad>
          </ns3:TrackPointExtension>
        </extensions>
      </trkpt>
      <trkpt lat="34.23385466448962688446044921875" lon="108.937079943716526031494140625">
        <ele>406.399993896484375</ele>
        <time>2026-03-17T12:35:19.000Z</time>
        <extensions>
          <ns3:TrackPointExtension>
            <ns3:hr>120</ns3:hr>
            <ns3:cad>100</ns3:cad>
          </ns3:TrackPointExtension>
        </extensions>
      </trkpt>
      <trkpt lat="34.23381241969764232635498046875" lon="108.93707902170717716217041015625">
        <ele>406.399993896484375</ele>
        <time>2026-03-17T12:35:20.000Z</time>
        <extensions>
          <ns3:TrackPointExtension>
            <ns3:hr>121</ns3:hr>
            <ns3:cad>100</ns3:cad>
          </ns3:TrackPointExtension>
        </extensions>
      </trkpt>
      <trkpt lat="34.23377604223787784576416015625" lon="108.93707382492721080780029296875">
        <ele>406.399993896484375</ele>
        <time>2026-03-17T12:35:21.000Z</time>
        <extensions>
          <ns3:TrackPointExtension>
            <ns3:hr>122</ns3:hr>
            <ns3:cad>100</ns3:cad>
          </ns3:TrackPointExtension>
        </extensions>
      </trkpt>
      <trkpt lat="34.2337310314178466796875" lon="108.9370770938694477081298828125">
        <ele>406.399993896484375</ele>
        <time>2026-03-17T12:35:22.000Z</time>
        <extensions>
          <ns3:TrackPointExtension>
            <ns3:hr>124</ns3:hr>
            <ns3:cad>107</ns3:cad>
          </ns3:TrackPointExtension>
        </extensions>
      </trkpt>
      <trkpt lat="34.23368903808295726776123046875" lon="108.9370754174888134002685546875">
        <ele>406.399993896484375</ele>
        <time>2026-03-17T12:35:23.000Z</time>
        <extensions>
          <ns3:TrackPointExtension>
            <ns3:hr>125</ns3:hr>
            <ns3:cad>107</ns3:cad>
          </ns3:TrackPointExtension>
        </extensions>
      </trkpt>
      <trkpt lat="34.23364595510065555572509765625" lon="108.93708036281168460845947265625">
        <ele>406.399993896484375</ele>
        <time>2026-03-17T12:35:24.000Z</time>
        <extensions>
          <ns3:TrackPointExtension>
            <ns3:hr>127</ns3:hr>
            <ns3:cad>107</ns3:cad>
          </ns3:TrackPointExtension>
        </extensions>
      </trkpt>
      <trkpt lat="34.2336121760308742523193359375" lon="108.93707851879298686981201171875">
        <ele>406.399993896484375</ele>
        <time>2026-03-17T12:35:25.000Z</time>
        <extensions>
          <ns3:TrackPointExtension>
            <ns3:hr>129</ns3:hr>
            <ns3:cad>107</ns3:cad>
          </ns3:TrackPointExtension>
        </extensions>
      </trkpt>
      <trkpt lat="34.2335796542465686798095703125" lon="108.93707801587879657745361328125">
        <ele>406.399993896484375</ele>
        <time>2026-03-17T12:35:26.000Z</time>
        <extensions>
          <ns3:TrackPointExtension>
            <ns3:hr>131</ns3:hr>
            <ns3:cad>107</ns3:cad>
          </ns3:TrackPointExtension>
        </extensions>
      </trkpt>
      <trkpt lat="34.23354118131101131439208984375" lon="108.93709075637161731719970703125">
        <ele>406.399993896484375</ele>
        <time>2026-03-17T12:35:27.000Z</time>
        <extensions>
          <ns3:TrackPointExtension>
            <ns3:hr>133</ns3:hr>
            <ns3:cad>108</ns3:cad>
          </ns3:TrackPointExtension>
        </extensions>
      </trkpt>
      <trkpt lat="34.2335025407373905181884765625" lon="108.93710534088313579559326171875">
        <ele>406.399993896484375</ele>
        <time>2026-03-17T12:35:28.000Z</time>
        <extensions>
          <ns3:TrackPointExtension>
            <ns3:hr>135</ns3:hr>
            <ns3:cad>108</ns3:cad>
          </ns3:TrackPointExtension>
        </extensions>
      </trkpt>
      <trkpt lat="34.23347228206694126129150390625" lon="108.93711724318563938140869140625">
        <ele>406.399993896484375</ele>
        <time>2026-03-17T12:35:29.000Z</time>
        <extensions>
          <ns3:TrackPointExtension>
            <ns3:hr>137</ns3:hr>
            <ns3:cad>108</ns3:cad>
          </ns3:TrackPointExtension>
        </extensions>
      </trkpt>
      <trkpt lat="34.23344210721552371978759765625" lon="108.93713400699198246002197265625">
        <ele>406.600006103515625</ele>
        <time>2026-03-17T12:35:30.000Z</time>
        <extensions>
          <ns3:TrackPointExtension>
            <ns3:hr>139</ns3:hr>
            <ns3:cad>108</ns3:cad>
          </ns3:TrackPointExtension>
        </extensions>
      </trkpt>
      <trkpt lat="34.233408831059932708740234375" lon="108.93716233782470226287841796875">
        <ele>406.399993896484375</ele>
        <time>2026-03-17T12:35:31.000Z</time>
        <extensions>
          <ns3:TrackPointExtension>
            <ns3:hr>141</ns3:hr>
            <ns3:cad>108</ns3:cad>
          </ns3:TrackPointExtension>
        </extensions>
      </trkpt>
      <trkpt lat="34.23337739892303943634033203125" lon="108.93719284795224666595458984375">
        <ele>406.399993896484375</ele>
        <time>2026-03-17T12:35:32.000Z</time>
        <extensions>
          <ns3:TrackPointExtension>
            <ns3:hr>143</ns3:hr>
            <ns3:cad>108</ns3:cad>
          </ns3:TrackPointExtension>
        </extensions>
      </trkpt>
      <trkpt lat="34.23335216939449310302734375" lon="108.9372192509472370147705078125">
        <ele>406.399993896484375</ele>
        <time>2026-03-17T12:35:33.000Z</time>
        <extensions>
          <ns3:TrackPointExtension>
            <ns3:hr>145</ns3:hr>
            <ns3:cad>105</ns3:cad>
          </ns3:TrackPointExtension>
        </extensions>
      </trkpt>
      <trkpt lat="34.23332400619983673095703125" lon="108.93725235946476459503173828125">
        <ele>406.399993896484375</ele>
        <time>2026-03-17T12:35:34.000Z</time>
        <extensions>
          <ns3:TrackPointExtension>
            <ns3:hr>147</ns3:hr>
            <ns3:cad>105</ns3:cad>
          </ns3:TrackPointExtension>
        </extensions>
      </trkpt>
      <trkpt lat="34.23330497927963733673095703125" lon="108.93729753792285919189453125">
        <ele>406.399993896484375</ele>
        <time>2026-03-17T12:35:35.000Z</time>
        <extensions>
          <ns3:TrackPointExtension>
            <ns3:hr>149</ns3:hr>
            <ns3:cad>105</ns3:cad>
          </ns3:TrackPointExtension>
        </extensions>
      </trkpt>
      <trkpt lat="34.23328519798815250396728515625" lon="108.9373473264276981353759765625">
        <ele>406.399993896484375</ele>
        <time>2026-03-17T12:35:36.000Z</time>
        <extensions>
          <ns3:TrackPointExtension>
            <ns3:hr>151</ns3:hr>
            <ns3:cad>105</ns3:cad>
          </ns3:TrackPointExtension>
        </extensions>
      </trkpt>
      <trkpt lat="34.23326591961085796356201171875" lon="108.9373828656971454620361328125">
        <ele>406.399993896484375</ele>
        <time>2026-03-17T12:35:37.000Z</time>
        <extensions>
          <ns3:TrackPointExtension>
            <ns3:hr>153</ns3:hr>
            <ns3:cad>105</ns3:cad>
          </ns3:TrackPointExtension>
        </extensions>
      </trkpt>
      <trkpt lat="34.233251251280307769775390625" lon="108.93741865642368793487548828125">
        <ele>406.399993896484375</ele>
        <time>2026-03-17T12:35:38.000Z</time>
        <extensions>
          <ns3:TrackPointExtension>
            <ns3:hr>154</ns3:hr>
            <ns3:cad>105</ns3:cad>
          </ns3:TrackPointExtension>
        </extensions>
      </trkpt>
      <trkpt lat="34.23324781470000743865966796875" lon="108.9374663494527339935302734375">
        <ele>406.600006103515625</ele>
        <time>2026-03-17T12:35:39.000Z</time>
        <extensions>
          <ns3:TrackPointExtension>
            <ns3:hr>156</ns3:hr>
            <ns3:cad>105</ns3:cad>
          </ns3:TrackPointExtension>
        </extensions>
      </trkpt>
      <trkpt lat="34.233249239623546600341796875" lon="108.93752686679363250732421875">
        <ele>406.600006103515625</ele>
        <time>2026-03-17T12:35:40.000Z</time>
        <extensions>
          <ns3:TrackPointExtension>
            <ns3:hr>157</ns3:hr>
            <ns3:cad>105</ns3:cad>
          </ns3:TrackPointExtension>
        </extensions>
      </trkpt>
      <trkpt lat="34.2332460545003414154052734375" lon="108.93756844103336334228515625">
        <ele>406.600006103515625</ele>
        <time>2026-03-17T12:35:41.000Z</time>
        <extensions>
          <ns3:TrackPointExtension>
            <ns3:hr>158</ns3:hr>
            <ns3:cad>105</ns3:cad>
          </ns3:TrackPointExtension>
        </extensions>
      </trkpt>
      <trkpt lat="34.23324982635676860809326171875" lon="108.93761211074888706207275390625">
        <ele>406.399993896484375</ele>
        <time>2026-03-17T12:35:42.000Z</time>
        <extensions>
          <ns3:TrackPointExtension>
            <ns3:hr>159</ns3:hr>
            <ns3:cad>105</ns3:cad>
          </ns3:TrackPointExtension>
        </extensions>
      </trkpt>
      <trkpt lat="34.2332608066499233245849609375" lon="108.93766340799629688262939453125">
        <ele>406.399993896484375</ele>
        <time>2026-03-17T12:35:43.000Z</time>
        <extensions>
          <ns3:TrackPointExtension>
            <ns3:hr>160</ns3:hr>
            <ns3:cad>105</ns3:cad>
          </ns3:TrackPointExtension>
        </extensions>
      </trkpt>
      <trkpt lat="34.233277402818202972412109375" lon="108.93771059811115264892578125">
        <ele>406.399993896484375</ele>
        <time>2026-03-17T12:35:44.000Z</time>
        <extensions>
          <ns3:TrackPointExtension>
            <ns3:hr>161</ns3:hr>
            <ns3:cad>105</ns3:cad>
          </ns3:TrackPointExtension>
        </extensions>
      </trkpt>
      <trkpt lat="34.233288131654262542724609375" lon="108.93775292672216892242431640625">
        <ele>406.399993896484375</ele>
        <time>2026-03-17T12:35:45.000Z</time>
        <extensions>
          <ns3:TrackPointExtension>
            <ns3:hr>162</ns3:hr>
            <ns3:cad>105</ns3:cad>
          </ns3:TrackPointExtension>
        </extensions>
      </trkpt>
      <trkpt lat="34.23331051133573055267333984375" lon="108.93778963945806026458740234375">
        <ele>406.399993896484375</ele>
        <time>2026-03-17T12:35:46.000Z</time>
        <extensions>
          <ns3:TrackPointExtension>
            <ns3:hr>163</ns3:hr>
            <ns3:cad>105</ns3:cad>
          </ns3:TrackPointExtension>
        </extensions>
      </trkpt>
      <trkpt lat="34.2333419434726238250732421875" lon="108.93782869912683963775634765625">
        <ele>406.399993896484375</ele>
        <time>2026-03-17T12:35:47.000Z</time>
        <extensions>
          <ns3:TrackPointExtension>
            <ns3:hr>164</ns3:hr>
            <ns3:cad>104</ns3:cad>
          </ns3:TrackPointExtension>
        </extensions>
      </trkpt>
      <trkpt lat="34.23336826264858245849609375" lon="108.93786490894854068756103515625">
        <ele>406.399993896484375</ele>
        <time>2026-03-17T12:35:48.000Z</time>
        <extensions>
          <ns3:TrackPointExtension>
            <ns3:hr>165</ns3:hr>
            <ns3:cad>104</ns3:cad>
          </ns3:TrackPointExtension>
        </extensions>
      </trkpt>
      <trkpt lat="34.23338930122554302215576171875" lon="108.93789474852383136749267578125">
        <ele>406.399993896484375</ele>
        <time>2026-03-17T12:35:49.000Z</time>
        <extensions>
          <ns3:TrackPointExtension>
            <ns3:hr>166</ns3:hr>
            <ns3:cad>105</ns3:cad>
          </ns3:TrackPointExtension>
        </extensions>
      </trkpt>
      <trkpt lat="34.23342064954340457916259765625" lon="108.9379216544330120086669921875">
        <ele>406.399993896484375</ele>
        <time>2026-03-17T12:35:50.000Z</time>
        <extensions>
          <ns3:TrackPointExtension>
            <ns3:hr>167</ns3:hr>
            <ns3:cad>105</ns3:cad>
          </ns3:TrackPointExtension>
        </extensions>
      </trkpt>
      <trkpt lat="34.23345702700316905975341796875" lon="108.93794939853250980377197265625">
        <ele>406.399993896484375</ele>
        <time>2026-03-17T12:35:51.000Z</time>
        <extensions>
          <ns3:TrackPointExtension>
            <ns3:hr>167</ns3:hr>
            <ns3:cad>105</ns3:cad>
          </ns3:TrackPointExtension>
        </extensions>
      </trkpt>
      <trkpt lat="34.23348854295909404754638671875" lon="108.93796850927174091339111328125">
        <ele>406.399993896484375</ele>
        <time>2026-03-17T12:35:52.000Z</time>
        <extensions>
          <ns3:TrackPointExtension>
            <ns3:hr>168</ns3:hr>
            <ns3:cad>105</ns3:cad>
          </ns3:TrackPointExtension>
        </extensions>
      </trkpt>
      <trkpt lat="34.2335164546966552734375" lon="108.9379840157926082611083984375">
        <ele>406.399993896484375</ele>
        <time>2026-03-17T12:35:53.000Z</time>
        <extensions>
          <ns3:TrackPointExtension>
            <ns3:hr>168</ns3:hr>
            <ns3:cad>103</ns3:cad>
          </ns3:TrackPointExtension>
        </extensions>
      </trkpt>
      <trkpt lat="34.23355794511735439300537109375" lon="108.93798711709678173065185546875">
        <ele>406.399993896484375</ele>
        <time>2026-03-17T12:35:54.000Z</time>
        <extensions>
          <ns3:TrackPointExtension>
            <ns3:hr>169</ns3:hr>
            <ns3:cad>103</ns3:cad>
          </ns3:TrackPointExtension>
        </extensions>
      </trkpt>
      <trkpt lat="34.23360186628997325897216796875" lon="108.93798594363033771514892578125">
        <ele>406.399993896484375</ele>
        <time>2026-03-17T12:35:55.000Z</time>
        <extensions>
          <ns3:TrackPointExtension>
            <ns3:hr>170</ns3:hr>
            <ns3:cad>103</ns3:cad>
          </ns3:TrackPointExtension>
        </extensions>
      </trkpt>
      <trkpt lat="34.23364243470132350921630859375" lon="108.9379902184009552001953125">
        <ele>406.399993896484375</ele>
        <time>2026-03-17T12:35:56.000Z</time>
        <extensions>
          <ns3:TrackPointExtension>
            <ns3:hr>171</ns3:hr>
            <ns3:cad>103</ns3:cad>
          </ns3:TrackPointExtension>
        </extensions>
      </trkpt>
      <trkpt lat="34.23367629759013652801513671875" lon="108.93798443488776683807373046875">
        <ele>406.600006103515625</ele>
        <time>2026-03-17T12:35:57.000Z</time>
        <extensions>
          <ns3:TrackPointExtension>
            <ns3:hr>171</ns3:hr>
            <ns3:cad>103</ns3:cad>
          </ns3:TrackPointExtension>
        </extensions>
      </trkpt>
      <trkpt lat="34.23371569253504276275634765625" lon="108.937977142632007598876953125">
        <ele>406.600006103515625</ele>
        <time>2026-03-17T12:35:58.000Z</time>
        <extensions>
          <ns3:TrackPointExtension>
            <ns3:hr>172</ns3:hr>
            <ns3:cad>103</ns3:cad>
          </ns3:TrackPointExtension>
        </extensions>
      </trkpt>
      <trkpt lat="34.2337583564221858978271484375" lon="108.93797270022332668304443359375">
        <ele>406.399993896484375</ele>
        <time>2026-03-17T12:35:59.000Z</time>
        <extensions>
          <ns3:TrackPointExtension>
            <ns3:hr>172</ns3:hr>
            <ns3:cad>103</ns3:cad>
          </ns3:TrackPointExtension>
        </extensions>
      </trkpt>
      <trkpt lat="34.23379532061517238616943359375" lon="108.9379759691655635833740234375">
        <ele>406.399993896484375</ele>
        <time>2026-03-17T12:36:00.000Z</time>
        <extensions>
          <ns3:TrackPointExtension>
            <ns3:hr>172</ns3:hr>
            <ns3:cad>103</ns3:cad>
          </ns3:TrackPointExtension>
        </extensions>
      </trkpt>
      <trkpt lat="34.23382826149463653564453125" lon="108.93797890283167362213134765625">
        <ele>406.399993896484375</ele>
        <time>2026-03-17T12:36:01.000Z</time>
        <extensions>
          <ns3:TrackPointExtension>
            <ns3:hr>173</ns3:hr>
            <ns3:cad>103</ns3:cad>
          </ns3:TrackPointExtension>
        </extensions>
      </trkpt>
      <trkpt lat="34.233870841562747955322265625" lon="108.9379727840423583984375">
        <ele>406.399993896484375</ele>
        <time>2026-03-17T12:36:02.000Z</time>
        <extensions>
          <ns3:TrackPointExtension>
            <ns3:hr>173</ns3:hr>
            <ns3:cad>103</ns3:cad>
          </ns3:TrackPointExtension>
        </extensions>
      </trkpt>
      <trkpt lat="34.23391149379312992095947265625" lon="108.93796809017658233642578125">
        <ele>406.399993896484375</ele>
        <time>2026-03-17T12:36:03.000Z</time>
        <extensions>
          <ns3:TrackPointExtension>
            <ns3:hr>173</ns3:hr>
            <ns3:cad>103</ns3:cad>
          </ns3:TrackPointExtension>
        </extensions>
      </trkpt>
      <trkpt lat="34.2339469492435455322265625" lon="108.93797404132783412933349609375">
        <ele>406.399993896484375</ele>
        <time>2026-03-17T12:36:04.000Z</time>
        <extensions>
          <ns3:TrackPointExtension>
            <ns3:hr>174</ns3:hr>
            <ns3:cad>103</ns3:cad>
          </ns3:TrackPointExtension>
        </extensions>
      </trkpt>
      <trkpt lat="34.23397854901850223541259765625" lon="108.93797957338392734527587890625">
        <ele>406.399993896484375</ele>
        <time>2026-03-17T12:36:05.000Z</time>
        <extensions>
          <ns3:TrackPointExtension>
            <ns3:hr>174</ns3:hr>
            <ns3:cad>103</ns3:cad>
          </ns3:TrackPointExtension>
        </extensions>
      </trkpt>
      <trkpt lat="34.234017692506313323974609375" lon="108.93797655589878559112548828125">
        <ele>406.399993896484375</ele>
        <time>2026-03-17T12:36:06.000Z</time>
        <extensions>
          <ns3:TrackPointExtension>
            <ns3:hr>174</ns3:hr>
            <ns3:cad>103</ns3:cad>
          </ns3:TrackPointExtension>
        </extensions>
      </trkpt>
      <trkpt lat="34.23405398614704608917236328125" lon="108.9379719458520412445068359375">
        <ele>406.399993896484375</ele>
        <time>2026-03-17T12:36:07.000Z</time>
        <extensions>
          <ns3:TrackPointExtension>
            <ns3:hr>174</ns3:hr>
            <ns3:cad>103</ns3:cad>
          </ns3:TrackPointExtension>
        </extensions>
      </trkpt>
      <trkpt lat="34.2340922914445400238037109375" lon="108.93797471188008785247802734375">
        <ele>406.399993896484375</ele>
        <time>2026-03-17T12:36:08.000Z</time>
        <extensions>
          <ns3:TrackPointExtension>
            <ns3:hr>173</ns3:hr>
            <ns3:cad>103</ns3:cad>
          </ns3:TrackPointExtension>
        </extensions>
      </trkpt>
      <trkpt lat="34.2341239750385284423828125" lon="108.93797571770846843719482421875">
        <ele>406.399993896484375</ele>
        <time>2026-03-17T12:36:09.000Z</time>
        <extensions>
          <ns3:TrackPointExtension>
            <ns3:hr>174</ns3:hr>
            <ns3:cad>103</ns3:cad>
          </ns3:TrackPointExtension>
        </extensions>
      </trkpt>
      <trkpt lat="34.23416554927825927734375" lon="108.93797471188008785247802734375">
        <ele>406.399993896484375</ele>
        <time>2026-03-17T12:36:10.000Z</time>
        <extensions>
          <ns3:TrackPointExtension>
            <ns3:hr>174</ns3:hr>
            <ns3:cad>103</ns3:cad>
          </ns3:TrackPointExtension>
        </extensions>
      </trkpt>
      <trkpt lat="34.23420234583318233489990234375" lon="108.9379756338894367218017578125">
        <ele>406.20001220703125</ele>
        <time>2026-03-17T12:36:11.000Z</time>
        <extensions>
          <ns3:TrackPointExtension>
            <ns3:hr>173</ns3:hr>
            <ns3:cad>103</ns3:cad>
          </ns3:TrackPointExtension>
        </extensions>
      </trkpt>
      <trkpt lat="34.2342347837984561920166015625" lon="108.9379856921732425689697265625">
        <ele>406.399993896484375</ele>
        <time>2026-03-17T12:36:12.000Z</time>
        <extensions>
          <ns3:TrackPointExtension>
            <ns3:hr>173</ns3:hr>
            <ns3:cad>103</ns3:cad>
          </ns3:TrackPointExtension>
        </extensions>
      </trkpt>
      <trkpt lat="34.23426722176373004913330078125" lon="108.93798284232616424560546875">
        <ele>406.399993896484375</ele>
        <time>2026-03-17T12:36:13.000Z</time>
        <extensions>
          <ns3:TrackPointExtension>
            <ns3:hr>173</ns3:hr>
            <ns3:cad>103</ns3:cad>
          </ns3:TrackPointExtension>
        </extensions>
      </trkpt>
      <trkpt lat="34.2343036830425262451171875" lon="108.9379768073558807373046875">
        <ele>406.399993896484375</ele>
        <time>2026-03-17T12:36:14.000Z</time>
        <extensions>
          <ns3:TrackPointExtension>
            <ns3:hr>174</ns3:hr>
            <ns3:cad>103</ns3:cad>
          </ns3:TrackPointExtension>
        </extensions>
      </trkpt>
      <trkpt lat="34.23433628864586353302001953125" lon="108.9379793219268321990966796875">
        <ele>406.20001220703125</ele>
        <time>2026-03-17T12:36:15.000Z</time>
        <extensions>
          <ns3:TrackPointExtension>
            <ns3:hr>173</ns3:hr>
            <ns3:cad>104</ns3:cad>
          </ns3:TrackPointExtension>
        </extensions>
      </trkpt>
      <trkpt lat="34.2343712411820888519287109375" lon="108.93798024393618106842041015625">
        <ele>406.20001220703125</ele>
        <time>2026-03-17T12:36:16.000Z</time>
        <extensions>
          <ns3:TrackPointExtension>
            <ns3:hr>174</ns3:hr>
            <ns3:cad>104</ns3:cad>
          </ns3:TrackPointExtension>
        </extensions>
      </trkpt>
      <trkpt lat="34.2344074510037899017333984375" lon="108.9379706047475337982177734375">
        <ele>406.20001220703125</ele>
        <time>2026-03-17T12:36:17.000Z</time>
        <extensions>
          <ns3:TrackPointExtension>
            <ns3:hr>174</ns3:hr>
            <ns3:cad>104</ns3:cad>
          </ns3:TrackPointExtension>
        </extensions>
      </trkpt>
      <trkpt lat="34.234448857605457305908203125" lon="108.93795677460730075836181640625">
        <ele>406.20001220703125</ele>
        <time>2026-03-17T12:36:18.000Z</time>
        <extensions>
          <ns3:TrackPointExtension>
            <ns3:hr>174</ns3:hr>
            <ns3:cad>104</ns3:cad>
          </ns3:TrackPointExtension>
        </extensions>
      </trkpt>
      <trkpt lat="34.234487079083919525146484375" lon="108.937948979437351226806640625">
        <ele>406.20001220703125</ele>
        <time>2026-03-17T12:36:19.000Z</time>
        <extensions>
          <ns3:TrackPointExtension>
            <ns3:hr>174</ns3:hr>
            <ns3:cad>104</ns3:cad>
          </ns3:TrackPointExtension>
        </extensions>
      </trkpt>
      <trkpt lat="34.234519265592098236083984375" lon="108.9379446208477020263671875">
        <ele>406.399993896484375</ele>
        <time>2026-03-17T12:36:20.000Z</time>
        <extensions>
          <ns3:TrackPointExtension>
            <ns3:hr>174</ns3:hr>
            <ns3:cad>104</ns3:cad>
          </ns3:TrackPointExtension>
        </extensions>
      </trkpt>
      <trkpt lat="34.23455438576638698577880859375" lon="108.93791872076690196990966796875">
        <ele>406.399993896484375</ele>
        <time>2026-03-17T12:36:21.000Z</time>
        <extensions>
          <ns3:TrackPointExtension>
            <ns3:hr>174</ns3:hr>
            <ns3:cad>105</ns3:cad>
          </ns3:TrackPointExtension>
        </extensions>
      </trkpt>
      <trkpt lat="34.2345948703587055206298828125" lon="108.93788452260196208953857421875">
        <ele>406.399993896484375</ele>
        <time>2026-03-17T12:36:22.000Z</time>
        <extensions>
          <ns3:TrackPointExtension>
            <ns3:hr>174</ns3:hr>
            <ns3:cad>105</ns3:cad>
          </ns3:TrackPointExtension>
        </extensions>
      </trkpt>
      <trkpt lat="34.23463116399943828582763671875" lon="108.9378599636256694793701171875">
        <ele>406.20001220703125</ele>
        <time>2026-03-17T12:36:23.000Z</time>
        <extensions>
          <ns3:TrackPointExtension>
            <ns3:hr>175</ns3:hr>
            <ns3:cad>105</ns3:cad>
          </ns3:TrackPointExtension>
        </extensions>
      </trkpt>
      <trkpt lat="34.23466117121279239654541015625" lon="108.937832973897457122802734375">
        <ele>406.20001220703125</ele>
        <time>2026-03-17T12:36:24.000Z</time>
        <extensions>
          <ns3:TrackPointExtension>
            <ns3:hr>175</ns3:hr>
            <ns3:cad>105</ns3:cad>
          </ns3:TrackPointExtension>
        </extensions>
      </trkpt>
      <trkpt lat="34.23469419591128826141357421875" lon="108.937789388000965118408203125">
        <ele>406.20001220703125</ele>
        <time>2026-03-17T12:36:25.000Z</time>
        <extensions>
          <ns3:TrackPointExtension>
            <ns3:hr>175</ns3:hr>
            <ns3:cad>105</ns3:cad>
          </ns3:TrackPointExtension>
        </extensions>
      </trkpt>
      <trkpt lat="34.23471850343048572540283203125" lon="108.93774010241031646728515625">
        <ele>406.20001220703125</ele>
        <time>2026-03-17T12:36:26.000Z</time>
        <extensions>
          <ns3:TrackPointExtension>
            <ns3:hr>174</ns3:hr>
            <ns3:cad>105</ns3:cad>
          </ns3:TrackPointExtension>
        </extensions>
      </trkpt>
      <trkpt lat="34.2347395420074462890625" lon="108.937709592282772064208984375">
        <ele>406.20001220703125</ele>
        <time>2026-03-17T12:36:27.000Z</time>
        <extensions>
          <ns3:TrackPointExtension>
            <ns3:hr>175</ns3:hr>
            <ns3:cad>103</ns3:cad>
          </ns3:TrackPointExtension>
        </extensions>
      </trkpt>
      <trkpt lat="34.23475588671863079071044921875" lon="108.93767816014587879180908203125">
        <ele>406.20001220703125</ele>
        <time>2026-03-17T12:36:28.000Z</time>
        <extensions>
          <ns3:TrackPointExtension>
            <ns3:hr>175</ns3:hr>
            <ns3:cad>103</ns3:cad>
          </ns3:TrackPointExtension>
        </extensions>
      </trkpt>
      <trkpt lat="34.234765358269214630126953125" lon="108.93762476742267608642578125">
        <ele>406.399993896484375</ele>
        <time>2026-03-17T12:36:29.000Z</time>
        <extensions>
          <ns3:TrackPointExtension>
            <ns3:hr>175</ns3:hr>
            <ns3:cad>103</ns3:cad>
          </ns3:TrackPointExtension>
        </extensions>
      </trkpt>
      <trkpt lat="34.23477365635335445404052734375" lon="108.93757556565105915069580078125">
        <ele>406.399993896484375</ele>
        <time>2026-03-17T12:36:30.000Z</time>
        <extensions>
          <ns3:TrackPointExtension>
            <ns3:hr>174</ns3:hr>
            <ns3:cad>103</ns3:cad>
          </ns3:TrackPointExtension>
        </extensions>
      </trkpt>
      <trkpt lat="34.234783463180065155029296875" lon="108.93753985874354839324951171875">
        <ele>406.399993896484375</ele>
        <time>2026-03-17T12:36:31.000Z</time>
        <extensions>
          <ns3:TrackPointExtension>
            <ns3:hr>175</ns3:hr>
            <ns3:cad>96</ns3:cad>
          </ns3:TrackPointExtension>
        </extensions>
      </trkpt>
      <trkpt lat="34.2347819544374942779541015625" lon="108.93749945797026157379150390625">
        <ele>406.399993896484375</ele>
        <time>2026-03-17T12:36:32.000Z</time>
        <extensions>
          <ns3:TrackPointExtension>
            <ns3:hr>175</ns3:hr>
            <ns3:cad>96</ns3:cad>
          </ns3:TrackPointExtension>
        </extensions>
      </trkpt>
      <trkpt lat="34.23477516509592533111572265625" lon="108.9374469034373760223388671875">
        <ele>406.399993896484375</ele>
        <time>2026-03-17T12:36:33.000Z</time>
        <extensions>
          <ns3:TrackPointExtension>
            <ns3:hr>175</ns3:hr>
            <ns3:cad>96</ns3:cad>
          </ns3:TrackPointExtension>
        </extensions>
      </trkpt>
      <trkpt lat="34.2347702197730541229248046875" lon="108.93739904277026653289794921875">
        <ele>406.20001220703125</ele>
        <time>2026-03-17T12:36:34.000Z</time>
        <extensions>
          <ns3:TrackPointExtension>
            <ns3:hr>176</ns3:hr>
            <ns3:cad>105</ns3:cad>
          </ns3:TrackPointExtension>
        </extensions>
      </trkpt>
      <trkpt lat="34.2347650229930877685546875" lon="108.93735788762569427490234375">
        <ele>406.20001220703125</ele>
        <time>2026-03-17T12:36:35.000Z</time>
        <extensions>
          <ns3:TrackPointExtension>
            <ns3:hr>176</ns3:hr>
            <ns3:cad>105</ns3:cad>
          </ns3:TrackPointExtension>
        </extensions>
      </trkpt>
      <trkpt lat="34.23474901355803012847900390625" lon="108.9373141340911388397216796875">
        <ele>406.20001220703125</ele>
        <time>2026-03-17T12:36:36.000Z</time>
        <extensions>
          <ns3:TrackPointExtension>
            <ns3:hr>176</ns3:hr>
            <ns3:cad>104</ns3:cad>
          </ns3:TrackPointExtension>
        </extensions>
      </trkpt>
      <trkpt lat="34.234725795686244964599609375" lon="108.9372658543288707733154296875">
        <ele>406.20001220703125</ele>
        <time>2026-03-17T12:36:37.000Z</time>
        <extensions>
          <ns3:TrackPointExtension>
            <ns3:hr>176</ns3:hr>
            <ns3:cad>104</ns3:cad>
          </ns3:TrackPointExtension>
        </extensions>
      </trkpt>
      <trkpt lat="34.2347071878612041473388671875" lon="108.9372269622981548309326171875">
        <ele>406.20001220703125</ele>
        <time>2026-03-17T12:36:38.000Z</time>
        <extensions>
          <ns3:TrackPointExtension>
            <ns3:hr>176</ns3:hr>
            <ns3:cad>104</ns3:cad>
          </ns3:TrackPointExtension>
        </extensions>
      </trkpt>
      <trkpt lat="34.2346884123980998992919921875" lon="108.93719050101935863494873046875">
        <ele>406.20001220703125</ele>
        <time>2026-03-17T12:36:39.000Z</time>
        <extensions>
          <ns3:TrackPointExtension>
            <ns3:hr>175</ns3:hr>
            <ns3:cad>104</ns3:cad>
          </ns3:TrackPointExtension>
        </extensions>
      </trkpt>
      <trkpt lat="34.23465907573699951171875" lon="108.9371614158153533935546875">
        <ele>406.20001220703125</ele>
        <time>2026-03-17T12:36:40.000Z</time>
        <extensions>
          <ns3:TrackPointExtension>
            <ns3:hr>175</ns3:hr>
            <ns3:cad>105</ns3:cad>
          </ns3:TrackPointExtension>
        </extensions>
      </trkpt>
      <trkpt lat="34.23462563194334506988525390625" lon="108.9371357671916484832763671875">
        <ele>406.20001220703125</ele>
        <time>2026-03-17T12:36:41.000Z</time>
        <extensions>
          <ns3:TrackPointExtension>
            <ns3:hr>175</ns3:hr>
            <ns3:cad>105</ns3:cad>
          </ns3:TrackPointExtension>
        </extensions>
      </trkpt>
      <trkpt lat="34.23459880985319614410400390625" lon="108.93710416741669178009033203125">
        <ele>406.20001220703125</ele>
        <time>2026-03-17T12:36:42.000Z</time>
        <extensions>
          <ns3:TrackPointExtension>
            <ns3:hr>175</ns3:hr>
            <ns3:cad>105</ns3:cad>
          </ns3:TrackPointExtension>
        </extensions>
      </trkpt>
      <trkpt lat="34.2345717363059520721435546875" lon="108.9370837993919849395751953125">
        <ele>406.20001220703125</ele>
        <time>2026-03-17T12:36:43.000Z</time>
        <extensions>
          <ns3:TrackPointExtension>
            <ns3:hr>176</ns3:hr>
            <ns3:cad>105</ns3:cad>
          </ns3:TrackPointExtension>
        </extensions>
      </trkpt>
      <trkpt lat="34.234533347189426422119140625" lon="108.937065862119197845458984375">
        <ele>406.20001220703125</ele>
        <time>2026-03-17T12:36:44.000Z</time>
        <extensions>
          <ns3:TrackPointExtension>
            <ns3:hr>175</ns3:hr>
            <ns3:cad>105</ns3:cad>
          </ns3:TrackPointExtension>
        </extensions>
      </trkpt>
      <trkpt lat="34.2344966344535350799560546875" lon="108.937054462730884552001953125">
        <ele>406.20001220703125</ele>
        <time>2026-03-17T12:36:45.000Z</time>
        <extensions>
          <ns3:TrackPointExtension>
            <ns3:hr>175</ns3:hr>
            <ns3:cad>105</ns3:cad>
          </ns3:TrackPointExtension>
        </extensions>
      </trkpt>
      <trkpt lat="34.23446469940245151519775390625" lon="108.9370395429432392120361328125">
        <ele>406.20001220703125</ele>
        <time>2026-03-17T12:36:46.000Z</time>
        <extensions>
          <ns3:TrackPointExtension>
            <ns3:hr>176</ns3:hr>
            <ns3:cad>105</ns3:cad>
          </ns3:TrackPointExtension>
        </extensions>
      </trkpt>
      <trkpt lat="34.23443133942782878875732421875" lon="108.9370392076671123504638671875">
        <ele>406.20001220703125</ele>
        <time>2026-03-17T12:36:47.000Z</time>
        <extensions>
          <ns3:TrackPointExtension>
            <ns3:hr>176</ns3:hr>
            <ns3:cad>103</ns3:cad>
          </ns3:TrackPointExtension>
        </extensions>
      </trkpt>
      <trkpt lat="34.234389849007129669189453125" lon="108.9370425604283809661865234375">
        <ele>406.20001220703125</ele>
        <time>2026-03-17T12:36:48.000Z</time>
        <extensions>
          <ns3:TrackPointExtension>
            <ns3:hr>175</ns3:hr>
            <ns3:cad>103</ns3:cad>
          </ns3:TrackPointExtension>
        </extensions>
      </trkpt>
      <trkpt lat="34.23435104079544544219970703125" lon="108.9370462484657764434814453125">
        <ele>406.20001220703125</ele>
        <time>2026-03-17T12:36:49.000Z</time>
        <extensions>
          <ns3:TrackPointExtension>
            <ns3:hr>175</ns3:hr>
            <ns3:cad>103</ns3:cad>
          </ns3:TrackPointExtension>
        </extensions>
      </trkpt>
      <trkpt lat="34.23431583680212497711181640625" lon="108.937041051685810089111328125">
        <ele>406.20001220703125</ele>
        <time>2026-03-17T12:36:50.000Z</time>
        <extensions>
          <ns3:TrackPointExtension>
            <ns3:hr>175</ns3:hr>
            <ns3:cad>103</ns3:cad>
          </ns3:TrackPointExtension>
        </extensions>
      </trkpt>
      <trkpt lat="34.23427912406623363494873046875" lon="108.9370445720851421356201171875">
        <ele>406.20001220703125</ele>
        <time>2026-03-17T12:36:51.000Z</time>
        <extensions>
          <ns3:TrackPointExtension>
            <ns3:hr>176</ns3:hr>
            <ns3:cad>103</ns3:cad>
          </ns3:TrackPointExtension>
        </extensions>
      </trkpt>
      <trkpt lat="34.2342384718358516693115234375" lon="108.93705102615058422088623046875">
        <ele>406.20001220703125</ele>
        <time>2026-03-17T12:36:52.000Z</time>
        <extensions>
          <ns3:TrackPointExtension>
            <ns3:hr>175</ns3:hr>
            <ns3:cad>103</ns3:cad>
          </ns3:TrackPointExtension>
        </extensions>
      </trkpt>
      <trkpt lat="34.23420385457575321197509765625" lon="108.9370522834360599517822265625">
        <ele>406.20001220703125</ele>
        <time>2026-03-17T12:36:53.000Z</time>
        <extensions>
          <ns3:TrackPointExtension>
            <ns3:hr>176</ns3:hr>
            <ns3:cad>103</ns3:cad>
          </ns3:TrackPointExtension>
        </extensions>
      </trkpt>
      <trkpt lat="34.2341764457523822784423828125" lon="108.93704700283706188201904296875">
        <ele>406.20001220703125</ele>
        <time>2026-03-17T12:36:54.000Z</time>
        <extensions>
          <ns3:TrackPointExtension>
            <ns3:hr>176</ns3:hr>
            <ns3:cad>103</ns3:cad>
          </ns3:TrackPointExtension>
        </extensions>
      </trkpt>
      <trkpt lat="34.23414266668260097503662109375" lon="108.937052786350250244140625">
        <ele>406.20001220703125</ele>
        <time>2026-03-17T12:36:55.000Z</time>
        <extensions>
          <ns3:TrackPointExtension>
            <ns3:hr>176</ns3:hr>
            <ns3:cad>103</ns3:cad>
          </ns3:TrackPointExtension>
        </extensions>
      </trkpt>
      <trkpt lat="34.234102182090282440185546875" lon="108.9370583184063434600830078125">
        <ele>406.20001220703125</ele>
        <time>2026-03-17T12:36:56.000Z</time>
        <extensions>
          <ns3:TrackPointExtension>
            <ns3:hr>176</ns3:hr>
            <ns3:cad>103</ns3:cad>
          </ns3:TrackPointExtension>
        </extensions>
      </trkpt>
      <trkpt lat="34.234067313373088836669921875" lon="108.93705613911151885986328125">
        <ele>406.20001220703125</ele>
        <time>2026-03-17T12:36:57.000Z</time>
        <extensions>
          <ns3:TrackPointExtension>
            <ns3:hr>177</ns3:hr>
            <ns3:cad>104</ns3:cad>
          </ns3:TrackPointExtension>
        </extensions>
      </trkpt>
      <trkpt lat="34.234031774103641510009765625" lon="108.93706007860600948333740234375">
        <ele>406.20001220703125</ele>
        <time>2026-03-17T12:36:58.000Z</time>
        <extensions>
          <ns3:TrackPointExtension>
            <ns3:hr>177</ns3:hr>
            <ns3:cad>105</ns3:cad>
          </ns3:TrackPointExtension>
        </extensions>
      </trkpt>
      <trkpt lat="34.233994223177433013916015625" lon="108.93706561066210269927978515625">
        <ele>406.20001220703125</ele>
        <time>2026-03-17T12:36:59.000Z</time>
        <extensions>
          <ns3:TrackPointExtension>
            <ns3:hr>178</ns3:hr>
            <ns3:cad>104</ns3:cad>
          </ns3:TrackPointExtension>
        </extensions>
      </trkpt>
      <trkpt lat="34.23395826481282711029052734375" lon="108.937071226537227630615234375">
        <ele>406.20001220703125</ele>
        <time>2026-03-17T12:37:00.000Z</time>
        <extensions>
          <ns3:TrackPointExtension>
            <ns3:hr>178</ns3:hr>
            <ns3:cad>103</ns3:cad>
          </ns3:TrackPointExtension>
        </extensions>
      </trkpt>
      <trkpt lat="34.233924485743045806884765625" lon="108.93706343136727809906005859375">
        <ele>406.20001220703125</ele>
        <time>2026-03-17T12:37:01.000Z</time>
        <extensions>
          <ns3:TrackPointExtension>
            <ns3:hr>178</ns3:hr>
            <ns3:cad>103</ns3:cad>
          </ns3:TrackPointExtension>
        </extensions>
      </trkpt>
      <trkpt lat="34.2338887788355350494384765625" lon="108.93706728704273700714111328125">
        <ele>406.20001220703125</ele>
        <time>2026-03-17T12:37:02.000Z</time>
        <extensions>
          <ns3:TrackPointExtension>
            <ns3:hr>179</ns3:hr>
            <ns3:cad>103</ns3:cad>
          </ns3:TrackPointExtension>
        </extensions>
      </trkpt>
      <trkpt lat="34.23384678550064563751220703125" lon="108.93707030452787876129150390625">
        <ele>406.20001220703125</ele>
        <time>2026-03-17T12:37:03.000Z</time>
        <extensions>
          <ns3:TrackPointExtension>
            <ns3:hr>179</ns3:hr>
            <ns3:cad>103</ns3:cad>
          </ns3:TrackPointExtension>
        </extensions>
      </trkpt>
      <trkpt lat="34.23381141386926174163818359375" lon="108.9370702207088470458984375">
        <ele>406.20001220703125</ele>
        <time>2026-03-17T12:37:04.000Z</time>
        <extensions>
          <ns3:TrackPointExtension>
            <ns3:hr>179</ns3:hr>
            <ns3:cad>103</ns3:cad>
          </ns3:TrackPointExtension>
        </extensions>
      </trkpt>
      <trkpt lat="34.2337767966091632843017578125" lon="108.9370643533766269683837890625">
        <ele>406.20001220703125</ele>
        <time>2026-03-17T12:37:05.000Z</time>
        <extensions>
          <ns3:TrackPointExtension>
            <ns3:hr>178</ns3:hr>
            <ns3:cad>104</ns3:cad>
          </ns3:TrackPointExtension>
        </extensions>
      </trkpt>
      <trkpt lat="34.2337389104068279266357421875" lon="108.93706745468080043792724609375">
        <ele>406.20001220703125</ele>
        <time>2026-03-17T12:37:06.000Z</time>
        <extensions>
          <ns3:TrackPointExtension>
            <ns3:hr>179</ns3:hr>
            <ns3:cad>104</ns3:cad>
          </ns3:TrackPointExtension>
        </extensions>
      </trkpt>
      <trkpt lat="34.2336973361670970916748046875" lon="108.93707231618463993072509765625">
        <ele>406.20001220703125</ele>
        <time>2026-03-17T12:37:07.000Z</time>
        <extensions>
          <ns3:TrackPointExtension>
            <ns3:hr>179</ns3:hr>
            <ns3:cad>104</ns3:cad>
          </ns3:TrackPointExtension>
        </extensions>
      </trkpt>
      <trkpt lat="34.23366188071668148040771484375" lon="108.93707164563238620758056640625">
        <ele>406.20001220703125</ele>
        <time>2026-03-17T12:37:08.000Z</time>
        <extensions>
          <ns3:TrackPointExtension>
            <ns3:hr>178</ns3:hr>
            <ns3:cad>104</ns3:cad>
          </ns3:TrackPointExtension>
        </extensions>
      </trkpt>
      <trkpt lat="34.23362986184656620025634765625" lon="108.93706594593822956085205078125">
        <ele>406.20001220703125</ele>
        <time>2026-03-17T12:37:09.000Z</time>
        <extensions>
          <ns3:TrackPointExtension>
            <ns3:hr>179</ns3:hr>
            <ns3:cad>104</ns3:cad>
          </ns3:TrackPointExtension>
        </extensions>
      </trkpt>
      <trkpt lat="34.23359197564423084259033203125" lon="108.9370717294514179229736328125">
        <ele>406.20001220703125</ele>
        <time>2026-03-17T12:37:10.000Z</time>
        <extensions>
          <ns3:TrackPointExtension>
            <ns3:hr>179</ns3:hr>
            <ns3:cad>104</ns3:cad>
          </ns3:TrackPointExtension>
        </extensions>
      </trkpt>
      <trkpt lat="34.233552999794483184814453125" lon="108.9370817877352237701416015625">
        <ele>406.20001220703125</ele>
        <time>2026-03-17T12:37:11.000Z</time>
        <extensions>
          <ns3:TrackPointExtension>
            <ns3:hr>178</ns3:hr>
            <ns3:cad>104</ns3:cad>
          </ns3:TrackPointExtension>
        </extensions>
      </trkpt>
      <trkpt lat="34.23351821489632129669189453125" lon="108.93708790652453899383544921875">
        <ele>406.20001220703125</ele>
        <time>2026-03-17T12:37:12.000Z</time>
        <extensions>
          <ns3:TrackPointExtension>
            <ns3:hr>178</ns3:hr>
            <ns3:cad>104</ns3:cad>
          </ns3:TrackPointExtension>
        </extensions>
      </trkpt>
      <trkpt lat="34.23348653130233287811279296875" lon="108.93710215575993061065673828125">
        <ele>406.20001220703125</ele>
        <time>2026-03-17T12:37:13.000Z</time>
        <extensions>
          <ns3:TrackPointExtension>
            <ns3:hr>178</ns3:hr>
            <ns3:cad>104</ns3:cad>
          </ns3:TrackPointExtension>
        </extensions>
      </trkpt>
      <trkpt lat="34.23345317132771015167236328125" lon="108.93712562508881092071533203125">
        <ele>406.20001220703125</ele>
        <time>2026-03-17T12:37:14.000Z</time>
        <extensions>
          <ns3:TrackPointExtension>
            <ns3:hr>178</ns3:hr>
            <ns3:cad>104</ns3:cad>
          </ns3:TrackPointExtension>
        </extensions>
      </trkpt>
      <trkpt lat="34.23341947607696056365966796875" lon="108.937155045568943023681640625">
        <ele>406.20001220703125</ele>
        <time>2026-03-17T12:37:15.000Z</time>
        <extensions>
          <ns3:TrackPointExtension>
            <ns3:hr>177</ns3:hr>
            <ns3:cad>96</ns3:cad>
          </ns3:TrackPointExtension>
        </extensions>
      </trkpt>
      <trkpt lat="34.2333908937871456146240234375" lon="108.937175162136554718017578125">
        <ele>406.20001220703125</ele>
        <time>2026-03-17T12:37:16.000Z</time>
        <extensions>
          <ns3:TrackPointExtension>
            <ns3:hr>177</ns3:hr>
            <ns3:cad>96</ns3:cad>
          </ns3:TrackPointExtension>
        </extensions>
      </trkpt>
      <trkpt lat="34.23336398787796497344970703125" lon="108.9372008107602596282958984375">
        <ele>406.20001220703125</ele>
        <time>2026-03-17T12:37:17.000Z</time>
        <extensions>
          <ns3:TrackPointExtension>
            <ns3:hr>176</ns3:hr>
            <ns3:cad>105</ns3:cad>
          </ns3:TrackPointExtension>
        </extensions>
      </trkpt>
      <trkpt lat="34.23333716578781604766845703125" lon="108.9372420497238636016845703125">
        <ele>406.20001220703125</ele>
        <time>2026-03-17T12:37:18.000Z</time>
        <extensions>
          <ns3:TrackPointExtension>
            <ns3:hr>175</ns3:hr>
            <ns3:cad>105</ns3:cad>
          </ns3:TrackPointExtension>
        </extensions>
      </trkpt>
      <trkpt lat="34.23331436701118946075439453125" lon="108.9372826181352138519287109375">
        <ele>406.20001220703125</ele>
        <time>2026-03-17T12:37:19.000Z</time>
        <extensions>
          <ns3:TrackPointExtension>
            <ns3:hr>176</ns3:hr>
            <ns3:cad>105</ns3:cad>
          </ns3:TrackPointExtension>
        </extensions>
      </trkpt>
      <trkpt lat="34.23329760320484638214111328125" lon="108.93731187097728252410888671875">
        <ele>406.20001220703125</ele>
        <time>2026-03-17T12:37:20.000Z</time>
        <extensions>
          <ns3:TrackPointExtension>
            <ns3:hr>176</ns3:hr>
            <ns3:cad>105</ns3:cad>
          </ns3:TrackPointExtension>
        </extensions>
      </trkpt>
      <trkpt lat="34.2332844436168670654296875" lon="108.9373553730547428131103515625">
        <ele>406.20001220703125</ele>
        <time>2026-03-17T12:37:21.000Z</time>
        <extensions>
          <ns3:TrackPointExtension>
            <ns3:hr>176</ns3:hr>
            <ns3:cad>103</ns3:cad>
          </ns3:TrackPointExtension>
        </extensions>
      </trkpt>
      <trkpt lat="34.23327899537980556488037109375" lon="108.937411867082118988037109375">
        <ele>406.20001220703125</ele>
        <time>2026-03-17T12:37:22.000Z</time>
        <extensions>
          <ns3:TrackPointExtension>
            <ns3:hr>176</ns3:hr>
            <ns3:cad>103</ns3:cad>
          </ns3:TrackPointExtension>
        </extensions>
      </trkpt>
      <trkpt lat="34.23327027820050716400146484375" lon="108.93746542744338512420654296875">
        <ele>406</ele>
        <time>2026-03-17T12:37:23.000Z</time>
        <extensions>
          <ns3:TrackPointExtension>
            <ns3:hr>175</ns3:hr>
            <ns3:cad>103</ns3:cad>
          </ns3:TrackPointExtension>
        </extensions>
      </trkpt>
      <trkpt lat="34.23326709307730197906494140625" lon="108.93750675022602081298828125">
        <ele>406.20001220703125</ele>
        <time>2026-03-17T12:37:24.000Z</time>
        <extensions>
          <ns3:TrackPointExtension>
            <ns3:hr>176</ns3:hr>
            <ns3:cad>103</ns3:cad>
          </ns3:TrackPointExtension>
        </extensions>
      </trkpt>
      <trkpt lat="34.2332710325717926025390625" lon="108.93755662254989147186279296875">
        <ele>406.20001220703125</ele>
        <time>2026-03-17T12:37:25.000Z</time>
        <extensions>
          <ns3:TrackPointExtension>
            <ns3:hr>176</ns3:hr>
            <ns3:cad>103</ns3:cad>
          </ns3:TrackPointExtension>
        </extensions>
      </trkpt>
      <trkpt lat="34.23328083939850330352783203125" lon="108.93760867416858673095703125">
        <ele>406.20001220703125</ele>
        <time>2026-03-17T12:37:26.000Z</time>
        <extensions>
          <ns3:TrackPointExtension>
            <ns3:hr>176</ns3:hr>
            <ns3:cad>103</ns3:cad>
          </ns3:TrackPointExtension>
        </extensions>
      </trkpt>
      <trkpt lat="34.233289472758769989013671875" lon="108.9376554451882839202880859375">
        <ele>406.20001220703125</ele>
        <time>2026-03-17T12:37:27.000Z</time>
        <extensions>
          <ns3:TrackPointExtension>
            <ns3:hr>176</ns3:hr>
            <ns3:cad>103</ns3:cad>
          </ns3:TrackPointExtension>
        </extensions>
      </trkpt>
      <trkpt lat="34.2332966811954975128173828125" lon="108.93769693560898303985595703125">
        <ele>406.20001220703125</ele>
        <time>2026-03-17T12:37:28.000Z</time>
        <extensions>
          <ns3:TrackPointExtension>
            <ns3:hr>176</ns3:hr>
            <ns3:cad>96</ns3:cad>
          </ns3:TrackPointExtension>
        </extensions>
      </trkpt>
      <trkpt lat="34.23331595957279205322265625" lon="108.93773834221065044403076171875">
        <ele>406.20001220703125</ele>
        <time>2026-03-17T12:37:29.000Z</time>
        <extensions>
          <ns3:TrackPointExtension>
            <ns3:hr>176</ns3:hr>
            <ns3:cad>104</ns3:cad>
          </ns3:TrackPointExtension>
        </extensions>
      </trkpt>
      <trkpt lat="34.2333422787487506866455078125" lon="108.9377836883068084716796875">
        <ele>406.20001220703125</ele>
        <time>2026-03-17T12:37:30.000Z</time>
        <extensions>
          <ns3:TrackPointExtension>
            <ns3:hr>176</ns3:hr>
            <ns3:cad>105</ns3:cad>
          </ns3:TrackPointExtension>
        </extensions>
      </trkpt>
      <trkpt lat="34.23336264677345752716064453125" lon="108.93782752566039562225341796875">
        <ele>406.20001220703125</ele>
        <time>2026-03-17T12:37:31.000Z</time>
        <extensions>
          <ns3:TrackPointExtension>
            <ns3:hr>176</ns3:hr>
            <ns3:cad>105</ns3:cad>
          </ns3:TrackPointExtension>
        </extensions>
      </trkpt>
      <trkpt lat="34.233382008969783782958984375" lon="108.93785686232149600982666015625">
        <ele>406.20001220703125</ele>
        <time>2026-03-17T12:37:32.000Z</time>
        <extensions>
          <ns3:TrackPointExtension>
            <ns3:hr>177</ns3:hr>
            <ns3:cad>105</ns3:cad>
          </ns3:TrackPointExtension>
        </extensions>
      </trkpt>
      <trkpt lat="34.233415536582469940185546875" lon="108.93788938410580158233642578125">
        <ele>406.20001220703125</ele>
        <time>2026-03-17T12:37:33.000Z</time>
        <extensions>
          <ns3:TrackPointExtension>
            <ns3:hr>176</ns3:hr>
            <ns3:cad>105</ns3:cad>
          </ns3:TrackPointExtension>
        </extensions>
      </trkpt>
      <trkpt lat="34.23345300368964672088623046875" lon="108.93791872076690196990966796875">
        <ele>406.20001220703125</ele>
        <time>2026-03-17T12:37:34.000Z</time>
        <extensions>
          <ns3:TrackPointExtension>
            <ns3:hr>176</ns3:hr>
            <ns3:cad>105</ns3:cad>
          </ns3:TrackPointExtension>
        </extensions>
      </trkpt>
      <trkpt lat="34.2334842681884765625" lon="108.9379427768290042877197265625">
        <ele>406.20001220703125</ele>
        <time>2026-03-17T12:37:35.000Z</time>
        <extensions>
          <ns3:TrackPointExtension>
            <ns3:hr>177</ns3:hr>
            <ns3:cad>105</ns3:cad>
          </ns3:TrackPointExtension>
        </extensions>
      </trkpt>
      <trkpt lat="34.23351469449698925018310546875" lon="108.937950991094112396240234375">
        <ele>406.20001220703125</ele>
        <time>2026-03-17T12:37:36.000Z</time>
        <extensions>
          <ns3:TrackPointExtension>
            <ns3:hr>176</ns3:hr>
            <ns3:cad>105</ns3:cad>
          </ns3:TrackPointExtension>
        </extensions>
      </trkpt>
      <trkpt lat="34.23355811275541782379150390625" lon="108.93796046264469623565673828125">
        <ele>406.20001220703125</ele>
        <time>2026-03-17T12:37:37.000Z</time>
        <extensions>
          <ns3:TrackPointExtension>
            <ns3:hr>177</ns3:hr>
            <ns3:cad>105</ns3:cad>
          </ns3:TrackPointExtension>
        </extensions>
      </trkpt>
      <trkpt lat="34.233599603176116943359375" lon="108.9379682578146457672119140625">
        <ele>406.20001220703125</ele>
        <time>2026-03-17T12:37:38.000Z</time>
        <extensions>
          <ns3:TrackPointExtension>
            <ns3:hr>178</ns3:hr>
            <ns3:cad>105</ns3:cad>
          </ns3:TrackPointExtension>
        </extensions>
      </trkpt>
      <trkpt lat="34.23363958485424518585205078125" lon="108.93796985037624835968017578125">
        <ele>406.20001220703125</ele>
        <time>2026-03-17T12:37:39.000Z</time>
        <extensions>
          <ns3:TrackPointExtension>
            <ns3:hr>178</ns3:hr>
            <ns3:cad>105</ns3:cad>
          </ns3:TrackPointExtension>
        </extensions>
      </trkpt>
      <trkpt lat="34.23368417657911777496337890625" lon="108.93796700052917003631591796875">
        <ele>406.20001220703125</ele>
        <time>2026-03-17T12:37:40.000Z</time>
        <extensions>
          <ns3:TrackPointExtension>
            <ns3:hr>178</ns3:hr>
            <ns3:cad>105</ns3:cad>
          </ns3:TrackPointExtension>
        </extensions>
      </trkpt>
      <trkpt lat="34.23372357152402400970458984375" lon="108.9379555173218250274658203125">
        <ele>406.399993896484375</ele>
        <time>2026-03-17T12:37:41.000Z</time>
        <extensions>
          <ns3:TrackPointExtension>
            <ns3:hr>178</ns3:hr>
            <ns3:cad>105</ns3:cad>
          </ns3:TrackPointExtension>
        </extensions>
      </trkpt>
      <trkpt lat="34.2337650619447231292724609375" lon="108.93794755451381206512451171875">
        <ele>406.399993896484375</ele>
        <time>2026-03-17T12:37:42.000Z</time>
        <extensions>
          <ns3:TrackPointExtension>
            <ns3:hr>179</ns3:hr>
            <ns3:cad>105</ns3:cad>
          </ns3:TrackPointExtension>
        </extensions>
      </trkpt>
      <trkpt lat="34.23380219377577304840087890625" lon="108.9379478059709072113037109375">
        <ele>406.399993896484375</ele>
        <time>2026-03-17T12:37:43.000Z</time>
        <extensions>
          <ns3:TrackPointExtension>
            <ns3:hr>179</ns3:hr>
            <ns3:cad>105</ns3:cad>
          </ns3:TrackPointExtension>
        </extensions>
      </trkpt>
      <trkpt lat="34.23383790068328380584716796875" lon="108.93795040436089038848876953125">
        <ele>406.399993896484375</ele>
        <time>2026-03-17T12:37:44.000Z</time>
        <extensions>
          <ns3:TrackPointExtension>
            <ns3:hr>180</ns3:hr>
            <ns3:cad>106</ns3:cad>
          </ns3:TrackPointExtension>
        </extensions>
      </trkpt>
      <trkpt lat="34.23387612216174602508544921875" lon="108.9379464648663997650146484375">
        <ele>406.399993896484375</ele>
        <time>2026-03-17T12:37:45.000Z</time>
        <extensions>
          <ns3:TrackPointExtension>
            <ns3:hr>180</ns3:hr>
            <ns3:cad>106</ns3:cad>
          </ns3:TrackPointExtension>
        </extensions>
      </trkpt>
      <trkpt lat="34.23392188735306262969970703125" lon="108.93794596195220947265625">
        <ele>406.20001220703125</ele>
        <time>2026-03-17T12:37:46.000Z</time>
        <extensions>
          <ns3:TrackPointExtension>
            <ns3:hr>180</ns3:hr>
            <ns3:cad>106</ns3:cad>
          </ns3:TrackPointExtension>
        </extensions>
      </trkpt>
      <trkpt lat="34.23395809717476367950439453125" lon="108.93794755451381206512451171875">
        <ele>406</ele>
        <time>2026-03-17T12:37:47.000Z</time>
        <extensions>
          <ns3:TrackPointExtension>
            <ns3:hr>180</ns3:hr>
            <ns3:cad>106</ns3:cad>
          </ns3:TrackPointExtension>
        </extensions>
      </trkpt>
      <trkpt lat="34.23399346880614757537841796875" lon="108.93795560114085674285888671875">
        <ele>406.20001220703125</ele>
        <time>2026-03-17T12:37:48.000Z</time>
        <extensions>
          <ns3:TrackPointExtension>
            <ns3:hr>180</ns3:hr>
            <ns3:cad>106</ns3:cad>
          </ns3:TrackPointExtension>
        </extensions>
      </trkpt>
      <trkpt lat="34.2340282537043094635009765625" lon="108.93795727752149105072021484375">
        <ele>406</ele>
        <time>2026-03-17T12:37:49.000Z</time>
        <extensions>
          <ns3:TrackPointExtension>
            <ns3:hr>180</ns3:hr>
            <ns3:cad>106</ns3:cad>
          </ns3:TrackPointExtension>
        </extensions>
      </trkpt>
      <trkpt lat="34.23407359980046749114990234375" lon="108.937956355512142181396484375">
        <ele>406.20001220703125</ele>
        <time>2026-03-17T12:37:50.000Z</time>
        <extensions>
          <ns3:TrackPointExtension>
            <ns3:hr>179</ns3:hr>
            <ns3:cad>106</ns3:cad>
          </ns3:TrackPointExtension>
        </extensions>
      </trkpt>
      <trkpt lat="34.23411198891699314117431640625" lon="108.93795895390212535858154296875">
        <ele>406.20001220703125</ele>
        <time>2026-03-17T12:37:51.000Z</time>
        <extensions>
          <ns3:TrackPointExtension>
            <ns3:hr>180</ns3:hr>
            <ns3:cad>106</ns3:cad>
          </ns3:TrackPointExtension>
        </extensions>
      </trkpt>
      <trkpt lat="34.23415322788059711456298828125" lon="108.93796901218593120574951171875">
        <ele>406.20001220703125</ele>
        <time>2026-03-17T12:37:52.000Z</time>
        <extensions>
          <ns3:TrackPointExtension>
            <ns3:hr>180</ns3:hr>
            <ns3:cad>106</ns3:cad>
          </ns3:TrackPointExtension>
        </extensions>
      </trkpt>
      <trkpt lat="34.23418709076941013336181640625" lon="108.937965743243694305419921875">
        <ele>406.20001220703125</ele>
        <time>2026-03-17T12:37:53.000Z</time>
        <extensions>
          <ns3:TrackPointExtension>
            <ns3:hr>180</ns3:hr>
            <ns3:cad>106</ns3:cad>
          </ns3:TrackPointExtension>
        </extensions>
      </trkpt>
      <trkpt lat="34.2342321015894412994384765625" lon="108.93795861862599849700927734375">
        <ele>406.20001220703125</ele>
        <time>2026-03-17T12:37:54.000Z</time>
        <extensions>
          <ns3:TrackPointExtension>
            <ns3:hr>180</ns3:hr>
            <ns3:cad>106</ns3:cad>
          </ns3:TrackPointExtension>
        </extensions>
      </trkpt>
      <trkpt lat="34.23427258618175983428955078125" lon="108.9379538409411907196044921875">
        <ele>406.20001220703125</ele>
        <time>2026-03-17T12:37:55.000Z</time>
        <extensions>
          <ns3:TrackPointExtension>
            <ns3:hr>180</ns3:hr>
            <ns3:cad>106</ns3:cad>
          </ns3:TrackPointExtension>
        </extensions>
      </trkpt>
      <trkpt lat="34.23430996946990489959716796875" lon="108.93795845098793506622314453125">
        <ele>406.20001220703125</ele>
        <time>2026-03-17T12:37:56.000Z</time>
        <extensions>
          <ns3:TrackPointExtension>
            <ns3:hr>180</ns3:hr>
            <ns3:cad>106</ns3:cad>
          </ns3:TrackPointExtension>
        </extensions>
      </trkpt>
      <trkpt lat="34.23434081487357616424560546875" lon="108.93796264193952083587646484375">
        <ele>406.20001220703125</ele>
        <time>2026-03-17T12:37:57.000Z</time>
        <extensions>
          <ns3:TrackPointExtension>
            <ns3:hr>180</ns3:hr>
            <ns3:cad>105</ns3:cad>
          </ns3:TrackPointExtension>
        </extensions>
      </trkpt>
      <trkpt lat="34.234383814036846160888671875" lon="108.9379588700830936431884765625">
        <ele>406.20001220703125</ele>
        <time>2026-03-17T12:37:58.000Z</time>
        <extensions>
          <ns3:TrackPointExtension>
            <ns3:hr>180</ns3:hr>
            <ns3:cad>105</ns3:cad>
          </ns3:TrackPointExtension>
        </extensions>
      </trkpt>
      <trkpt lat="34.2344324290752410888671875" lon="108.93794872798025608062744140625">
        <ele>406.20001220703125</ele>
        <time>2026-03-17T12:37:59.000Z</time>
        <extensions>
          <ns3:TrackPointExtension>
            <ns3:hr>180</ns3:hr>
            <ns3:cad>105</ns3:cad>
          </ns3:TrackPointExtension>
        </extensions>
      </trkpt>
      <trkpt lat="34.23447676934301853179931640625" lon="108.9379364065825939178466796875">
        <ele>406.20001220703125</ele>
        <time>2026-03-17T12:38:00.000Z</time>
        <extensions>
          <ns3:TrackPointExtension>
            <ns3:hr>180</ns3:hr>
            <ns3:cad>105</ns3:cad>
          </ns3:TrackPointExtension>
        </extensions>
      </trkpt>
      <trkpt lat="34.234514571726322174072265625" lon="108.93793129362165927886962890625">
        <ele>406</ele>
        <time>2026-03-17T12:38:01.000Z</time>
        <extensions>
          <ns3:TrackPointExtension>
            <ns3:hr>180</ns3:hr>
            <ns3:cad>105</ns3:cad>
          </ns3:TrackPointExtension>
        </extensions>
      </trkpt>
      <trkpt lat="34.2345566488802433013916015625" lon="108.9379070699214935302734375">
        <ele>406</ele>
        <time>2026-03-17T12:38:02.000Z</time>
        <extensions>
          <ns3:TrackPointExtension>
            <ns3:hr>181</ns3:hr>
            <ns3:cad>105</ns3:cad>
          </ns3:TrackPointExtension>
        </extensions>
      </trkpt>
      <trkpt lat="34.23459243960678577423095703125" lon="108.937876559793949127197265625">
        <ele>406</ele>
        <time>2026-03-17T12:38:03.000Z</time>
        <extensions>
          <ns3:TrackPointExtension>
            <ns3:hr>180</ns3:hr>
            <ns3:cad>105</ns3:cad>
          </ns3:TrackPointExtension>
        </extensions>
      </trkpt>
      <trkpt lat="34.23462680540978908538818359375" lon="108.9378375001251697540283203125">
        <ele>406</ele>
        <time>2026-03-17T12:38:04.000Z</time>
        <extensions>
          <ns3:TrackPointExtension>
            <ns3:hr>180</ns3:hr>
            <ns3:cad>105</ns3:cad>
          </ns3:TrackPointExtension>
        </extensions>
      </trkpt>
      <trkpt lat="34.23466133885085582733154296875" lon="108.9378063194453716278076171875">
        <ele>406</ele>
        <time>2026-03-17T12:38:05.000Z</time>
        <extensions>
          <ns3:TrackPointExtension>
            <ns3:hr>180</ns3:hr>
            <ns3:cad>96</ns3:cad>
          </ns3:TrackPointExtension>
        </extensions>
      </trkpt>
      <trkpt lat="34.23468832857906818389892578125" lon="108.9377754740417003631591796875">
        <ele>406</ele>
        <time>2026-03-17T12:38:06.000Z</time>
        <extensions>
          <ns3:TrackPointExtension>
            <ns3:hr>181</ns3:hr>
            <ns3:cad>96</ns3:cad>
          </ns3:TrackPointExtension>
        </extensions>
      </trkpt>
      <trkpt lat="34.23471339046955108642578125" lon="108.937723003327846527099609375">
        <ele>406</ele>
        <time>2026-03-17T12:38:07.000Z</time>
        <extensions>
          <ns3:TrackPointExtension>
            <ns3:hr>180</ns3:hr>
            <ns3:cad>96</ns3:cad>
          </ns3:TrackPointExtension>
        </extensions>
      </trkpt>
      <trkpt lat="34.2347336746752262115478515625" lon="108.93766407854855060577392578125">
        <ele>406</ele>
        <time>2026-03-17T12:38:08.000Z</time>
        <extensions>
          <ns3:TrackPointExtension>
            <ns3:hr>180</ns3:hr>
            <ns3:cad>96</ns3:cad>
          </ns3:TrackPointExtension>
        </extensions>
      </trkpt>
      <trkpt lat="34.234749265015125274658203125" lon="108.9376219175755977630615234375">
        <ele>406</ele>
        <time>2026-03-17T12:38:09.000Z</time>
        <extensions>
          <ns3:TrackPointExtension>
            <ns3:hr>180</ns3:hr>
            <ns3:cad>96</ns3:cad>
          </ns3:TrackPointExtension>
        </extensions>
      </trkpt>
      <trkpt lat="34.23475538380444049835205078125" lon="108.93758059479296207427978515625">
        <ele>406</ele>
        <time>2026-03-17T12:38:10.000Z</time>
        <extensions>
          <ns3:TrackPointExtension>
            <ns3:hr>181</ns3:hr>
            <ns3:cad>96</ns3:cad>
          </ns3:TrackPointExtension>
        </extensions>
      </trkpt>
      <trkpt lat="34.23475806601345539093017578125" lon="108.9375226758420467376708984375">
        <ele>406</ele>
        <time>2026-03-17T12:38:11.000Z</time>
        <extensions>
          <ns3:TrackPointExtension>
            <ns3:hr>180</ns3:hr>
            <ns3:cad>105</ns3:cad>
          </ns3:TrackPointExtension>
        </extensions>
      </trkpt>
      <trkpt lat="34.2347591556608676910400390625" lon="108.93746274523437023162841796875">
        <ele>406</ele>
        <time>2026-03-17T12:38:12.000Z</time>
        <extensions>
          <ns3:TrackPointExtension>
            <ns3:hr>180</ns3:hr>
            <ns3:cad>105</ns3:cad>
          </ns3:TrackPointExtension>
        </extensions>
      </trkpt>
      <trkpt lat="34.23476711846888065338134765625" lon="108.9374224282801151275634765625">
        <ele>406</ele>
        <time>2026-03-17T12:38:13.000Z</time>
        <extensions>
          <ns3:TrackPointExtension>
            <ns3:hr>180</ns3:hr>
            <ns3:cad>105</ns3:cad>
          </ns3:TrackPointExtension>
        </extensions>
      </trkpt>
      <trkpt lat="34.2347470857203006744384765625" lon="108.93732913769781589508056640625">
        <ele>406</ele>
        <time>2026-03-17T12:38:14.000Z</time>
        <extensions>
          <ns3:TrackPointExtension>
            <ns3:hr>180</ns3:hr>
            <ns3:cad>105</ns3:cad>
          </ns3:TrackPointExtension>
        </extensions>
      </trkpt>
      <trkpt lat="34.23472235910594463348388671875" lon="108.93728404305875301361083984375">
        <ele>406</ele>
        <time>2026-03-17T12:38:15.000Z</time>
        <extensions>
          <ns3:TrackPointExtension>
            <ns3:hr>181</ns3:hr>
            <ns3:cad>105</ns3:cad>
          </ns3:TrackPointExtension>
        </extensions>
      </trkpt>
      <trkpt lat="34.23470400273799896240234375" lon="108.93723785877227783203125">
        <ele>406</ele>
        <time>2026-03-17T12:38:16.000Z</time>
        <extensions>
          <ns3:TrackPointExtension>
            <ns3:hr>180</ns3:hr>
            <ns3:cad>105</ns3:cad>
          </ns3:TrackPointExtension>
        </extensions>
      </trkpt>
      <trkpt lat="34.2346897535026073455810546875" lon="108.93719921819865703582763671875">
        <ele>406.20001220703125</ele>
        <time>2026-03-17T12:38:17.000Z</time>
        <extensions>
          <ns3:TrackPointExtension>
            <ns3:hr>180</ns3:hr>
            <ns3:cad>105</ns3:cad>
          </ns3:TrackPointExtension>
        </extensions>
      </trkpt>
      <trkpt lat="34.2346786893904209136962890625" lon="108.93715965561568737030029296875">
        <ele>406.20001220703125</ele>
        <time>2026-03-17T12:38:18.000Z</time>
        <extensions>
          <ns3:TrackPointExtension>
            <ns3:hr>180</ns3:hr>
            <ns3:cad>105</ns3:cad>
          </ns3:TrackPointExtension>
        </extensions>
      </trkpt>
      <trkpt lat="34.23466921783983707427978515625" lon="108.93711640499532222747802734375">
        <ele>406.20001220703125</ele>
        <time>2026-03-17T12:38:19.000Z</time>
        <extensions>
          <ns3:TrackPointExtension>
            <ns3:hr>180</ns3:hr>
            <ns3:cad>105</ns3:cad>
          </ns3:TrackPointExtension>
        </extensions>
      </trkpt>
      <trkpt lat="34.2346726544201374053955078125" lon="108.93707298673689365386962890625">
        <ele>406.20001220703125</ele>
        <time>2026-03-17T12:38:20.000Z</time>
        <extensions>
          <ns3:TrackPointExtension>
            <ns3:hr>180</ns3:hr>
            <ns3:cad>105</ns3:cad>
          </ns3:TrackPointExtension>
        </extensions>
      </trkpt>
      <trkpt lat="34.23468665219843387603759765625" lon="108.93704800866544246673583984375">
        <ele>406.20001220703125</ele>
        <time>2026-03-17T12:38:21.000Z</time>
        <extensions>
          <ns3:TrackPointExtension>
            <ns3:hr>180</ns3:hr>
            <ns3:cad>105</ns3:cad>
          </ns3:TrackPointExtension>
        </extensions>
      </trkpt>
    </trkseg>
  </trk>
</gpx>
