<gpx xmlns:ns3="http://www.garmin.com/xmlschemas/TrackPointExtension/v1" xmlns="http://www.topografix.com/GPX/1/1" xmlns:xsi="http://www.w3.org/2001/XMLSchema-instance" xmlns:ns2="http://www.garmin.com/xmlschemas/GpxExtensions/v3" creator="Garmin Connect" version="1.1" xsi:schemaLocation="http://www.topografix.com/GPX/1/1 http://www.topografix.com/GPX/11.xsd">
  <extensions>
<distance>863.71</distance>
<average_hr>157.0</average_hr>
<average_speed>4.249000072479248</average_speed>
<start_time>2026-03-17T12:59:30+00:00</start_time>
<end_time>2026-03-17T13:02:53.251000+00:00</end_time>
<moving_time>202.0</moving_time>
<elapsed_time>203.251</elapsed_time>
</extensions>
<metadata>
    <link href="connect.garmin.com">
      <text>Garmin Connect</text>
    </link>
    <time>2026-03-17T12:59:30.000Z</time>
  </metadata>
  <trk>
    <name>西安市 跑步</name>
    <type>running</type>
    <trkseg>
      <trkpt lat="34.2346609197556972503662109375" lon="108.937229812145233154296875">
        <ele>406.20001220703125</ele>
        <time>2026-03-17T12:59:30.000Z</time>
        <extensions>
          <ns3:TrackPointExtension>
            <ns3:hr>100</ns3:hr>
            <ns3:cad>0</ns3:cad>
          </ns3:TrackPointExtension>
        </extensions>
      </trkpt>
      <trkpt lat="34.2346465028822422027587890625" lon="108.9372165687382221221923828125">
        <ele>406</ele>
        <time>2026-03-17T12:59:31.000Z</time>
        <extensions>
          <ns3:TrackPointExtension>
            <ns3:hr>99</ns3:hr>
            <ns3:cad>58</ns3:cad>
          </ns3:TrackPointExtension>
        </extensions>
      </trkpt>
      <trkpt lat="34.234621189534664154052734375" lon="108.9371900819242000579833984375">
        <ele>406</ele>
        <time>2026-03-17T12:59:32.000Z</time>
        <extensions>
          <ns3:TrackPointExtension>
            <ns3:hr>99</ns3:hr>
            <ns3:cad>58</ns3:cad>
          </ns3:TrackPointExtension>
        </extensions>
      </trkpt>
      <trkpt lat="34.23459344543516635894775390625" lon="108.93716233782470226287841796875">
        <ele>405.79998779296875</ele>
        <time>2026-03-17T12:59:33.000Z</time>
        <extensions>
          <ns3:TrackPointExtension>
            <ns3:hr>99</ns3:hr>
            <ns3:cad>58</ns3:cad>
          </ns3:TrackPointExtension>
        </extensions>
      </trkpt>
      <trkpt lat="34.23456461168825626373291015625" lon="108.9371354319155216217041015625">
        <ele>405.79998779296875</ele>
        <time>2026-03-17T12:59:34.000Z</time>
        <extensions>
          <ns3:TrackPointExtension>
            <ns3:hr>100</ns3:hr>
            <ns3:cad>58</ns3:cad>
          </ns3:TrackPointExtension>
        </extensions>
      </trkpt>
      <trkpt lat="34.23452974297106266021728515625" lon="108.9371119625866413116455078125">
        <ele>405.79998779296875</ele>
        <time>2026-03-17T12:59:35.000Z</time>
        <extensions>
          <ns3:TrackPointExtension>
            <ns3:hr>101</ns3:hr>
            <ns3:cad>58</ns3:cad>
          </ns3:TrackPointExtension>
        </extensions>
      </trkpt>
      <trkpt lat="34.23448682762682437896728515625" lon="108.93709234893321990966796875">
        <ele>405.79998779296875</ele>
        <time>2026-03-17T12:59:36.000Z</time>
        <extensions>
          <ns3:TrackPointExtension>
            <ns3:hr>102</ns3:hr>
            <ns3:cad>104</ns3:cad>
          </ns3:TrackPointExtension>
        </extensions>
      </trkpt>
      <trkpt lat="34.2344404757022857666015625" lon="108.93707432784140110015869140625">
        <ele>406</ele>
        <time>2026-03-17T12:59:37.000Z</time>
        <extensions>
          <ns3:TrackPointExtension>
            <ns3:hr>103</ns3:hr>
            <ns3:cad>104</ns3:cad>
          </ns3:TrackPointExtension>
        </extensions>
      </trkpt>
      <trkpt lat="34.234399907290935516357421875" lon="108.93705890513956546783447265625">
        <ele>406</ele>
        <time>2026-03-17T12:59:38.000Z</time>
        <extensions>
          <ns3:TrackPointExtension>
            <ns3:hr>106</ns3:hr>
            <ns3:cad>104</ns3:cad>
          </ns3:TrackPointExtension>
        </extensions>
      </trkpt>
      <trkpt lat="34.23436227254569530487060546875" lon="108.93704985268414020538330078125">
        <ele>406</ele>
        <time>2026-03-17T12:59:39.000Z</time>
        <extensions>
          <ns3:TrackPointExtension>
            <ns3:hr>107</ns3:hr>
            <ns3:cad>104</ns3:cad>
          </ns3:TrackPointExtension>
        </extensions>
      </trkpt>
      <trkpt lat="34.234318435192108154296875" lon="108.93704147078096866607666015625">
        <ele>406</ele>
        <time>2026-03-17T12:59:40.000Z</time>
        <extensions>
          <ns3:TrackPointExtension>
            <ns3:hr>108</ns3:hr>
            <ns3:cad>107</ns3:cad>
          </ns3:TrackPointExtension>
        </extensions>
      </trkpt>
      <trkpt lat="34.23426252789795398712158203125" lon="108.937059827148914337158203125">
        <ele>406</ele>
        <time>2026-03-17T12:59:41.000Z</time>
        <extensions>
          <ns3:TrackPointExtension>
            <ns3:hr>110</ns3:hr>
            <ns3:cad>107</ns3:cad>
          </ns3:TrackPointExtension>
        </extensions>
      </trkpt>
      <trkpt lat="34.23421852290630340576171875" lon="108.93706393428146839141845703125">
        <ele>406.20001220703125</ele>
        <time>2026-03-17T12:59:42.000Z</time>
        <extensions>
          <ns3:TrackPointExtension>
            <ns3:hr>110</ns3:hr>
            <ns3:cad>107</ns3:cad>
          </ns3:TrackPointExtension>
        </extensions>
      </trkpt>
      <trkpt lat="34.234181307256221771240234375" lon="108.93705756403505802154541015625">
        <ele>406.20001220703125</ele>
        <time>2026-03-17T12:59:43.000Z</time>
        <extensions>
          <ns3:TrackPointExtension>
            <ns3:hr>110</ns3:hr>
            <ns3:cad>107</ns3:cad>
          </ns3:TrackPointExtension>
        </extensions>
      </trkpt>
      <trkpt lat="34.23414350487291812896728515625" lon="108.93705957569181919097900390625">
        <ele>406.20001220703125</ele>
        <time>2026-03-17T12:59:44.000Z</time>
        <extensions>
          <ns3:TrackPointExtension>
            <ns3:hr>109</ns3:hr>
            <ns3:cad>107</ns3:cad>
          </ns3:TrackPointExtension>
        </extensions>
      </trkpt>
      <trkpt lat="34.234103523194789886474609375" lon="108.937062509357929229736328125">
        <ele>406.20001220703125</ele>
        <time>2026-03-17T12:59:45.000Z</time>
        <extensions>
          <ns3:TrackPointExtension>
            <ns3:hr>109</ns3:hr>
            <ns3:cad>107</ns3:cad>
          </ns3:TrackPointExtension>
        </extensions>
      </trkpt>
      <trkpt lat="34.234063960611820220947265625" lon="108.93706913106143474578857421875">
        <ele>406.399993896484375</ele>
        <time>2026-03-17T12:59:46.000Z</time>
        <extensions>
          <ns3:TrackPointExtension>
            <ns3:hr>110</ns3:hr>
            <ns3:cad>107</ns3:cad>
          </ns3:TrackPointExtension>
        </extensions>
      </trkpt>
      <trkpt lat="34.2340262420475482940673828125" lon="108.93707114271819591522216796875">
        <ele>406.399993896484375</ele>
        <time>2026-03-17T12:59:47.000Z</time>
        <extensions>
          <ns3:TrackPointExtension>
            <ns3:hr>110</ns3:hr>
            <ns3:cad>107</ns3:cad>
          </ns3:TrackPointExtension>
        </extensions>
      </trkpt>
      <trkpt lat="34.23399849794805049896240234375" lon="108.9370675384998321533203125">
        <ele>406.399993896484375</ele>
        <time>2026-03-17T12:59:48.000Z</time>
        <extensions>
          <ns3:TrackPointExtension>
            <ns3:hr>110</ns3:hr>
            <ns3:cad>107</ns3:cad>
          </ns3:TrackPointExtension>
        </extensions>
      </trkpt>
      <trkpt lat="34.23396044410765171051025390625" lon="108.93707365728914737701416015625">
        <ele>406.399993896484375</ele>
        <time>2026-03-17T12:59:49.000Z</time>
        <extensions>
          <ns3:TrackPointExtension>
            <ns3:hr>110</ns3:hr>
            <ns3:cad>107</ns3:cad>
          </ns3:TrackPointExtension>
        </extensions>
      </trkpt>
      <trkpt lat="34.2339162714779376983642578125" lon="108.93707734532654285430908203125">
        <ele>406.399993896484375</ele>
        <time>2026-03-17T12:59:50.000Z</time>
        <extensions>
          <ns3:TrackPointExtension>
            <ns3:hr>110</ns3:hr>
            <ns3:cad>107</ns3:cad>
          </ns3:TrackPointExtension>
        </extensions>
      </trkpt>
      <trkpt lat="34.2338733561336994171142578125" lon="108.93707985989749431610107421875">
        <ele>406.399993896484375</ele>
        <time>2026-03-17T12:59:51.000Z</time>
        <extensions>
          <ns3:TrackPointExtension>
            <ns3:hr>111</ns3:hr>
            <ns3:cad>107</ns3:cad>
          </ns3:TrackPointExtension>
        </extensions>
      </trkpt>
      <trkpt lat="34.23384175635874271392822265625" lon="108.93707114271819591522216796875">
        <ele>406.399993896484375</ele>
        <time>2026-03-17T12:59:52.000Z</time>
        <extensions>
          <ns3:TrackPointExtension>
            <ns3:hr>111</ns3:hr>
            <ns3:cad>107</ns3:cad>
          </ns3:TrackPointExtension>
        </extensions>
      </trkpt>
      <trkpt lat="34.23380546271800994873046875" lon="108.93706611357629299163818359375">
        <ele>406.399993896484375</ele>
        <time>2026-03-17T12:59:53.000Z</time>
        <extensions>
          <ns3:TrackPointExtension>
            <ns3:hr>113</ns3:hr>
            <ns3:cad>107</ns3:cad>
          </ns3:TrackPointExtension>
        </extensions>
      </trkpt>
      <trkpt lat="34.23376816324889659881591796875" lon="108.93706494010984897613525390625">
        <ele>406.399993896484375</ele>
        <time>2026-03-17T12:59:54.000Z</time>
        <extensions>
          <ns3:TrackPointExtension>
            <ns3:hr>115</ns3:hr>
            <ns3:cad>107</ns3:cad>
          </ns3:TrackPointExtension>
        </extensions>
      </trkpt>
      <trkpt lat="34.23372793011367321014404296875" lon="108.93706561066210269927978515625">
        <ele>406.399993896484375</ele>
        <time>2026-03-17T12:59:55.000Z</time>
        <extensions>
          <ns3:TrackPointExtension>
            <ns3:hr>117</ns3:hr>
            <ns3:cad>107</ns3:cad>
          </ns3:TrackPointExtension>
        </extensions>
      </trkpt>
      <trkpt lat="34.23369683325290679931640625" lon="108.937058150768280029296875">
        <ele>406.399993896484375</ele>
        <time>2026-03-17T12:59:56.000Z</time>
        <extensions>
          <ns3:TrackPointExtension>
            <ns3:hr>119</ns3:hr>
            <ns3:cad>107</ns3:cad>
          </ns3:TrackPointExtension>
        </extensions>
      </trkpt>
      <trkpt lat="34.23366104252636432647705078125" lon="108.9370573125779628753662109375">
        <ele>406.399993896484375</ele>
        <time>2026-03-17T12:59:57.000Z</time>
        <extensions>
          <ns3:TrackPointExtension>
            <ns3:hr>120</ns3:hr>
            <ns3:cad>107</ns3:cad>
          </ns3:TrackPointExtension>
        </extensions>
      </trkpt>
      <trkpt lat="34.233620725572109222412109375" lon="108.9370576478540897369384765625">
        <ele>406.399993896484375</ele>
        <time>2026-03-17T12:59:58.000Z</time>
        <extensions>
          <ns3:TrackPointExtension>
            <ns3:hr>122</ns3:hr>
            <ns3:cad>107</ns3:cad>
          </ns3:TrackPointExtension>
        </extensions>
      </trkpt>
      <trkpt lat="34.23358309082686901092529296875" lon="108.93706041388213634490966796875">
        <ele>406.399993896484375</ele>
        <time>2026-03-17T12:59:59.000Z</time>
        <extensions>
          <ns3:TrackPointExtension>
            <ns3:hr>124</ns3:hr>
            <ns3:cad>107</ns3:cad>
          </ns3:TrackPointExtension>
        </extensions>
      </trkpt>
      <trkpt lat="34.23355274833738803863525390625" lon="108.9370546303689479827880859375">
        <ele>406.399993896484375</ele>
        <time>2026-03-17T13:00:00.000Z</time>
        <extensions>
          <ns3:TrackPointExtension>
            <ns3:hr>126</ns3:hr>
            <ns3:cad>107</ns3:cad>
          </ns3:TrackPointExtension>
        </extensions>
      </trkpt>
      <trkpt lat="34.23351938836276531219482421875" lon="108.9370670355856418609619140625">
        <ele>406.399993896484375</ele>
        <time>2026-03-17T13:00:01.000Z</time>
        <extensions>
          <ns3:TrackPointExtension>
            <ns3:hr>128</ns3:hr>
            <ns3:cad>107</ns3:cad>
          </ns3:TrackPointExtension>
        </extensions>
      </trkpt>
      <trkpt lat="34.2334861122071743011474609375" lon="108.93708304502069950103759765625">
        <ele>406.399993896484375</ele>
        <time>2026-03-17T13:00:02.000Z</time>
        <extensions>
          <ns3:TrackPointExtension>
            <ns3:hr>130</ns3:hr>
            <ns3:cad>107</ns3:cad>
          </ns3:TrackPointExtension>
        </extensions>
      </trkpt>
      <trkpt lat="34.23345451243221759796142578125" lon="108.937104083597660064697265625">
        <ele>406.399993896484375</ele>
        <time>2026-03-17T13:00:03.000Z</time>
        <extensions>
          <ns3:TrackPointExtension>
            <ns3:hr>131</ns3:hr>
            <ns3:cad>107</ns3:cad>
          </ns3:TrackPointExtension>
        </extensions>
      </trkpt>
      <trkpt lat="34.23342349939048290252685546875" lon="108.9371223561465740203857421875">
        <ele>406.399993896484375</ele>
        <time>2026-03-17T13:00:04.000Z</time>
        <extensions>
          <ns3:TrackPointExtension>
            <ns3:hr>133</ns3:hr>
            <ns3:cad>107</ns3:cad>
          </ns3:TrackPointExtension>
        </extensions>
      </trkpt>
      <trkpt lat="34.2333989404141902923583984375" lon="108.93715764395892620086669921875">
        <ele>406.399993896484375</ele>
        <time>2026-03-17T13:00:05.000Z</time>
        <extensions>
          <ns3:TrackPointExtension>
            <ns3:hr>135</ns3:hr>
            <ns3:cad>107</ns3:cad>
          </ns3:TrackPointExtension>
        </extensions>
      </trkpt>
      <trkpt lat="34.23337094485759735107421875" lon="108.93719905056059360504150390625">
        <ele>406.399993896484375</ele>
        <time>2026-03-17T13:00:06.000Z</time>
        <extensions>
          <ns3:TrackPointExtension>
            <ns3:hr>136</ns3:hr>
            <ns3:cad>107</ns3:cad>
          </ns3:TrackPointExtension>
        </extensions>
      </trkpt>
      <trkpt lat="34.233345799148082733154296875" lon="108.9372373558580875396728515625">
        <ele>406.399993896484375</ele>
        <time>2026-03-17T13:00:07.000Z</time>
        <extensions>
          <ns3:TrackPointExtension>
            <ns3:hr>138</ns3:hr>
            <ns3:cad>107</ns3:cad>
          </ns3:TrackPointExtension>
        </extensions>
      </trkpt>
      <trkpt lat="34.23332266509532928466796875" lon="108.937269039452075958251953125">
        <ele>406.399993896484375</ele>
        <time>2026-03-17T13:00:08.000Z</time>
        <extensions>
          <ns3:TrackPointExtension>
            <ns3:hr>140</ns3:hr>
            <ns3:cad>107</ns3:cad>
          </ns3:TrackPointExtension>
        </extensions>
      </trkpt>
      <trkpt lat="34.2333064042031764984130859375" lon="108.9373168163001537322998046875">
        <ele>406.399993896484375</ele>
        <time>2026-03-17T13:00:09.000Z</time>
        <extensions>
          <ns3:TrackPointExtension>
            <ns3:hr>141</ns3:hr>
            <ns3:cad>107</ns3:cad>
          </ns3:TrackPointExtension>
        </extensions>
      </trkpt>
      <trkpt lat="34.23329458571970462799072265625" lon="108.93736836500465869903564453125">
        <ele>406.399993896484375</ele>
        <time>2026-03-17T13:00:10.000Z</time>
        <extensions>
          <ns3:TrackPointExtension>
            <ns3:hr>143</ns3:hr>
            <ns3:cad>107</ns3:cad>
          </ns3:TrackPointExtension>
        </extensions>
      </trkpt>
      <trkpt lat="34.23328301869332790374755859375" lon="108.93742402084171772003173828125">
        <ele>406.399993896484375</ele>
        <time>2026-03-17T13:00:11.000Z</time>
        <extensions>
          <ns3:TrackPointExtension>
            <ns3:hr>144</ns3:hr>
            <ns3:cad>107</ns3:cad>
          </ns3:TrackPointExtension>
        </extensions>
      </trkpt>
      <trkpt lat="34.233272708952426910400390625" lon="108.93746509216725826263427734375">
        <ele>406.399993896484375</ele>
        <time>2026-03-17T13:00:12.000Z</time>
        <extensions>
          <ns3:TrackPointExtension>
            <ns3:hr>146</ns3:hr>
            <ns3:cad>107</ns3:cad>
          </ns3:TrackPointExtension>
        </extensions>
      </trkpt>
      <trkpt lat="34.2332655005156993865966796875" lon="108.9375127851963043212890625">
        <ele>406.399993896484375</ele>
        <time>2026-03-17T13:00:13.000Z</time>
        <extensions>
          <ns3:TrackPointExtension>
            <ns3:hr>147</ns3:hr>
            <ns3:cad>107</ns3:cad>
          </ns3:TrackPointExtension>
        </extensions>
      </trkpt>
      <trkpt lat="34.233272373676300048828125" lon="108.937560729682445526123046875">
        <ele>406.399993896484375</ele>
        <time>2026-03-17T13:00:14.000Z</time>
        <extensions>
          <ns3:TrackPointExtension>
            <ns3:hr>149</ns3:hr>
            <ns3:cad>107</ns3:cad>
          </ns3:TrackPointExtension>
        </extensions>
      </trkpt>
      <trkpt lat="34.2332817614078521728515625" lon="108.93761445768177509307861328125">
        <ele>406.399993896484375</ele>
        <time>2026-03-17T13:00:15.000Z</time>
        <extensions>
          <ns3:TrackPointExtension>
            <ns3:hr>150</ns3:hr>
            <ns3:cad>106</ns3:cad>
          </ns3:TrackPointExtension>
        </extensions>
      </trkpt>
      <trkpt lat="34.23328553326427936553955078125" lon="108.9376557804644107818603515625">
        <ele>406.20001220703125</ele>
        <time>2026-03-17T13:00:16.000Z</time>
        <extensions>
          <ns3:TrackPointExtension>
            <ns3:hr>151</ns3:hr>
            <ns3:cad>106</ns3:cad>
          </ns3:TrackPointExtension>
        </extensions>
      </trkpt>
      <trkpt lat="34.23329073004424571990966796875" lon="108.9376990310847759246826171875">
        <ele>406.399993896484375</ele>
        <time>2026-03-17T13:00:17.000Z</time>
        <extensions>
          <ns3:TrackPointExtension>
            <ns3:hr>152</ns3:hr>
            <ns3:cad>106</ns3:cad>
          </ns3:TrackPointExtension>
        </extensions>
      </trkpt>
      <trkpt lat="34.2333114333450794219970703125" lon="108.9377466402947902679443359375">
        <ele>406.399993896484375</ele>
        <time>2026-03-17T13:00:18.000Z</time>
        <extensions>
          <ns3:TrackPointExtension>
            <ns3:hr>153</ns3:hr>
            <ns3:cad>106</ns3:cad>
          </ns3:TrackPointExtension>
        </extensions>
      </trkpt>
      <trkpt lat="34.23332937061786651611328125" lon="108.93778695724904537200927734375">
        <ele>406.399993896484375</ele>
        <time>2026-03-17T13:00:19.000Z</time>
        <extensions>
          <ns3:TrackPointExtension>
            <ns3:hr>154</ns3:hr>
            <ns3:cad>106</ns3:cad>
          </ns3:TrackPointExtension>
        </extensions>
      </trkpt>
      <trkpt lat="34.23334755934774875640869140625" lon="108.9378247596323490142822265625">
        <ele>406.399993896484375</ele>
        <time>2026-03-17T13:00:20.000Z</time>
        <extensions>
          <ns3:TrackPointExtension>
            <ns3:hr>155</ns3:hr>
            <ns3:cad>104</ns3:cad>
          </ns3:TrackPointExtension>
        </extensions>
      </trkpt>
      <trkpt lat="34.2333711124956607818603515625" lon="108.9378626458346843719482421875">
        <ele>406.399993896484375</ele>
        <time>2026-03-17T13:00:21.000Z</time>
        <extensions>
          <ns3:TrackPointExtension>
            <ns3:hr>156</ns3:hr>
            <ns3:cad>104</ns3:cad>
          </ns3:TrackPointExtension>
        </extensions>
      </trkpt>
      <trkpt lat="34.233406484127044677734375" lon="108.93789567053318023681640625">
        <ele>406.399993896484375</ele>
        <time>2026-03-17T13:00:22.000Z</time>
        <extensions>
          <ns3:TrackPointExtension>
            <ns3:hr>156</ns3:hr>
            <ns3:cad>104</ns3:cad>
          </ns3:TrackPointExtension>
        </extensions>
      </trkpt>
      <trkpt lat="34.2334401793777942657470703125" lon="108.93792123533785343170166015625">
        <ele>406.399993896484375</ele>
        <time>2026-03-17T13:00:23.000Z</time>
        <extensions>
          <ns3:TrackPointExtension>
            <ns3:hr>157</ns3:hr>
            <ns3:cad>105</ns3:cad>
          </ns3:TrackPointExtension>
        </extensions>
      </trkpt>
      <trkpt lat="34.2334676720201969146728515625" lon="108.93793799914419651031494140625">
        <ele>406.399993896484375</ele>
        <time>2026-03-17T13:00:24.000Z</time>
        <extensions>
          <ns3:TrackPointExtension>
            <ns3:hr>158</ns3:hr>
            <ns3:cad>105</ns3:cad>
          </ns3:TrackPointExtension>
        </extensions>
      </trkpt>
      <trkpt lat="34.23350111581385135650634765625" lon="108.93795040436089038848876953125">
        <ele>406.399993896484375</ele>
        <time>2026-03-17T13:00:25.000Z</time>
        <extensions>
          <ns3:TrackPointExtension>
            <ns3:hr>159</ns3:hr>
            <ns3:cad>105</ns3:cad>
          </ns3:TrackPointExtension>
        </extensions>
      </trkpt>
      <trkpt lat="34.2335424385964870452880859375" lon="108.9379578642547130584716796875">
        <ele>406.399993896484375</ele>
        <time>2026-03-17T13:00:26.000Z</time>
        <extensions>
          <ns3:TrackPointExtension>
            <ns3:hr>159</ns3:hr>
            <ns3:cad>105</ns3:cad>
          </ns3:TrackPointExtension>
        </extensions>
      </trkpt>
      <trkpt lat="34.2335806600749492645263671875" lon="108.93796700052917003631591796875">
        <ele>406.399993896484375</ele>
        <time>2026-03-17T13:00:27.000Z</time>
        <extensions>
          <ns3:TrackPointExtension>
            <ns3:hr>160</ns3:hr>
            <ns3:cad>105</ns3:cad>
          </ns3:TrackPointExtension>
        </extensions>
      </trkpt>
      <trkpt lat="34.23361309804022312164306640625" lon="108.93797471188008785247802734375">
        <ele>406.20001220703125</ele>
        <time>2026-03-17T13:00:28.000Z</time>
        <extensions>
          <ns3:TrackPointExtension>
            <ns3:hr>160</ns3:hr>
            <ns3:cad>104</ns3:cad>
          </ns3:TrackPointExtension>
        </extensions>
      </trkpt>
      <trkpt lat="34.23364830203354358673095703125" lon="108.937973789870738983154296875">
        <ele>406.20001220703125</ele>
        <time>2026-03-17T13:00:29.000Z</time>
        <extensions>
          <ns3:TrackPointExtension>
            <ns3:hr>161</ns3:hr>
            <ns3:cad>104</ns3:cad>
          </ns3:TrackPointExtension>
        </extensions>
      </trkpt>
      <trkpt lat="34.2336923070251941680908203125" lon="108.937965072691440582275390625">
        <ele>406.20001220703125</ele>
        <time>2026-03-17T13:00:30.000Z</time>
        <extensions>
          <ns3:TrackPointExtension>
            <ns3:hr>161</ns3:hr>
            <ns3:cad>104</ns3:cad>
          </ns3:TrackPointExtension>
        </extensions>
      </trkpt>
      <trkpt lat="34.233729355037212371826171875" lon="108.93796465359628200531005859375">
        <ele>406.20001220703125</ele>
        <time>2026-03-17T13:00:31.000Z</time>
        <extensions>
          <ns3:TrackPointExtension>
            <ns3:hr>162</ns3:hr>
            <ns3:cad>105</ns3:cad>
          </ns3:TrackPointExtension>
        </extensions>
      </trkpt>
      <trkpt lat="34.23376028425991535186767578125" lon="108.93797119148075580596923828125">
        <ele>406.20001220703125</ele>
        <time>2026-03-17T13:00:32.000Z</time>
        <extensions>
          <ns3:TrackPointExtension>
            <ns3:hr>163</ns3:hr>
            <ns3:cad>105</ns3:cad>
          </ns3:TrackPointExtension>
        </extensions>
      </trkpt>
      <trkpt lat="34.2337967455387115478515625" lon="108.93796565942466259002685546875">
        <ele>406.20001220703125</ele>
        <time>2026-03-17T13:00:33.000Z</time>
        <extensions>
          <ns3:TrackPointExtension>
            <ns3:hr>163</ns3:hr>
            <ns3:cad>105</ns3:cad>
          </ns3:TrackPointExtension>
        </extensions>
      </trkpt>
      <trkpt lat="34.233839325606822967529296875" lon="108.93795669078826904296875">
        <ele>406.399993896484375</ele>
        <time>2026-03-17T13:00:34.000Z</time>
        <extensions>
          <ns3:TrackPointExtension>
            <ns3:hr>164</ns3:hr>
            <ns3:cad>105</ns3:cad>
          </ns3:TrackPointExtension>
        </extensions>
      </trkpt>
      <trkpt lat="34.23387545160949230194091796875" lon="108.93796197138726711273193359375">
        <ele>406.399993896484375</ele>
        <time>2026-03-17T13:00:35.000Z</time>
        <extensions>
          <ns3:TrackPointExtension>
            <ns3:hr>165</ns3:hr>
            <ns3:cad>104</ns3:cad>
          </ns3:TrackPointExtension>
        </extensions>
      </trkpt>
      <trkpt lat="34.2339038662612438201904296875" lon="108.93796264193952083587646484375">
        <ele>406.399993896484375</ele>
        <time>2026-03-17T13:00:36.000Z</time>
        <extensions>
          <ns3:TrackPointExtension>
            <ns3:hr>165</ns3:hr>
            <ns3:cad>103</ns3:cad>
          </ns3:TrackPointExtension>
        </extensions>
      </trkpt>
      <trkpt lat="34.2339427582919597625732421875" lon="108.93795576877892017364501953125">
        <ele>406.399993896484375</ele>
        <time>2026-03-17T13:00:37.000Z</time>
        <extensions>
          <ns3:TrackPointExtension>
            <ns3:hr>166</ns3:hr>
            <ns3:cad>103</ns3:cad>
          </ns3:TrackPointExtension>
        </extensions>
      </trkpt>
      <trkpt lat="34.23397955484688282012939453125" lon="108.93795241601765155792236328125">
        <ele>406.600006103515625</ele>
        <time>2026-03-17T13:00:38.000Z</time>
        <extensions>
          <ns3:TrackPointExtension>
            <ns3:hr>166</ns3:hr>
            <ns3:cad>105</ns3:cad>
          </ns3:TrackPointExtension>
        </extensions>
      </trkpt>
      <trkpt lat="34.23401425592601299285888671875" lon="108.93795962445437908172607421875">
        <ele>406.399993896484375</ele>
        <time>2026-03-17T13:00:39.000Z</time>
        <extensions>
          <ns3:TrackPointExtension>
            <ns3:hr>166</ns3:hr>
            <ns3:cad>105</ns3:cad>
          </ns3:TrackPointExtension>
        </extensions>
      </trkpt>
      <trkpt lat="34.23404543660581111907958984375" lon="108.937962390482425689697265625">
        <ele>406.399993896484375</ele>
        <time>2026-03-17T13:00:40.000Z</time>
        <extensions>
          <ns3:TrackPointExtension>
            <ns3:hr>166</ns3:hr>
            <ns3:cad>105</ns3:cad>
          </ns3:TrackPointExtension>
        </extensions>
      </trkpt>
      <trkpt lat="34.23408935777842998504638671875" lon="108.9379535056650638580322265625">
        <ele>406.399993896484375</ele>
        <time>2026-03-17T13:00:41.000Z</time>
        <extensions>
          <ns3:TrackPointExtension>
            <ns3:hr>167</ns3:hr>
            <ns3:cad>105</ns3:cad>
          </ns3:TrackPointExtension>
        </extensions>
      </trkpt>
      <trkpt lat="34.2341305129230022430419921875" lon="108.9379471354186534881591796875">
        <ele>406.600006103515625</ele>
        <time>2026-03-17T13:00:42.000Z</time>
        <extensions>
          <ns3:TrackPointExtension>
            <ns3:hr>167</ns3:hr>
            <ns3:cad>105</ns3:cad>
          </ns3:TrackPointExtension>
        </extensions>
      </trkpt>
      <trkpt lat="34.23416756093502044677734375" lon="108.9379521645605564117431640625">
        <ele>406.399993896484375</ele>
        <time>2026-03-17T13:00:43.000Z</time>
        <extensions>
          <ns3:TrackPointExtension>
            <ns3:hr>167</ns3:hr>
            <ns3:cad>105</ns3:cad>
          </ns3:TrackPointExtension>
        </extensions>
      </trkpt>
      <trkpt lat="34.23419614322483539581298828125" lon="108.9379513263702392578125">
        <ele>406.600006103515625</ele>
        <time>2026-03-17T13:00:44.000Z</time>
        <extensions>
          <ns3:TrackPointExtension>
            <ns3:hr>167</ns3:hr>
            <ns3:cad>105</ns3:cad>
          </ns3:TrackPointExtension>
        </extensions>
      </trkpt>
      <trkpt lat="34.234238304197788238525390625" lon="108.93794738687574863433837890625">
        <ele>406.399993896484375</ele>
        <time>2026-03-17T13:00:45.000Z</time>
        <extensions>
          <ns3:TrackPointExtension>
            <ns3:hr>167</ns3:hr>
            <ns3:cad>104</ns3:cad>
          </ns3:TrackPointExtension>
        </extensions>
      </trkpt>
      <trkpt lat="34.23427593894302845001220703125" lon="108.93794571049511432647705078125">
        <ele>406.600006103515625</ele>
        <time>2026-03-17T13:00:46.000Z</time>
        <extensions>
          <ns3:TrackPointExtension>
            <ns3:hr>167</ns3:hr>
            <ns3:cad>104</ns3:cad>
          </ns3:TrackPointExtension>
        </extensions>
      </trkpt>
      <trkpt lat="34.23430971801280975341796875" lon="108.93795057199895381927490234375">
        <ele>406.399993896484375</ele>
        <time>2026-03-17T13:00:47.000Z</time>
        <extensions>
          <ns3:TrackPointExtension>
            <ns3:hr>168</ns3:hr>
            <ns3:cad>105</ns3:cad>
          </ns3:TrackPointExtension>
        </extensions>
      </trkpt>
      <trkpt lat="34.23433830030262470245361328125" lon="108.93795191310346126556396484375">
        <ele>406.399993896484375</ele>
        <time>2026-03-17T13:00:48.000Z</time>
        <extensions>
          <ns3:TrackPointExtension>
            <ns3:hr>168</ns3:hr>
            <ns3:cad>106</ns3:cad>
          </ns3:TrackPointExtension>
        </extensions>
      </trkpt>
      <trkpt lat="34.23438088037073612213134765625" lon="108.9379446208477020263671875">
        <ele>406.399993896484375</ele>
        <time>2026-03-17T13:00:49.000Z</time>
        <extensions>
          <ns3:TrackPointExtension>
            <ns3:hr>168</ns3:hr>
            <ns3:cad>106</ns3:cad>
          </ns3:TrackPointExtension>
        </extensions>
      </trkpt>
      <trkpt lat="34.2344134859740734100341796875" lon="108.93793783150613307952880859375">
        <ele>406.399993896484375</ele>
        <time>2026-03-17T13:00:50.000Z</time>
        <extensions>
          <ns3:TrackPointExtension>
            <ns3:hr>169</ns3:hr>
            <ns3:cad>103</ns3:cad>
          </ns3:TrackPointExtension>
        </extensions>
      </trkpt>
      <trkpt lat="34.234447516500949859619140625" lon="108.93794051371514797210693359375">
        <ele>406.399993896484375</ele>
        <time>2026-03-17T13:00:51.000Z</time>
        <extensions>
          <ns3:TrackPointExtension>
            <ns3:hr>169</ns3:hr>
            <ns3:cad>103</ns3:cad>
          </ns3:TrackPointExtension>
        </extensions>
      </trkpt>
      <trkpt lat="34.234479367733001708984375" lon="108.93793129362165927886962890625">
        <ele>406.399993896484375</ele>
        <time>2026-03-17T13:00:52.000Z</time>
        <extensions>
          <ns3:TrackPointExtension>
            <ns3:hr>169</ns3:hr>
            <ns3:cad>103</ns3:cad>
          </ns3:TrackPointExtension>
        </extensions>
      </trkpt>
      <trkpt lat="34.2345167510211467742919921875" lon="108.93791486509144306182861328125">
        <ele>406.399993896484375</ele>
        <time>2026-03-17T13:00:53.000Z</time>
        <extensions>
          <ns3:TrackPointExtension>
            <ns3:hr>169</ns3:hr>
            <ns3:cad>104</ns3:cad>
          </ns3:TrackPointExtension>
        </extensions>
      </trkpt>
      <trkpt lat="34.23455103300511837005615234375" lon="108.9378921501338481903076171875">
        <ele>406.399993896484375</ele>
        <time>2026-03-17T13:00:54.000Z</time>
        <extensions>
          <ns3:TrackPointExtension>
            <ns3:hr>168</ns3:hr>
            <ns3:cad>105</ns3:cad>
          </ns3:TrackPointExtension>
        </extensions>
      </trkpt>
      <trkpt lat="34.23458288423717021942138671875" lon="108.9378777332603931427001953125">
        <ele>406.399993896484375</ele>
        <time>2026-03-17T13:00:55.000Z</time>
        <extensions>
          <ns3:TrackPointExtension>
            <ns3:hr>169</ns3:hr>
            <ns3:cad>105</ns3:cad>
          </ns3:TrackPointExtension>
        </extensions>
      </trkpt>
      <trkpt lat="34.23460769467055797576904296875" lon="108.93784814514219760894775390625">
        <ele>406.399993896484375</ele>
        <time>2026-03-17T13:00:56.000Z</time>
        <extensions>
          <ns3:TrackPointExtension>
            <ns3:hr>169</ns3:hr>
            <ns3:cad>105</ns3:cad>
          </ns3:TrackPointExtension>
        </extensions>
      </trkpt>
      <trkpt lat="34.234641306102275848388671875" lon="108.9378078281879425048828125">
        <ele>406.399993896484375</ele>
        <time>2026-03-17T13:00:57.000Z</time>
        <extensions>
          <ns3:TrackPointExtension>
            <ns3:hr>168</ns3:hr>
            <ns3:cad>105</ns3:cad>
          </ns3:TrackPointExtension>
        </extensions>
      </trkpt>
      <trkpt lat="34.234668798744678497314453125" lon="108.93777555786073207855224609375">
        <ele>406.399993896484375</ele>
        <time>2026-03-17T13:00:58.000Z</time>
        <extensions>
          <ns3:TrackPointExtension>
            <ns3:hr>169</ns3:hr>
            <ns3:cad>105</ns3:cad>
          </ns3:TrackPointExtension>
        </extensions>
      </trkpt>
      <trkpt lat="34.2346890829503536224365234375" lon="108.9377509988844394683837890625">
        <ele>406.20001220703125</ele>
        <time>2026-03-17T13:00:59.000Z</time>
        <extensions>
          <ns3:TrackPointExtension>
            <ns3:hr>169</ns3:hr>
            <ns3:cad>105</ns3:cad>
          </ns3:TrackPointExtension>
        </extensions>
      </trkpt>
      <trkpt lat="34.23470626585185527801513671875" lon="108.9377111010253429412841796875">
        <ele>406.20001220703125</ele>
        <time>2026-03-17T13:01:00.000Z</time>
        <extensions>
          <ns3:TrackPointExtension>
            <ns3:hr>169</ns3:hr>
            <ns3:cad>105</ns3:cad>
          </ns3:TrackPointExtension>
        </extensions>
      </trkpt>
      <trkpt lat="34.234720766544342041015625" lon="108.93765963613986968994140625">
        <ele>406.20001220703125</ele>
        <time>2026-03-17T13:01:01.000Z</time>
        <extensions>
          <ns3:TrackPointExtension>
            <ns3:hr>168</ns3:hr>
            <ns3:cad>105</ns3:cad>
          </ns3:TrackPointExtension>
        </extensions>
      </trkpt>
      <trkpt lat="34.23473744653165340423583984375" lon="108.937624432146549224853515625">
        <ele>406.20001220703125</ele>
        <time>2026-03-17T13:01:02.000Z</time>
        <extensions>
          <ns3:TrackPointExtension>
            <ns3:hr>169</ns3:hr>
            <ns3:cad>105</ns3:cad>
          </ns3:TrackPointExtension>
        </extensions>
      </trkpt>
      <trkpt lat="34.23474716953933238983154296875" lon="108.937591575086116790771484375">
        <ele>406.20001220703125</ele>
        <time>2026-03-17T13:01:03.000Z</time>
        <extensions>
          <ns3:TrackPointExtension>
            <ns3:hr>169</ns3:hr>
            <ns3:cad>95</ns3:cad>
          </ns3:TrackPointExtension>
        </extensions>
      </trkpt>
      <trkpt lat="34.234755299985408782958984375" lon="108.9375451393425464630126953125">
        <ele>406.20001220703125</ele>
        <time>2026-03-17T13:01:04.000Z</time>
        <extensions>
          <ns3:TrackPointExtension>
            <ns3:hr>169</ns3:hr>
            <ns3:cad>95</ns3:cad>
          </ns3:TrackPointExtension>
        </extensions>
      </trkpt>
      <trkpt lat="34.23475856892764568328857421875" lon="108.9374931715428829193115234375">
        <ele>406.20001220703125</ele>
        <time>2026-03-17T13:01:05.000Z</time>
        <extensions>
          <ns3:TrackPointExtension>
            <ns3:hr>169</ns3:hr>
            <ns3:cad>95</ns3:cad>
          </ns3:TrackPointExtension>
        </extensions>
      </trkpt>
      <trkpt lat="34.23476275987923145294189453125" lon="108.93746039830148220062255859375">
        <ele>406.20001220703125</ele>
        <time>2026-03-17T13:01:06.000Z</time>
        <extensions>
          <ns3:TrackPointExtension>
            <ns3:hr>169</ns3:hr>
            <ns3:cad>95</ns3:cad>
          </ns3:TrackPointExtension>
        </extensions>
      </trkpt>
      <trkpt lat="34.2347569763660430908203125" lon="108.93741949461400508880615234375">
        <ele>406.20001220703125</ele>
        <time>2026-03-17T13:01:07.000Z</time>
        <extensions>
          <ns3:TrackPointExtension>
            <ns3:hr>169</ns3:hr>
            <ns3:cad>104</ns3:cad>
          </ns3:TrackPointExtension>
        </extensions>
      </trkpt>
      <trkpt lat="34.23474415205419063568115234375" lon="108.93737171776592731475830078125">
        <ele>406.20001220703125</ele>
        <time>2026-03-17T13:01:08.000Z</time>
        <extensions>
          <ns3:TrackPointExtension>
            <ns3:hr>168</ns3:hr>
            <ns3:cad>104</ns3:cad>
          </ns3:TrackPointExtension>
        </extensions>
      </trkpt>
      <trkpt lat="34.23473258502781391143798828125" lon="108.93732846714556217193603515625">
        <ele>406.20001220703125</ele>
        <time>2026-03-17T13:01:09.000Z</time>
        <extensions>
          <ns3:TrackPointExtension>
            <ns3:hr>167</ns3:hr>
            <ns3:cad>104</ns3:cad>
          </ns3:TrackPointExtension>
        </extensions>
      </trkpt>
      <trkpt lat="34.23472537659108638763427734375" lon="108.937295861542224884033203125">
        <ele>406.20001220703125</ele>
        <time>2026-03-17T13:01:10.000Z</time>
        <extensions>
          <ns3:TrackPointExtension>
            <ns3:hr>166</ns3:hr>
            <ns3:cad>104</ns3:cad>
          </ns3:TrackPointExtension>
        </extensions>
      </trkpt>
      <trkpt lat="34.234704338014125823974609375" lon="108.9372614957392215728759765625">
        <ele>406.20001220703125</ele>
        <time>2026-03-17T13:01:11.000Z</time>
        <extensions>
          <ns3:TrackPointExtension>
            <ns3:hr>166</ns3:hr>
            <ns3:cad>96</ns3:cad>
          </ns3:TrackPointExtension>
        </extensions>
      </trkpt>
      <trkpt lat="34.23467852175235748291015625" lon="108.93722268752753734588623046875">
        <ele>406.20001220703125</ele>
        <time>2026-03-17T13:01:12.000Z</time>
        <extensions>
          <ns3:TrackPointExtension>
            <ns3:hr>166</ns3:hr>
            <ns3:cad>96</ns3:cad>
          </ns3:TrackPointExtension>
        </extensions>
      </trkpt>
      <trkpt lat="34.23466200940310955047607421875" lon="108.93719016574323177337646484375">
        <ele>406.20001220703125</ele>
        <time>2026-03-17T13:01:13.000Z</time>
        <extensions>
          <ns3:TrackPointExtension>
            <ns3:hr>166</ns3:hr>
            <ns3:cad>96</ns3:cad>
          </ns3:TrackPointExtension>
        </extensions>
      </trkpt>
      <trkpt lat="34.2346381209790706634521484375" lon="108.93715881742537021636962890625">
        <ele>406.20001220703125</ele>
        <time>2026-03-17T13:01:14.000Z</time>
        <extensions>
          <ns3:TrackPointExtension>
            <ns3:hr>166</ns3:hr>
            <ns3:cad>104</ns3:cad>
          </ns3:TrackPointExtension>
        </extensions>
      </trkpt>
      <trkpt lat="34.234606437385082244873046875" lon="108.93713048659265041351318359375">
        <ele>406.20001220703125</ele>
        <time>2026-03-17T13:01:15.000Z</time>
        <extensions>
          <ns3:TrackPointExtension>
            <ns3:hr>166</ns3:hr>
            <ns3:cad>104</ns3:cad>
          </ns3:TrackPointExtension>
        </extensions>
      </trkpt>
      <trkpt lat="34.23456989228725433349609375" lon="108.93710601143538951873779296875">
        <ele>406.20001220703125</ele>
        <time>2026-03-17T13:01:16.000Z</time>
        <extensions>
          <ns3:TrackPointExtension>
            <ns3:hr>166</ns3:hr>
            <ns3:cad>104</ns3:cad>
          </ns3:TrackPointExtension>
        </extensions>
      </trkpt>
      <trkpt lat="34.23454499803483486175537109375" lon="108.937080614268779754638671875">
        <ele>406.20001220703125</ele>
        <time>2026-03-17T13:01:17.000Z</time>
        <extensions>
          <ns3:TrackPointExtension>
            <ns3:hr>167</ns3:hr>
            <ns3:cad>104</ns3:cad>
          </ns3:TrackPointExtension>
        </extensions>
      </trkpt>
      <trkpt lat="34.23451348207890987396240234375" lon="108.93706494010984897613525390625">
        <ele>406.20001220703125</ele>
        <time>2026-03-17T13:01:18.000Z</time>
        <extensions>
          <ns3:TrackPointExtension>
            <ns3:hr>166</ns3:hr>
            <ns3:cad>103</ns3:cad>
          </ns3:TrackPointExtension>
        </extensions>
      </trkpt>
      <trkpt lat="34.234472326934337615966796875" lon="108.93705538474023342132568359375">
        <ele>406.20001220703125</ele>
        <time>2026-03-17T13:01:19.000Z</time>
        <extensions>
          <ns3:TrackPointExtension>
            <ns3:hr>166</ns3:hr>
            <ns3:cad>103</ns3:cad>
          </ns3:TrackPointExtension>
        </extensions>
      </trkpt>
      <trkpt lat="34.23443485982716083526611328125" lon="108.93704532645642757415771484375">
        <ele>406.20001220703125</ele>
        <time>2026-03-17T13:01:20.000Z</time>
        <extensions>
          <ns3:TrackPointExtension>
            <ns3:hr>166</ns3:hr>
            <ns3:cad>103</ns3:cad>
          </ns3:TrackPointExtension>
        </extensions>
      </trkpt>
      <trkpt lat="34.2344061098992824554443359375" lon="108.93703057430684566497802734375">
        <ele>406.20001220703125</ele>
        <time>2026-03-17T13:01:21.000Z</time>
        <extensions>
          <ns3:TrackPointExtension>
            <ns3:hr>167</ns3:hr>
            <ns3:cad>103</ns3:cad>
          </ns3:TrackPointExtension>
        </extensions>
      </trkpt>
      <trkpt lat="34.2343705706298351287841796875" lon="108.9370278082787990570068359375">
        <ele>406.20001220703125</ele>
        <time>2026-03-17T13:01:22.000Z</time>
        <extensions>
          <ns3:TrackPointExtension>
            <ns3:hr>166</ns3:hr>
            <ns3:cad>103</ns3:cad>
          </ns3:TrackPointExtension>
        </extensions>
      </trkpt>
      <trkpt lat="34.234327487647533416748046875" lon="108.937031328678131103515625">
        <ele>406.20001220703125</ele>
        <time>2026-03-17T13:01:23.000Z</time>
        <extensions>
          <ns3:TrackPointExtension>
            <ns3:hr>166</ns3:hr>
            <ns3:cad>103</ns3:cad>
          </ns3:TrackPointExtension>
        </extensions>
      </trkpt>
      <trkpt lat="34.2342890985310077667236328125" lon="108.93703426234424114227294921875">
        <ele>406.20001220703125</ele>
        <time>2026-03-17T13:01:24.000Z</time>
        <extensions>
          <ns3:TrackPointExtension>
            <ns3:hr>166</ns3:hr>
            <ns3:cad>105</ns3:cad>
          </ns3:TrackPointExtension>
        </extensions>
      </trkpt>
      <trkpt lat="34.23425934277474880218505859375" lon="108.9370254613459110260009765625">
        <ele>406.20001220703125</ele>
        <time>2026-03-17T13:01:25.000Z</time>
        <extensions>
          <ns3:TrackPointExtension>
            <ns3:hr>167</ns3:hr>
            <ns3:cad>105</ns3:cad>
          </ns3:TrackPointExtension>
        </extensions>
      </trkpt>
      <trkpt lat="34.23421843908727169036865234375" lon="108.93702655099332332611083984375">
        <ele>406.20001220703125</ele>
        <time>2026-03-17T13:01:26.000Z</time>
        <extensions>
          <ns3:TrackPointExtension>
            <ns3:hr>166</ns3:hr>
            <ns3:cad>105</ns3:cad>
          </ns3:TrackPointExtension>
        </extensions>
      </trkpt>
      <trkpt lat="34.2341777868568897247314453125" lon="108.937028311192989349365234375">
        <ele>406.20001220703125</ele>
        <time>2026-03-17T13:01:27.000Z</time>
        <extensions>
          <ns3:TrackPointExtension>
            <ns3:hr>166</ns3:hr>
            <ns3:cad>105</ns3:cad>
          </ns3:TrackPointExtension>
        </extensions>
      </trkpt>
      <trkpt lat="34.2341368831694126129150390625" lon="108.9370308257639408111572265625">
        <ele>406.20001220703125</ele>
        <time>2026-03-17T13:01:28.000Z</time>
        <extensions>
          <ns3:TrackPointExtension>
            <ns3:hr>167</ns3:hr>
            <ns3:cad>105</ns3:cad>
          </ns3:TrackPointExtension>
        </extensions>
      </trkpt>
      <trkpt lat="34.234106205403804779052734375" lon="108.937026299536228179931640625">
        <ele>406.20001220703125</ele>
        <time>2026-03-17T13:01:29.000Z</time>
        <extensions>
          <ns3:TrackPointExtension>
            <ns3:hr>167</ns3:hr>
            <ns3:cad>105</ns3:cad>
          </ns3:TrackPointExtension>
        </extensions>
      </trkpt>
      <trkpt lat="34.2340691573917865753173828125" lon="108.93703090958297252655029296875">
        <ele>406.399993896484375</ele>
        <time>2026-03-17T13:01:30.000Z</time>
        <extensions>
          <ns3:TrackPointExtension>
            <ns3:hr>167</ns3:hr>
            <ns3:cad>105</ns3:cad>
          </ns3:TrackPointExtension>
        </extensions>
      </trkpt>
      <trkpt lat="34.2340319417417049407958984375" lon="108.9370314963161945343017578125">
        <ele>406.399993896484375</ele>
        <time>2026-03-17T13:01:31.000Z</time>
        <extensions>
          <ns3:TrackPointExtension>
            <ns3:hr>167</ns3:hr>
            <ns3:cad>105</ns3:cad>
          </ns3:TrackPointExtension>
        </extensions>
      </trkpt>
      <trkpt lat="34.23399388790130615234375" lon="108.93703409470617771148681640625">
        <ele>406.399993896484375</ele>
        <time>2026-03-17T13:01:32.000Z</time>
        <extensions>
          <ns3:TrackPointExtension>
            <ns3:hr>167</ns3:hr>
            <ns3:cad>105</ns3:cad>
          </ns3:TrackPointExtension>
        </extensions>
      </trkpt>
      <trkpt lat="34.23396362923085689544677734375" lon="108.93702822737395763397216796875">
        <ele>406.399993896484375</ele>
        <time>2026-03-17T13:01:33.000Z</time>
        <extensions>
          <ns3:TrackPointExtension>
            <ns3:hr>167</ns3:hr>
            <ns3:cad>105</ns3:cad>
          </ns3:TrackPointExtension>
        </extensions>
      </trkpt>
      <trkpt lat="34.2339286766946315765380859375" lon="108.93702973611652851104736328125">
        <ele>406.399993896484375</ele>
        <time>2026-03-17T13:01:34.000Z</time>
        <extensions>
          <ns3:TrackPointExtension>
            <ns3:hr>168</ns3:hr>
            <ns3:cad>105</ns3:cad>
          </ns3:TrackPointExtension>
        </extensions>
      </trkpt>
      <trkpt lat="34.233891628682613372802734375" lon="108.9370284788310527801513671875">
        <ele>406.399993896484375</ele>
        <time>2026-03-17T13:01:35.000Z</time>
        <extensions>
          <ns3:TrackPointExtension>
            <ns3:hr>168</ns3:hr>
            <ns3:cad>104</ns3:cad>
          </ns3:TrackPointExtension>
        </extensions>
      </trkpt>
      <trkpt lat="34.23385382629930973052978515625" lon="108.93703526817262172698974609375">
        <ele>406.399993896484375</ele>
        <time>2026-03-17T13:01:36.000Z</time>
        <extensions>
          <ns3:TrackPointExtension>
            <ns3:hr>168</ns3:hr>
            <ns3:cad>104</ns3:cad>
          </ns3:TrackPointExtension>
        </extensions>
      </trkpt>
      <trkpt lat="34.2338213883340358734130859375" lon="108.93702705390751361846923828125">
        <ele>406.399993896484375</ele>
        <time>2026-03-17T13:01:37.000Z</time>
        <extensions>
          <ns3:TrackPointExtension>
            <ns3:hr>168</ns3:hr>
            <ns3:cad>105</ns3:cad>
          </ns3:TrackPointExtension>
        </extensions>
      </trkpt>
      <trkpt lat="34.23378727398812770843505859375" lon="108.9370301552116870880126953125">
        <ele>406.399993896484375</ele>
        <time>2026-03-17T13:01:38.000Z</time>
        <extensions>
          <ns3:TrackPointExtension>
            <ns3:hr>169</ns3:hr>
            <ns3:cad>105</ns3:cad>
          </ns3:TrackPointExtension>
        </extensions>
      </trkpt>
      <trkpt lat="34.2337496392428874969482421875" lon="108.93703191541135311126708984375">
        <ele>406.399993896484375</ele>
        <time>2026-03-17T13:01:39.000Z</time>
        <extensions>
          <ns3:TrackPointExtension>
            <ns3:hr>168</ns3:hr>
            <ns3:cad>105</ns3:cad>
          </ns3:TrackPointExtension>
        </extensions>
      </trkpt>
      <trkpt lat="34.23370948992669582366943359375" lon="108.93704230897128582000732421875">
        <ele>406.399993896484375</ele>
        <time>2026-03-17T13:01:40.000Z</time>
        <extensions>
          <ns3:TrackPointExtension>
            <ns3:hr>168</ns3:hr>
            <ns3:cad>105</ns3:cad>
          </ns3:TrackPointExtension>
        </extensions>
      </trkpt>
      <trkpt lat="34.23367696814239025115966796875" lon="108.93704130314290523529052734375">
        <ele>406.399993896484375</ele>
        <time>2026-03-17T13:01:41.000Z</time>
        <extensions>
          <ns3:TrackPointExtension>
            <ns3:hr>169</ns3:hr>
            <ns3:cad>105</ns3:cad>
          </ns3:TrackPointExtension>
        </extensions>
      </trkpt>
      <trkpt lat="34.2336433567106723785400390625" lon="108.93704130314290523529052734375">
        <ele>406.399993896484375</ele>
        <time>2026-03-17T13:01:42.000Z</time>
        <extensions>
          <ns3:TrackPointExtension>
            <ns3:hr>168</ns3:hr>
            <ns3:cad>106</ns3:cad>
          </ns3:TrackPointExtension>
        </extensions>
      </trkpt>
      <trkpt lat="34.23360572196543216705322265625" lon="108.93705136142671108245849609375">
        <ele>406.20001220703125</ele>
        <time>2026-03-17T13:01:43.000Z</time>
        <extensions>
          <ns3:TrackPointExtension>
            <ns3:hr>168</ns3:hr>
            <ns3:cad>106</ns3:cad>
          </ns3:TrackPointExtension>
        </extensions>
      </trkpt>
      <trkpt lat="34.23356800340116024017333984375" lon="108.937057144939899444580078125">
        <ele>406.20001220703125</ele>
        <time>2026-03-17T13:01:44.000Z</time>
        <extensions>
          <ns3:TrackPointExtension>
            <ns3:hr>169</ns3:hr>
            <ns3:cad>106</ns3:cad>
          </ns3:TrackPointExtension>
        </extensions>
      </trkpt>
      <trkpt lat="34.23353455960750579833984375" lon="108.93706225790083408355712890625">
        <ele>406.20001220703125</ele>
        <time>2026-03-17T13:01:45.000Z</time>
        <extensions>
          <ns3:TrackPointExtension>
            <ns3:hr>169</ns3:hr>
            <ns3:cad>106</ns3:cad>
          </ns3:TrackPointExtension>
        </extensions>
      </trkpt>
      <trkpt lat="34.23350329510867595672607421875" lon="108.93707013688981533050537109375">
        <ele>406.20001220703125</ele>
        <time>2026-03-17T13:01:46.000Z</time>
        <extensions>
          <ns3:TrackPointExtension>
            <ns3:hr>169</ns3:hr>
            <ns3:cad>106</ns3:cad>
          </ns3:TrackPointExtension>
        </extensions>
      </trkpt>
      <trkpt lat="34.23347110860049724578857421875" lon="108.93709561787545680999755859375">
        <ele>406.20001220703125</ele>
        <time>2026-03-17T13:01:47.000Z</time>
        <extensions>
          <ns3:TrackPointExtension>
            <ns3:hr>169</ns3:hr>
            <ns3:cad>104</ns3:cad>
          </ns3:TrackPointExtension>
        </extensions>
      </trkpt>
      <trkpt lat="34.23343607224524021148681640625" lon="108.9371216855943202972412109375">
        <ele>406.20001220703125</ele>
        <time>2026-03-17T13:01:48.000Z</time>
        <extensions>
          <ns3:TrackPointExtension>
            <ns3:hr>169</ns3:hr>
            <ns3:cad>104</ns3:cad>
          </ns3:TrackPointExtension>
        </extensions>
      </trkpt>
      <trkpt lat="34.2334016226232051849365234375" lon="108.93714792095124721527099609375">
        <ele>406.20001220703125</ele>
        <time>2026-03-17T13:01:49.000Z</time>
        <extensions>
          <ns3:TrackPointExtension>
            <ns3:hr>169</ns3:hr>
            <ns3:cad>104</ns3:cad>
          </ns3:TrackPointExtension>
        </extensions>
      </trkpt>
      <trkpt lat="34.23337019048631191253662109375" lon="108.937170468270778656005859375">
        <ele>406.20001220703125</ele>
        <time>2026-03-17T13:01:50.000Z</time>
        <extensions>
          <ns3:TrackPointExtension>
            <ns3:hr>169</ns3:hr>
            <ns3:cad>104</ns3:cad>
          </ns3:TrackPointExtension>
        </extensions>
      </trkpt>
      <trkpt lat="34.23334236256778240203857421875" lon="108.93720441497862339019775390625">
        <ele>406.399993896484375</ele>
        <time>2026-03-17T13:01:51.000Z</time>
        <extensions>
          <ns3:TrackPointExtension>
            <ns3:hr>169</ns3:hr>
            <ns3:cad>106</ns3:cad>
          </ns3:TrackPointExtension>
        </extensions>
      </trkpt>
      <trkpt lat="34.233318306505680084228515625" lon="108.9372537843883037567138671875">
        <ele>406.20001220703125</ele>
        <time>2026-03-17T13:01:52.000Z</time>
        <extensions>
          <ns3:TrackPointExtension>
            <ns3:hr>169</ns3:hr>
            <ns3:cad>106</ns3:cad>
          </ns3:TrackPointExtension>
        </extensions>
      </trkpt>
      <trkpt lat="34.23329584300518035888671875" lon="108.93730768002569675445556640625">
        <ele>406.20001220703125</ele>
        <time>2026-03-17T13:01:53.000Z</time>
        <extensions>
          <ns3:TrackPointExtension>
            <ns3:hr>169</ns3:hr>
            <ns3:cad>106</ns3:cad>
          </ns3:TrackPointExtension>
        </extensions>
      </trkpt>
      <trkpt lat="34.23327530734241008758544921875" lon="108.9373583905398845672607421875">
        <ele>406.20001220703125</ele>
        <time>2026-03-17T13:01:54.000Z</time>
        <extensions>
          <ns3:TrackPointExtension>
            <ns3:hr>170</ns3:hr>
            <ns3:cad>106</ns3:cad>
          </ns3:TrackPointExtension>
        </extensions>
      </trkpt>
      <trkpt lat="34.233257286250591278076171875" lon="108.9374026469886302947998046875">
        <ele>406.399993896484375</ele>
        <time>2026-03-17T13:01:55.000Z</time>
        <extensions>
          <ns3:TrackPointExtension>
            <ns3:hr>169</ns3:hr>
            <ns3:cad>106</ns3:cad>
          </ns3:TrackPointExtension>
        </extensions>
      </trkpt>
      <trkpt lat="34.23324412666261196136474609375" lon="108.93744866363704204559326171875">
        <ele>406.399993896484375</ele>
        <time>2026-03-17T13:01:56.000Z</time>
        <extensions>
          <ns3:TrackPointExtension>
            <ns3:hr>169</ns3:hr>
            <ns3:cad>106</ns3:cad>
          </ns3:TrackPointExtension>
        </extensions>
      </trkpt>
      <trkpt lat="34.23324781470000743865966796875" lon="108.93750297836959362030029296875">
        <ele>406.20001220703125</ele>
        <time>2026-03-17T13:01:57.000Z</time>
        <extensions>
          <ns3:TrackPointExtension>
            <ns3:hr>170</ns3:hr>
            <ns3:cad>106</ns3:cad>
          </ns3:TrackPointExtension>
        </extensions>
      </trkpt>
      <trkpt lat="34.2332564480602741241455078125" lon="108.9375612325966358184814453125">
        <ele>406.20001220703125</ele>
        <time>2026-03-17T13:01:58.000Z</time>
        <extensions>
          <ns3:TrackPointExtension>
            <ns3:hr>170</ns3:hr>
            <ns3:cad>106</ns3:cad>
          </ns3:TrackPointExtension>
        </extensions>
      </trkpt>
      <trkpt lat="34.2332648299634456634521484375" lon="108.93761563114821910858154296875">
        <ele>406.20001220703125</ele>
        <time>2026-03-17T13:01:59.000Z</time>
        <extensions>
          <ns3:TrackPointExtension>
            <ns3:hr>170</ns3:hr>
            <ns3:cad>106</ns3:cad>
          </ns3:TrackPointExtension>
        </extensions>
      </trkpt>
      <trkpt lat="34.23327480442821979522705078125" lon="108.937661983072757720947265625">
        <ele>406.20001220703125</ele>
        <time>2026-03-17T13:02:00.000Z</time>
        <extensions>
          <ns3:TrackPointExtension>
            <ns3:hr>170</ns3:hr>
            <ns3:cad>106</ns3:cad>
          </ns3:TrackPointExtension>
        </extensions>
      </trkpt>
      <trkpt lat="34.2332842759788036346435546875" lon="108.9377074129879474639892578125">
        <ele>406.20001220703125</ele>
        <time>2026-03-17T13:02:01.000Z</time>
        <extensions>
          <ns3:TrackPointExtension>
            <ns3:hr>171</ns3:hr>
            <ns3:cad>106</ns3:cad>
          </ns3:TrackPointExtension>
        </extensions>
      </trkpt>
      <trkpt lat="34.23331000842154026031494140625" lon="108.93775753676891326904296875">
        <ele>406.20001220703125</ele>
        <time>2026-03-17T13:02:02.000Z</time>
        <extensions>
          <ns3:TrackPointExtension>
            <ns3:hr>171</ns3:hr>
            <ns3:cad>106</ns3:cad>
          </ns3:TrackPointExtension>
        </extensions>
      </trkpt>
      <trkpt lat="34.2333407700061798095703125" lon="108.93780254758894443511962890625">
        <ele>406.20001220703125</ele>
        <time>2026-03-17T13:02:03.000Z</time>
        <extensions>
          <ns3:TrackPointExtension>
            <ns3:hr>171</ns3:hr>
            <ns3:cad>106</ns3:cad>
          </ns3:TrackPointExtension>
        </extensions>
      </trkpt>
      <trkpt lat="34.2333675920963287353515625" lon="108.9378435350954532623291015625">
        <ele>406.20001220703125</ele>
        <time>2026-03-17T13:02:04.000Z</time>
        <extensions>
          <ns3:TrackPointExtension>
            <ns3:hr>170</ns3:hr>
            <ns3:cad>106</ns3:cad>
          </ns3:TrackPointExtension>
        </extensions>
      </trkpt>
      <trkpt lat="34.2333868704736232757568359375" lon="108.93788083456456661224365234375">
        <ele>406.20001220703125</ele>
        <time>2026-03-17T13:02:05.000Z</time>
        <extensions>
          <ns3:TrackPointExtension>
            <ns3:hr>171</ns3:hr>
            <ns3:cad>106</ns3:cad>
          </ns3:TrackPointExtension>
        </extensions>
      </trkpt>
      <trkpt lat="34.23340925015509128570556640625" lon="108.93790665082633495330810546875">
        <ele>406.20001220703125</ele>
        <time>2026-03-17T13:02:06.000Z</time>
        <extensions>
          <ns3:TrackPointExtension>
            <ns3:hr>171</ns3:hr>
            <ns3:cad>106</ns3:cad>
          </ns3:TrackPointExtension>
        </extensions>
      </trkpt>
      <trkpt lat="34.23344914801418781280517578125" lon="108.93792676739394664764404296875">
        <ele>406.20001220703125</ele>
        <time>2026-03-17T13:02:07.000Z</time>
        <extensions>
          <ns3:TrackPointExtension>
            <ns3:hr>170</ns3:hr>
            <ns3:cad>107</ns3:cad>
          </ns3:TrackPointExtension>
        </extensions>
      </trkpt>
      <trkpt lat="34.233491979539394378662109375" lon="108.93794797360897064208984375">
        <ele>406.20001220703125</ele>
        <time>2026-03-17T13:02:08.000Z</time>
        <extensions>
          <ns3:TrackPointExtension>
            <ns3:hr>171</ns3:hr>
            <ns3:cad>107</ns3:cad>
          </ns3:TrackPointExtension>
        </extensions>
      </trkpt>
      <trkpt lat="34.23353095538914203643798828125" lon="108.9379625581204891204833984375">
        <ele>406.20001220703125</ele>
        <time>2026-03-17T13:02:09.000Z</time>
        <extensions>
          <ns3:TrackPointExtension>
            <ns3:hr>171</ns3:hr>
            <ns3:cad>107</ns3:cad>
          </ns3:TrackPointExtension>
        </extensions>
      </trkpt>
      <trkpt lat="34.23357035033404827117919921875" lon="108.93796683289110660552978515625">
        <ele>406.20001220703125</ele>
        <time>2026-03-17T13:02:10.000Z</time>
        <extensions>
          <ns3:TrackPointExtension>
            <ns3:hr>171</ns3:hr>
            <ns3:cad>107</ns3:cad>
          </ns3:TrackPointExtension>
        </extensions>
      </trkpt>
      <trkpt lat="34.23360639251768589019775390625" lon="108.9379662461578845977783203125">
        <ele>406.20001220703125</ele>
        <time>2026-03-17T13:02:11.000Z</time>
        <extensions>
          <ns3:TrackPointExtension>
            <ns3:hr>172</ns3:hr>
            <ns3:cad>107</ns3:cad>
          </ns3:TrackPointExtension>
        </extensions>
      </trkpt>
      <trkpt lat="34.23365500755608081817626953125" lon="108.93795526586472988128662109375">
        <ele>406.20001220703125</ele>
        <time>2026-03-17T13:02:12.000Z</time>
        <extensions>
          <ns3:TrackPointExtension>
            <ns3:hr>172</ns3:hr>
            <ns3:cad>107</ns3:cad>
          </ns3:TrackPointExtension>
        </extensions>
      </trkpt>
      <trkpt lat="34.23369993455708026885986328125" lon="108.9379484765231609344482421875">
        <ele>406.20001220703125</ele>
        <time>2026-03-17T13:02:13.000Z</time>
        <extensions>
          <ns3:TrackPointExtension>
            <ns3:hr>172</ns3:hr>
            <ns3:cad>107</ns3:cad>
          </ns3:TrackPointExtension>
        </extensions>
      </trkpt>
      <trkpt lat="34.23374150879681110382080078125" lon="108.93794956617057323455810546875">
        <ele>406.20001220703125</ele>
        <time>2026-03-17T13:02:14.000Z</time>
        <extensions>
          <ns3:TrackPointExtension>
            <ns3:hr>172</ns3:hr>
            <ns3:cad>107</ns3:cad>
          </ns3:TrackPointExtension>
        </extensions>
      </trkpt>
      <trkpt lat="34.233770258724689483642578125" lon="108.937957026064395904541015625">
        <ele>406.20001220703125</ele>
        <time>2026-03-17T13:02:15.000Z</time>
        <extensions>
          <ns3:TrackPointExtension>
            <ns3:hr>173</ns3:hr>
            <ns3:cad>107</ns3:cad>
          </ns3:TrackPointExtension>
        </extensions>
      </trkpt>
      <trkpt lat="34.2338109947741031646728515625" lon="108.93795643933117389678955078125">
        <ele>406.20001220703125</ele>
        <time>2026-03-17T13:02:16.000Z</time>
        <extensions>
          <ns3:TrackPointExtension>
            <ns3:hr>172</ns3:hr>
            <ns3:cad>107</ns3:cad>
          </ns3:TrackPointExtension>
        </extensions>
      </trkpt>
      <trkpt lat="34.23385642468929290771484375" lon="108.9379548467695713043212890625">
        <ele>406.20001220703125</ele>
        <time>2026-03-17T13:02:17.000Z</time>
        <extensions>
          <ns3:TrackPointExtension>
            <ns3:hr>172</ns3:hr>
            <ns3:cad>107</ns3:cad>
          </ns3:TrackPointExtension>
        </extensions>
      </trkpt>
      <trkpt lat="34.23389690928161144256591796875" lon="108.93795727752149105072021484375">
        <ele>406.20001220703125</ele>
        <time>2026-03-17T13:02:18.000Z</time>
        <extensions>
          <ns3:TrackPointExtension>
            <ns3:hr>173</ns3:hr>
            <ns3:cad>107</ns3:cad>
          </ns3:TrackPointExtension>
        </extensions>
      </trkpt>
      <trkpt lat="34.23393328674137592315673828125" lon="108.93796079792082309722900390625">
        <ele>406.20001220703125</ele>
        <time>2026-03-17T13:02:19.000Z</time>
        <extensions>
          <ns3:TrackPointExtension>
            <ns3:hr>173</ns3:hr>
            <ns3:cad>107</ns3:cad>
          </ns3:TrackPointExtension>
        </extensions>
      </trkpt>
      <trkpt lat="34.23397041857242584228515625" lon="108.9379595406353473663330078125">
        <ele>406.20001220703125</ele>
        <time>2026-03-17T13:02:20.000Z</time>
        <extensions>
          <ns3:TrackPointExtension>
            <ns3:hr>173</ns3:hr>
            <ns3:cad>107</ns3:cad>
          </ns3:TrackPointExtension>
        </extensions>
      </trkpt>
      <trkpt lat="34.23401375301182270050048828125" lon="108.93795459531247615814208984375">
        <ele>406.20001220703125</ele>
        <time>2026-03-17T13:02:21.000Z</time>
        <extensions>
          <ns3:TrackPointExtension>
            <ns3:hr>172</ns3:hr>
            <ns3:cad>107</ns3:cad>
          </ns3:TrackPointExtension>
        </extensions>
      </trkpt>
      <trkpt lat="34.234061948955059051513671875" lon="108.937948308885097503662109375">
        <ele>406.20001220703125</ele>
        <time>2026-03-17T13:02:22.000Z</time>
        <extensions>
          <ns3:TrackPointExtension>
            <ns3:hr>173</ns3:hr>
            <ns3:cad>107</ns3:cad>
          </ns3:TrackPointExtension>
        </extensions>
      </trkpt>
      <trkpt lat="34.2341006733477115631103515625" lon="108.9379524998366832733154296875">
        <ele>406.20001220703125</ele>
        <time>2026-03-17T13:02:23.000Z</time>
        <extensions>
          <ns3:TrackPointExtension>
            <ns3:hr>173</ns3:hr>
            <ns3:cad>107</ns3:cad>
          </ns3:TrackPointExtension>
        </extensions>
      </trkpt>
      <trkpt lat="34.23413009382784366607666015625" lon="108.93795467913150787353515625">
        <ele>406.20001220703125</ele>
        <time>2026-03-17T13:02:24.000Z</time>
        <extensions>
          <ns3:TrackPointExtension>
            <ns3:hr>172</ns3:hr>
            <ns3:cad>107</ns3:cad>
          </ns3:TrackPointExtension>
        </extensions>
      </trkpt>
      <trkpt lat="34.23416513018310070037841796875" lon="108.93794738687574863433837890625">
        <ele>406</ele>
        <time>2026-03-17T13:02:25.000Z</time>
        <extensions>
          <ns3:TrackPointExtension>
            <ns3:hr>172</ns3:hr>
            <ns3:cad>107</ns3:cad>
          </ns3:TrackPointExtension>
        </extensions>
      </trkpt>
      <trkpt lat="34.2342079617083072662353515625" lon="108.93793347291648387908935546875">
        <ele>406.20001220703125</ele>
        <time>2026-03-17T13:02:26.000Z</time>
        <extensions>
          <ns3:TrackPointExtension>
            <ns3:hr>172</ns3:hr>
            <ns3:cad>107</ns3:cad>
          </ns3:TrackPointExtension>
        </extensions>
      </trkpt>
      <trkpt lat="34.23424492590129375457763671875" lon="108.9379307068884372711181640625">
        <ele>406.20001220703125</ele>
        <time>2026-03-17T13:02:27.000Z</time>
        <extensions>
          <ns3:TrackPointExtension>
            <ns3:hr>173</ns3:hr>
            <ns3:cad>107</ns3:cad>
          </ns3:TrackPointExtension>
        </extensions>
      </trkpt>
      <trkpt lat="34.23427627421915531158447265625" lon="108.93793079070746898651123046875">
        <ele>406.20001220703125</ele>
        <time>2026-03-17T13:02:28.000Z</time>
        <extensions>
          <ns3:TrackPointExtension>
            <ns3:hr>172</ns3:hr>
            <ns3:cad>107</ns3:cad>
          </ns3:TrackPointExtension>
        </extensions>
      </trkpt>
      <trkpt lat="34.23431114293634891510009765625" lon="108.937924169003963470458984375">
        <ele>406.20001220703125</ele>
        <time>2026-03-17T13:02:29.000Z</time>
        <extensions>
          <ns3:TrackPointExtension>
            <ns3:hr>172</ns3:hr>
            <ns3:cad>107</ns3:cad>
          </ns3:TrackPointExtension>
        </extensions>
      </trkpt>
      <trkpt lat="34.2343538068234920501708984375" lon="108.9379206486046314239501953125">
        <ele>406</ele>
        <time>2026-03-17T13:02:30.000Z</time>
        <extensions>
          <ns3:TrackPointExtension>
            <ns3:hr>173</ns3:hr>
            <ns3:cad>107</ns3:cad>
          </ns3:TrackPointExtension>
        </extensions>
      </trkpt>
      <trkpt lat="34.23439085483551025390625" lon="108.93792090006172657012939453125">
        <ele>406</ele>
        <time>2026-03-17T13:02:31.000Z</time>
        <extensions>
          <ns3:TrackPointExtension>
            <ns3:hr>173</ns3:hr>
            <ns3:cad>107</ns3:cad>
          </ns3:TrackPointExtension>
        </extensions>
      </trkpt>
      <trkpt lat="34.234425723552703857421875" lon="108.93792542628943920135498046875">
        <ele>406</ele>
        <time>2026-03-17T13:02:32.000Z</time>
        <extensions>
          <ns3:TrackPointExtension>
            <ns3:hr>173</ns3:hr>
            <ns3:cad>107</ns3:cad>
          </ns3:TrackPointExtension>
        </extensions>
      </trkpt>
      <trkpt lat="34.23445397056639194488525390625" lon="108.9379250071942806243896484375">
        <ele>406.20001220703125</ele>
        <time>2026-03-17T13:02:33.000Z</time>
        <extensions>
          <ns3:TrackPointExtension>
            <ns3:hr>172</ns3:hr>
            <ns3:cad>107</ns3:cad>
          </ns3:TrackPointExtension>
        </extensions>
      </trkpt>
      <trkpt lat="34.23449479043483734130859375" lon="108.9379045553505420684814453125">
        <ele>406</ele>
        <time>2026-03-17T13:02:34.000Z</time>
        <extensions>
          <ns3:TrackPointExtension>
            <ns3:hr>172</ns3:hr>
            <ns3:cad>107</ns3:cad>
          </ns3:TrackPointExtension>
        </extensions>
      </trkpt>
      <trkpt lat="34.234530664980411529541015625" lon="108.93788301385939121246337890625">
        <ele>406.20001220703125</ele>
        <time>2026-03-17T13:02:35.000Z</time>
        <extensions>
          <ns3:TrackPointExtension>
            <ns3:hr>172</ns3:hr>
            <ns3:cad>106</ns3:cad>
          </ns3:TrackPointExtension>
        </extensions>
      </trkpt>
      <trkpt lat="34.2345687188208103179931640625" lon="108.9378636516630649566650390625">
        <ele>406.20001220703125</ele>
        <time>2026-03-17T13:02:36.000Z</time>
        <extensions>
          <ns3:TrackPointExtension>
            <ns3:hr>172</ns3:hr>
            <ns3:cad>106</ns3:cad>
          </ns3:TrackPointExtension>
        </extensions>
      </trkpt>
      <trkpt lat="34.2345995642244815826416015625" lon="108.937844373285770416259765625">
        <ele>406.20001220703125</ele>
        <time>2026-03-17T13:02:37.000Z</time>
        <extensions>
          <ns3:TrackPointExtension>
            <ns3:hr>172</ns3:hr>
            <ns3:cad>106</ns3:cad>
          </ns3:TrackPointExtension>
        </extensions>
      </trkpt>
      <trkpt lat="34.23463158309459686279296875" lon="108.9378079958260059356689453125">
        <ele>406</ele>
        <time>2026-03-17T13:02:38.000Z</time>
        <extensions>
          <ns3:TrackPointExtension>
            <ns3:hr>173</ns3:hr>
            <ns3:cad>107</ns3:cad>
          </ns3:TrackPointExtension>
        </extensions>
      </trkpt>
      <trkpt lat="34.2346619255840778350830078125" lon="108.93775762058794498443603515625">
        <ele>406</ele>
        <time>2026-03-17T13:02:39.000Z</time>
        <extensions>
          <ns3:TrackPointExtension>
            <ns3:hr>172</ns3:hr>
            <ns3:cad>107</ns3:cad>
          </ns3:TrackPointExtension>
        </extensions>
      </trkpt>
      <trkpt lat="34.234690256416797637939453125" lon="108.93772400915622711181640625">
        <ele>406</ele>
        <time>2026-03-17T13:02:40.000Z</time>
        <extensions>
          <ns3:TrackPointExtension>
            <ns3:hr>173</ns3:hr>
            <ns3:cad>107</ns3:cad>
          </ns3:TrackPointExtension>
        </extensions>
      </trkpt>
      <trkpt lat="34.2347125522792339324951171875" lon="108.93769844435155391693115234375">
        <ele>406</ele>
        <time>2026-03-17T13:02:41.000Z</time>
        <extensions>
          <ns3:TrackPointExtension>
            <ns3:hr>173</ns3:hr>
            <ns3:cad>107</ns3:cad>
          </ns3:TrackPointExtension>
        </extensions>
      </trkpt>
      <trkpt lat="34.2347269691526889801025390625" lon="108.9376527629792690277099609375">
        <ele>406</ele>
        <time>2026-03-17T13:02:42.000Z</time>
        <extensions>
          <ns3:TrackPointExtension>
            <ns3:hr>173</ns3:hr>
            <ns3:cad>107</ns3:cad>
          </ns3:TrackPointExtension>
        </extensions>
      </trkpt>
      <trkpt lat="34.234736524522304534912109375" lon="108.93759660422801971435546875">
        <ele>406.20001220703125</ele>
        <time>2026-03-17T13:02:43.000Z</time>
        <extensions>
          <ns3:TrackPointExtension>
            <ns3:hr>173</ns3:hr>
            <ns3:cad>106</ns3:cad>
          </ns3:TrackPointExtension>
        </extensions>
      </trkpt>
      <trkpt lat="34.23474960029125213623046875" lon="108.93755100667476654052734375">
        <ele>406.20001220703125</ele>
        <time>2026-03-17T13:02:44.000Z</time>
        <extensions>
          <ns3:TrackPointExtension>
            <ns3:hr>173</ns3:hr>
            <ns3:cad>106</ns3:cad>
          </ns3:TrackPointExtension>
        </extensions>
      </trkpt>
      <trkpt lat="34.23475521616637706756591796875" lon="108.93751404248178005218505859375">
        <ele>406.20001220703125</ele>
        <time>2026-03-17T13:02:45.000Z</time>
        <extensions>
          <ns3:TrackPointExtension>
            <ns3:hr>173</ns3:hr>
            <ns3:cad>106</ns3:cad>
          </ns3:TrackPointExtension>
        </extensions>
      </trkpt>
      <trkpt lat="34.2347501032054424285888671875" lon="108.93746810965240001678466796875">
        <ele>406</ele>
        <time>2026-03-17T13:02:46.000Z</time>
        <extensions>
          <ns3:TrackPointExtension>
            <ns3:hr>174</ns3:hr>
            <ns3:cad>106</ns3:cad>
          </ns3:TrackPointExtension>
        </extensions>
      </trkpt>
      <trkpt lat="34.23474079929292201995849609375" lon="108.93741815350949764251708984375">
        <ele>406</ele>
        <time>2026-03-17T13:02:47.000Z</time>
        <extensions>
          <ns3:TrackPointExtension>
            <ns3:hr>174</ns3:hr>
            <ns3:cad>106</ns3:cad>
          </ns3:TrackPointExtension>
        </extensions>
      </trkpt>
      <trkpt lat="34.23473292030394077301025390625" lon="108.9373687840998172760009765625">
        <ele>406</ele>
        <time>2026-03-17T13:02:48.000Z</time>
        <extensions>
          <ns3:TrackPointExtension>
            <ns3:hr>174</ns3:hr>
            <ns3:cad>106</ns3:cad>
          </ns3:TrackPointExtension>
        </extensions>
      </trkpt>
      <trkpt lat="34.2347252927720546722412109375" lon="108.9373335801064968109130859375">
        <ele>406.20001220703125</ele>
        <time>2026-03-17T13:02:49.000Z</time>
        <extensions>
          <ns3:TrackPointExtension>
            <ns3:hr>173</ns3:hr>
            <ns3:cad>106</ns3:cad>
          </ns3:TrackPointExtension>
        </extensions>
      </trkpt>
      <trkpt lat="34.234707690775394439697265625" lon="108.9372926764190196990966796875">
        <ele>406.20001220703125</ele>
        <time>2026-03-17T13:02:50.000Z</time>
        <extensions>
          <ns3:TrackPointExtension>
            <ns3:hr>174</ns3:hr>
            <ns3:cad>106</ns3:cad>
          </ns3:TrackPointExtension>
        </extensions>
      </trkpt>
      <trkpt lat="34.23469117842614650726318359375" lon="108.93724850378930568695068359375">
        <ele>406.20001220703125</ele>
        <time>2026-03-17T13:02:51.000Z</time>
        <extensions>
          <ns3:TrackPointExtension>
            <ns3:hr>174</ns3:hr>
            <ns3:cad>106</ns3:cad>
          </ns3:TrackPointExtension>
        </extensions>
      </trkpt>
      <trkpt lat="34.23468883149325847625732421875" lon="108.937206007540225982666015625">
        <ele>406.20001220703125</ele>
        <time>2026-03-17T13:02:52.000Z</time>
        <extensions>
          <ns3:TrackPointExtension>
            <ns3:hr>173</ns3:hr>
            <ns3:cad>106</ns3:cad>
          </ns3:TrackPointExtension>
        </extensions>
      </trkpt>
      <trkpt lat="34.23468531109392642974853515625" lon="108.93716502003371715545654296875">
        <ele>406.20001220703125</ele>
        <time>2026-03-17T13:02:53.000Z</time>
        <extensions>
          <ns3:TrackPointExtension>
            <ns3:hr>173</ns3:hr>
            <ns3:cad>106</ns3:cad>
          </ns3:TrackPointExtension>
        </extensions>
      </trkpt>
    </trkseg>
  </trk>
</gpx>
