<gpx xmlns:ns3="http://www.garmin.com/xmlschemas/TrackPointExtension/v1" xmlns="http://www.topografix.com/GPX/1/1" xmlns:xsi="http://www.w3.org/2001/XMLSchema-instance" xmlns:ns2="http://www.garmin.com/xmlschemas/GpxExtensions/v3" creator="Garmin Connect" version="1.1" xsi:schemaLocation="http://www.topografix.com/GPX/1/1 http://www.topografix.com/GPX/11.xsd">
  <extensions>
<distance>13209.56</distance>
<average_hr>120.0</average_hr>
<average_speed>3.5139999389648438</average_speed>
<start_time>2026-06-25T00:09:38+00:00</start_time>
<end_time>2026-06-25T01:12:16.889000+00:00</end_time>
<moving_time>3745.572</moving_time>
<elapsed_time>4085.838</elapsed_time>
</extensions>
<metadata>
    <link href="connect.garmin.com">
      <text>Garmin Connect</text>
    </link>
    <time>2026-06-25T00:09:38.000Z</time>
  </metadata>
  <trk>
    <name>基础训练</name>
    <type>treadmill_running</type>
    <trkseg/>
  </trk>
</gpx>
