<gpx xmlns:ns3="http://www.garmin.com/xmlschemas/TrackPointExtension/v1" xmlns="http://www.topografix.com/GPX/1/1" xmlns:xsi="http://www.w3.org/2001/XMLSchema-instance" xmlns:ns2="http://www.garmin.com/xmlschemas/GpxExtensions/v3" creator="Garmin Connect" version="1.1" xsi:schemaLocation="http://www.topografix.com/GPX/1/1 http://www.topografix.com/GPX/11.xsd">
  <extensions>
<distance>13143.8</distance>
<average_hr>123.0</average_hr>
<average_speed>3.5980000495910645</average_speed>
<start_time>2026-07-29T23:30:23+00:00</start_time>
<end_time>2026-07-30T00:31:16.181000+00:00</end_time>
<moving_time>3642.501</moving_time>
<elapsed_time>3653.181</elapsed_time>
</extensions>
<metadata>
    <link href="connect.garmin.com">
      <text>Garmin Connect</text>
    </link>
    <time>2026-07-29T23:30:23.000Z</time>
  </metadata>
  <trk>
    <name>跑步机</name>
    <type>treadmill_running</type>
    <trkseg/>
  </trk>
</gpx>
