<gpx xmlns:ns3="http://www.garmin.com/xmlschemas/TrackPointExtension/v1" xmlns="http://www.topografix.com/GPX/1/1" xmlns:xsi="http://www.w3.org/2001/XMLSchema-instance" xmlns:ns2="http://www.garmin.com/xmlschemas/GpxExtensions/v3" creator="Garmin Connect" version="1.1" xsi:schemaLocation="http://www.topografix.com/GPX/1/1 http://www.topografix.com/GPX/11.xsd">
  <extensions>
<distance>26263.29</distance>
<average_hr>129.0</average_hr>
<average_speed>3.539000034332276</average_speed>
<start_time>2026-08-01T10:05:07+00:00</start_time>
<end_time>2026-08-01T12:08:47.888000+00:00</end_time>
<moving_time>7392.206</moving_time>
<elapsed_time>7773.222</elapsed_time>
</extensions>
<metadata>
    <link href="connect.garmin.com">
      <text>Garmin Connect</text>
    </link>
    <time>2026-08-01T10:05:07.000Z</time>
  </metadata>
  <trk>
    <name>长距离跑</name>
    <type>treadmill_running</type>
    <trkseg/>
  </trk>
</gpx>
