<gpx xmlns:ns3="http://www.garmin.com/xmlschemas/TrackPointExtension/v1" xmlns="http://www.topografix.com/GPX/1/1" xmlns:xsi="http://www.w3.org/2001/XMLSchema-instance" xmlns:ns2="http://www.garmin.com/xmlschemas/GpxExtensions/v3" creator="Garmin Connect" version="1.1" xsi:schemaLocation="http://www.topografix.com/GPX/1/1 http://www.topografix.com/GPX/11.xsd">
  <extensions>
<distance>15156.5</distance>
<average_hr>125.0</average_hr>
<average_speed>3.5980000495910645</average_speed>
<start_time>2026-08-05T11:05:54+00:00</start_time>
<end_time>2026-08-05T12:16:06.838000+00:00</end_time>
<moving_time>4186.384</moving_time>
<elapsed_time>4407.274</elapsed_time>
</extensions>
<metadata>
    <link href="connect.garmin.com">
      <text>Garmin Connect</text>
    </link>
    <time>2026-08-05T11:05:54.000Z</time>
  </metadata>
  <trk>
    <name>基础训练</name>
    <type>treadmill_running</type>
    <trkseg/>
  </trk>
</gpx>
